{"type":"FeatureCollection","crs":{"type":"name","properties":{"name":"EPSG:4326"}},"features":[{"type":"Feature","id":1,"geometry":{"type":"Point","coordinates":[-121.437173,38.606023]},"properties":{"OBJECTID":1,"geographic_region":"ACRC","short_name":"Alta California","long_name":"Alta California Regional Center","geographic_type":"Regional Center","address":"2241 Harvard Street","suite":"Ste. 100","city":"Sacramento","state":"CA","zip_code":95815,"phone_number":"(916) 978-6400","website":"https://www.altraregional.org","latitude_y":38.606023,"longitude_x":-121.437173}},{"type":"Feature","id":2,"geometry":{"type":"Point","coordinates":[-119.858062,36.8052460000001]},"properties":{"OBJECTID":2,"geographic_region":"CVRC","short_name":"Central Valley","long_name":"Central Valley Regional Center","geographic_type":"Regional Center","address":"4615 North Marty Avenue","suite":null,"city":"Fresno","state":"CA","zip_code":93722,"phone_number":"(559) 276-4300","website":"https://www.cvrc.org","latitude_y":36.805246,"longitude_x":-119.858062}},{"type":"Feature","id":3,"geometry":{"type":"Point","coordinates":[-118.151849,34.080352]},"properties":{"OBJECTID":3,"geographic_region":"ELARC","short_name":"Eastern Los Angeles","long_name":"Eastern Los Angeles Regional Center","geographic_type":"Regional Center","address":"1000 South Fremont Avenue","suite":null,"city":"Alhambra","state":"CA","zip_code":91802,"phone_number":"(626) 299-4700","website":"https://www.elarc.org","latitude_y":34.080352,"longitude_x":-118.151849}},{"type":"Feature","id":4,"geometry":{"type":"Point","coordinates":[-118.294495,34.0617720000001]},"properties":{"OBJECTID":4,"geographic_region":"FDLRC","short_name":"Frank D. Lanterman","long_name":"Frank D. Lanterman Regional Center","geographic_type":"Regional Center","address":"3303 Wilshire Blvd.","suite":"Ste. 700","city":"Los Angeles","state":"CA","zip_code":90010,"phone_number":"(213) 383-1300","website":"https://www.lanterman.org","latitude_y":34.061772,"longitude_x":-118.294495}},{"type":"Feature","id":5,"geometry":{"type":"Point","coordinates":[-122.354053,40.579248]},"properties":{"OBJECTID":5,"geographic_region":"FNRC","short_name":"Far Northern","long_name":"Far Northern Regional Center","geographic_type":"Regional Center","address":"1900 Churn Creek Road","suite":"Ste. 319","city":"Redding","state":"CA","zip_code":96002,"phone_number":"(530) 222-4791","website":"https://www.farnorthernrc.org","latitude_y":40.579248,"longitude_x":-122.354053}},{"type":"Feature","id":6,"geometry":{"type":"Point","coordinates":[-122.417006,37.7769480000001]},"properties":{"OBJECTID":6,"geographic_region":"GGRC","short_name":"Golden Gate","long_name":"Golden Gate Regional Center","geographic_type":"Regional Center","address":"1355 Market Street","suite":"Ste. 220","city":"San Francisco","state":"CA","zip_code":94103,"phone_number":"(415) 546-9222","website":"https://www.ggrc.org","latitude_y":37.776948,"longitude_x":-122.417006}},{"type":"Feature","id":7,"geometry":{"type":"Point","coordinates":[-118.353594,33.836732]},"properties":{"OBJECTID":7,"geographic_region":"HRC","short_name":"Harbor","long_name":"Harbor Regional Center","geographic_type":"Regional Center","address":"21231 Hawthorne Blvd.","suite":null,"city":"Torrance","state":"CA","zip_code":90503,"phone_number":"(310) 540-1711","website":"https://www.harborrc.org","latitude_y":33.836732,"longitude_x":-118.353594}},{"type":"Feature","id":8,"geometry":{"type":"Point","coordinates":[-117.278652,34.075389]},"properties":{"OBJECTID":8,"geographic_region":"IRC","short_name":"Inland","long_name":"Inland Regional Center","geographic_type":"Regional Center","address":"1365 South Waterman Avenue","suite":null,"city":"San Bernardino","state":"CA","zip_code":92408,"phone_number":"(909) 890-3000","website":"https://www.inlandrc.org","latitude_y":34.075389,"longitude_x":-117.278652}},{"type":"Feature","id":9,"geometry":{"type":"Point","coordinates":[-119.037181,35.38888]},"properties":{"OBJECTID":9,"geographic_region":"KRC","short_name":"Kern","long_name":"Kern Regional Center","geographic_type":"Regional Center","address":"3200 North Sillect Avenue","suite":null,"city":"Bakersfield","state":"CA","zip_code":93308,"phone_number":"(661) 327-8531","website":"https://www.kernrc.org","latitude_y":35.38888,"longitude_x":-119.037181}},{"type":"Feature","id":10,"geometry":{"type":"Point","coordinates":[-122.269063,38.218198]},"properties":{"OBJECTID":10,"geographic_region":"NBRC","short_name":"North Bay","long_name":"North Bay Regional Center","geographic_type":"Regional Center","address":"610 Airpark Road","suite":null,"city":"Napa","state":"CA","zip_code":94558,"phone_number":"(707) 256-1100","website":"https://www.nbrc.net","latitude_y":38.218198,"longitude_x":-122.269063}},{"type":"Feature","id":11,"geometry":{"type":"Point","coordinates":[-118.468492,34.201126]},"properties":{"OBJECTID":11,"geographic_region":"NLACRC","short_name":"North Los Angeles County","long_name":"North Los Angeles County Regional Center","geographic_type":"Regional Center","address":"15400 Sherman Way","suite":"Ste. 170","city":"Van Nuys","state":"CA","zip_code":91406,"phone_number":"(818) 778-1900","website":"https://www.nlacrc.org","latitude_y":34.201126,"longitude_x":-118.468492}},{"type":"Feature","id":12,"geometry":{"type":"Point","coordinates":[-122.160823,37.724223]},"properties":{"OBJECTID":12,"geographic_region":"RCEB","short_name":"East Bay","long_name":"Regional Center of the East Bay","geographic_type":"Regional Center","address":"500 Davis Street","suite":"Ste. 100","city":"San Leandro","state":"CA","zip_code":94577,"phone_number":"(510) 618-6100","website":"https://www.rceb.org","latitude_y":37.724223,"longitude_x":-122.160823}},{"type":"Feature","id":13,"geometry":{"type":"Point","coordinates":[-117.834155,33.758623]},"properties":{"OBJECTID":13,"geographic_region":"RCOC","short_name":"Orange County","long_name":"Regional Center of Orange County","geographic_type":"Regional Center","address":"1525 North Tustin Avenue","suite":null,"city":"Santa Ana","state":"CA","zip_code":92705,"phone_number":"(714) 796-5100","website":"https://www.rcocdd.com","latitude_y":33.758623,"longitude_x":-117.834155}},{"type":"Feature","id":14,"geometry":{"type":"Point","coordinates":[-124.166116,40.8044810000001]},"properties":{"OBJECTID":14,"geographic_region":"RCRC","short_name":"Redwood Coast","long_name":"Redwood Coast Regional Center","geographic_type":"Regional Center","address":"525 2nd Street","suite":"Ste. 300","city":"Eureka","state":"CA","zip_code":95501,"phone_number":"(707) 445-0893","website":"https://www.redwoodcoastrc.org","latitude_y":40.804481,"longitude_x":-124.166116}},{"type":"Feature","id":15,"geometry":{"type":"Point","coordinates":[-121.944083,37.286235]},"properties":{"OBJECTID":15,"geographic_region":"SARC","short_name":"San Andreas","long_name":"San Andreas Regional Center","geographic_type":"Regional Center","address":"300 Orchard City Drive","suite":"Ste. 170","city":"Campbell","state":"CA","zip_code":95008,"phone_number":"(408) 374-9960","website":"https://www.sarc.org","latitude_y":37.286235,"longitude_x":-121.944083}},{"type":"Feature","id":16,"geometry":{"type":"Point","coordinates":[-118.308972,34.0326820000001]},"properties":{"OBJECTID":16,"geographic_region":"SCLARC","short_name":"South Central Los Angeles","long_name":"South Central Los Angeles Regional Center","geographic_type":"Regional Center","address":"2500 South Western Avenue","suite":null,"city":"Los Angeles","state":"CA","zip_code":90018,"phone_number":"(213) 744-7000","website":"https://www.sclarc.org","latitude_y":34.032682,"longitude_x":-118.308972}},{"type":"Feature","id":17,"geometry":{"type":"Point","coordinates":[-117.127051,32.820117]},"properties":{"OBJECTID":17,"geographic_region":"SDRC","short_name":"San Diego","long_name":"San Diego Regional Center","geographic_type":"Regional Center","address":"4355 Ruffin Road","suite":"Ste. 200","city":"San Diego","state":"CA","zip_code":92123,"phone_number":"(858) 576-2996","website":"https://www.sdrc.org","latitude_y":32.820117,"longitude_x":-117.127051}},{"type":"Feature","id":18,"geometry":{"type":"Point","coordinates":[-117.756777,34.0276880000001]},"properties":{"OBJECTID":18,"geographic_region":"SGPRC","short_name":"San Gabriel / Pomona","long_name":"San Gabriel/Pomona Regional Center","geographic_type":"Regional Center","address":"75 Rancho Camino Drive","suite":null,"city":"Pomona","state":"CA","zip_code":91766,"phone_number":"(909) 620-7722","website":"https://www.sgprc.org","latitude_y":34.027688,"longitude_x":-117.756777}},{"type":"Feature","id":19,"geometry":{"type":"Point","coordinates":[-119.686748,34.420707]},"properties":{"OBJECTID":19,"geographic_region":"TCRC","short_name":"Tri-Counties","long_name":"Tri-Counties Regional Center","geographic_type":"Regional Center","address":"520 East Montecito Street","suite":null,"city":"Santa Barbara","state":"CA","zip_code":93103,"phone_number":"(805) 962-7881","website":"https://www.tri-counties.org","latitude_y":34.420707,"longitude_x":-119.686748}},{"type":"Feature","id":20,"geometry":{"type":"Point","coordinates":[-121.281678,37.96191]},"properties":{"OBJECTID":20,"geographic_region":"VMRC","short_name":"Valley Mountain","long_name":"Valley Mountain Regional Center","geographic_type":"Regional Center","address":"702 North Aurora Street","suite":null,"city":"Stockton","state":"CA","zip_code":95202,"phone_number":"(209) 473-0951","website":"https://www.vmrc.net","latitude_y":37.96191,"longitude_x":-121.281678}},{"type":"Feature","id":21,"geometry":{"type":"Point","coordinates":[-118.392,33.983957]},"properties":{"OBJECTID":21,"geographic_region":"WRC","short_name":"West","long_name":"Westside Regional Center","geographic_type":"Regional Center","address":"5901 Green Valley Circle","suite":"Ste. 320","city":"Culver City","state":"CA","zip_code":90230,"phone_number":"(310) 258-4000","website":"https://www.westsiderc.org","latitude_y":33.983957,"longitude_x":-118.392}}]}