{"type":"FeatureCollection","crs":{"type":"name","properties":{"name":"EPSG:4326"}},"features":[{"type":"Feature","id":1,"geometry":{"type":"Point","coordinates":[-121.833011025,39.760753014]},"properties":{"ObjectID":1,"Loc_name":"World","Status":"M","Score":100,"Match_type":"A","Match_addr":"1161 East Ave, Chico, California, 95926","LongLabel":"1161 East Ave, Chico, CA, 95926, USA","ShortLabel":"1161 East Ave","Addr_type":"PointAddress","Type":"","PlaceName":"","Place_addr":"1161 East Ave, Chico, California, 95926","Phone":"","URL":"","Rank":20,"AddBldg":"","AddNum":"1161","AddNumFrom":"","AddNumTo":"","AddRange":"","Side":"","StPreDir":"","StPreType":"","StName":"East","StType":"Ave","StDir":"","BldgType":"","BldgName":"","LevelType":"","LevelName":"","UnitType":"","UnitName":"","SubAddr":"","StAddr":"1161 East Ave","Block":"","Sector":"","Nbrhd":"","District":"","City":"Chico","MetroArea":"","Subregion":"Butte County","Region":"California","RegionAbbr":"CA","Territory":"","Zone":"","Postal":"95926","PostalExt":"1018","Country":"USA","CntryName":"United States","LangCode":"ENG","Distance":0,"X":-121.833011024554,"Y":39.760952503309,"DisplayX":-121.833011024554,"DisplayY":39.7607530140135,"Xmin":-121.834011024554,"Xmax":-121.832011024554,"Ymin":39.7597530140135,"Ymax":39.7617530140135,"ExInfo":"","IN_Address":"1161 East Avenue","IN_Address2":"","IN_Address3":null,"IN_Neighborhood":null,"IN_City":"Chico","IN_Subregion":null,"IN_Region":"CA","IN_Postal":"95926","IN_PostalExt":null,"IN_CountryCode":null,"USER_Organization":"Disability Action Center","USER_Street":"1161 East Avenue","USER_Unit":"","USER_City":"Chico","USER_State":"CA","USER_Zip":"95926","USER_Address":"1161 East Avenue, Chico, CA, 95926","USER_Contact":"Carolyn Nava","USER_Phone":"(530) 893-8527 x114","USER_CDDA_Phone":"(800) 390-2699","USER_Email":"wecare@actionctr.org","USER_Counties_Served":"Butte, Glenn, Lassen, Modoc, Plumas","USER_URL1":"https://actionctr.org/","USER_URL2":"https://disabilitydisasteraccess.org/","USER_DDA_Region":4,"USER_Label":"Independent Living Centers","USER_F17":null,"USER_F18":null,"USER_F19":null,"ORG_SHORT":"DAC"}},{"type":"Feature","id":2,"geometry":{"type":"Point","coordinates":[-121.659237995,36.672437017]},"properties":{"ObjectID":2,"Loc_name":"World","Status":"M","Score":100,"Match_type":"A","Match_addr":"318 Cayuga St, Ste 208, Salinas, California, 93901","LongLabel":"318 Cayuga St, Ste 208, Salinas, CA, 93901, USA","ShortLabel":"318 Cayuga St, Ste 208","Addr_type":"Subaddress","Type":"","PlaceName":"","Place_addr":"318 Cayuga St, Ste 208, Salinas, California, 93901","Phone":"","URL":"","Rank":20,"AddBldg":"","AddNum":"318","AddNumFrom":"","AddNumTo":"","AddRange":"","Side":"","StPreDir":"","StPreType":"","StName":"Cayuga","StType":"St","StDir":"","BldgType":"","BldgName":"","LevelType":"","LevelName":"","UnitType":"Ste","UnitName":"208","SubAddr":"Ste 208","StAddr":"318 Cayuga St","Block":"","Sector":"","Nbrhd":"","District":"","City":"Salinas","MetroArea":"","Subregion":"Monterey County","Region":"California","RegionAbbr":"CA","Territory":"","Zone":"","Postal":"93901","PostalExt":"2668","Country":"USA","CntryName":"United States","LangCode":"ENG","Distance":0,"X":-121.658900623051,"Y":36.6725125381129,"DisplayX":-121.659237994654,"DisplayY":36.6724370171653,"Xmin":-121.660237994654,"Xmax":-121.658237994654,"Ymin":36.6714370171653,"Ymax":36.6734370171653,"ExInfo":"","IN_Address":"318 Cayuga St.","IN_Address2":"Suite 208","IN_Address3":null,"IN_Neighborhood":null,"IN_City":"Salinas","IN_Subregion":null,"IN_Region":"CA","IN_Postal":"93901","IN_PostalExt":null,"IN_CountryCode":null,"USER_Organization":"Central Coast Center for Independent Living","USER_Street":"318 Cayuga St.","USER_Unit":"Suite 208","USER_City":"Salinas","USER_State":"CA","USER_Zip":"93901","USER_Address":"318 Cayuga St., Suite 208, Salinas, CA, 93901","USER_Contact":"Jorge Ruiz","USER_Phone":"(831) 757-2968 x12","USER_CDDA_Phone":"(800) 390-2699","USER_Email":"info@cccil.org","USER_Counties_Served":"Monterey, San Benito, Santa Cruz","USER_URL1":"http://www.cccil.org","USER_URL2":"https://disabilitydisasteraccess.org/","USER_DDA_Region":1,"USER_Label":"Independent Living Centers","USER_F17":null,"USER_F18":null,"USER_F19":null,"ORG_SHORT":"CCCIL"}},{"type":"Feature","id":3,"geometry":{"type":"Point","coordinates":[-122.282107026,37.5555749970001]},"properties":{"ObjectID":3,"Loc_name":"World","Status":"M","Score":100,"Match_type":"A","Match_addr":"2001 Winward Way, Ste 103, San Mateo, California, 94404","LongLabel":"2001 Winward Way, Ste 103, San Mateo, CA, 94404, USA","ShortLabel":"2001 Winward Way, Ste 103","Addr_type":"Subaddress","Type":"","PlaceName":"","Place_addr":"2001 Winward Way, Ste 103, San Mateo, California, 94404","Phone":"","URL":"","Rank":20,"AddBldg":"","AddNum":"2001","AddNumFrom":"","AddNumTo":"","AddRange":"","Side":"","StPreDir":"","StPreType":"","StName":"Winward","StType":"Way","StDir":"","BldgType":"","BldgName":"","LevelType":"","LevelName":"","UnitType":"Ste","UnitName":"103","SubAddr":"Ste 103","StAddr":"2001 Winward Way","Block":"","Sector":"","Nbrhd":"","District":"","City":"San Mateo","MetroArea":"","Subregion":"San Mateo County","Region":"California","RegionAbbr":"CA","Territory":"","Zone":"","Postal":"94404","PostalExt":"2499","Country":"USA","CntryName":"United States","LangCode":"ENG","Distance":0,"X":-122.282224037816,"Y":37.5557086884769,"DisplayX":-122.282107026448,"DisplayY":37.5555749971213,"Xmin":-122.283107026448,"Xmax":-122.281107026448,"Ymin":37.5545749971213,"Ymax":37.5565749971213,"ExInfo":"","IN_Address":"2001 Winward Way","IN_Address2":"Suite 103","IN_Address3":null,"IN_Neighborhood":null,"IN_City":"San Mateo","IN_Subregion":null,"IN_Region":"CA","IN_Postal":"94404","IN_PostalExt":null,"IN_CountryCode":null,"USER_Organization":"Center for Independence of Individuals with Disabilities","USER_Street":"2001 Winward Way","USER_Unit":"Suite 103","USER_City":"San Mateo","USER_State":"CA","USER_Zip":"94404","USER_Address":"2001 Winward Way, Suite 103, San Mateo, CA, 94404","USER_Contact":"Paul Cruz","USER_Phone":"(650) 645-1780 x112","USER_CDDA_Phone":"(800) 390-2699","USER_Email":null,"USER_Counties_Served":"San Mateo","USER_URL1":"http://www.cidsanmateo.org","USER_URL2":"https://disabilitydisasteraccess.org/","USER_DDA_Region":2,"USER_Label":"Independent Living Centers","USER_F17":null,"USER_F18":null,"USER_F19":null,"ORG_SHORT":"CID"}},{"type":"Feature","id":4,"geometry":{"type":"Point","coordinates":[-122.09288397,37.6694239990001]},"properties":{"ObjectID":4,"Loc_name":"World","Status":"M","Score":100,"Match_type":"A","Match_addr":"439 A St, Hayward, California, 94541","LongLabel":"439 A St, Hayward, CA, 94541, USA","ShortLabel":"439 A St","Addr_type":"PointAddress","Type":"","PlaceName":"","Place_addr":"439 A St, Hayward, California, 94541","Phone":"","URL":"","Rank":20,"AddBldg":"","AddNum":"439","AddNumFrom":"","AddNumTo":"","AddRange":"","Side":"","StPreDir":"","StPreType":"","StName":"A","StType":"St","StDir":"","BldgType":"","BldgName":"","LevelType":"","LevelName":"","UnitType":"","UnitName":"","SubAddr":"","StAddr":"439 A St","Block":"","Sector":"","Nbrhd":"","District":"","City":"Hayward","MetroArea":"","Subregion":"Alameda County","Region":"California","RegionAbbr":"CA","Territory":"","Zone":"","Postal":"94541","PostalExt":"5013","Country":"USA","CntryName":"United States","LangCode":"ENG","Distance":0,"X":-122.092939960814,"Y":37.6695659885507,"DisplayX":-122.0928839697,"DisplayY":37.6694239991109,"Xmin":-122.0938839697,"Xmax":-122.0918839697,"Ymin":37.6684239991109,"Ymax":37.6704239991109,"ExInfo":"","IN_Address":"439 A Street","IN_Address2":"","IN_Address3":null,"IN_Neighborhood":null,"IN_City":"Hayward","IN_Subregion":null,"IN_Region":"CA","IN_Postal":"94541","IN_PostalExt":null,"IN_CountryCode":null,"USER_Organization":"Community Resources for Independent Living","USER_Street":"439 A Street","USER_Unit":"","USER_City":"Hayward","USER_State":"CA","USER_Zip":"94541","USER_Address":"439 A Street, Hayward, CA, 94541","USER_Contact":"Justina Victoriano","USER_Phone":"(510) 881-5743 x38","USER_CDDA_Phone":"(800) 390-2699","USER_Email":null,"USER_Counties_Served":"Alameda","USER_URL1":"http://www.crilhayward.org","USER_URL2":"https://disabilitydisasteraccess.org/","USER_DDA_Region":3,"USER_Label":"Independent Living Centers","USER_F17":null,"USER_F18":null,"USER_F19":null,"ORG_SHORT":"CRIL"}},{"type":"Feature","id":5,"geometry":{"type":"Point","coordinates":[-122.375514033,40.5734110070001]},"properties":{"ObjectID":5,"Loc_name":"World","Status":"M","Score":100,"Match_type":"A","Match_addr":"2453 Athens Ave, Redding, California, 96001","LongLabel":"2453 Athens Ave, Redding, CA, 96001, USA","ShortLabel":"2453 Athens Ave","Addr_type":"PointAddress","Type":"","PlaceName":"","Place_addr":"2453 Athens Ave, Redding, California, 96001","Phone":"","URL":"","Rank":20,"AddBldg":"","AddNum":"2453","AddNumFrom":"","AddNumTo":"","AddRange":"","Side":"","StPreDir":"","StPreType":"","StName":"Athens","StType":"Ave","StDir":"","BldgType":"","BldgName":"","LevelType":"","LevelName":"","UnitType":"","UnitName":"","SubAddr":"","StAddr":"2453 Athens Ave","Block":"","Sector":"","Nbrhd":"","District":"","City":"Redding","MetroArea":"","Subregion":"Shasta County","Region":"California","RegionAbbr":"CA","Territory":"","Zone":"","Postal":"96001","PostalExt":"2838","Country":"USA","CntryName":"United States","LangCode":"ENG","Distance":0,"X":-122.376523382206,"Y":40.5736063050914,"DisplayX":-122.375514033425,"DisplayY":40.5734110067475,"Xmin":-122.376514033425,"Xmax":-122.374514033425,"Ymin":40.5724110067475,"Ymax":40.5744110067475,"ExInfo":"","IN_Address":"2453 Athens Ave","IN_Address2":"","IN_Address3":null,"IN_Neighborhood":null,"IN_City":"Redding","IN_Subregion":null,"IN_Region":"CA","IN_Postal":"96001","IN_PostalExt":null,"IN_CountryCode":null,"USER_Organization":"Disability Action Center","USER_Street":"2453 Athens Ave","USER_Unit":"","USER_City":"Redding","USER_State":"CA","USER_Zip":"96001","USER_Address":"2453 Athens Ave, Redding, CA, 96001","USER_Contact":"Wendy Longwell","USER_Phone":"(530) 242-8550","USER_CDDA_Phone":"(800) 390-2699","USER_Email":"wecare@actionctr.org","USER_Counties_Served":"Shasta, Siskiyou, Tehama","USER_URL1":"https://actionctr.org/","USER_URL2":"https://disabilitydisasteraccess.org/","USER_DDA_Region":4,"USER_Label":"Independent Living Centers","USER_F17":null,"USER_F18":null,"USER_F19":null,"ORG_SHORT":"DAC"}},{"type":"Feature","id":6,"geometry":{"type":"Point","coordinates":[-122.294113013,38.304107994]},"properties":{"ObjectID":6,"Loc_name":"World","Status":"M","Score":100,"Match_type":"A","Match_addr":"1820 Jefferson St, Napa, California, 94559","LongLabel":"1820 Jefferson St, Napa, CA, 94559, USA","ShortLabel":"1820 Jefferson St","Addr_type":"PointAddress","Type":"","PlaceName":"","Place_addr":"1820 Jefferson St, Napa, California, 94559","Phone":"","URL":"","Rank":20,"AddBldg":"","AddNum":"1820","AddNumFrom":"","AddNumTo":"","AddRange":"","Side":"","StPreDir":"","StPreType":"","StName":"Jefferson","StType":"St","StDir":"","BldgType":"","BldgName":"","LevelType":"","LevelName":"","UnitType":"","UnitName":"","SubAddr":"","StAddr":"1820 Jefferson St","Block":"","Sector":"","Nbrhd":"","District":"","City":"Napa","MetroArea":"","Subregion":"Napa County","Region":"California","RegionAbbr":"CA","Territory":"","Zone":"","Postal":"94559","PostalExt":"1618","Country":"USA","CntryName":"United States","LangCode":"ENG","Distance":0,"X":-122.294453653644,"Y":38.304018810533,"DisplayX":-122.294113013099,"DisplayY":38.3041079939828,"Xmin":-122.295113013099,"Xmax":-122.293113013099,"Ymin":38.3031079939828,"Ymax":38.3051079939828,"ExInfo":"","IN_Address":"1820 Jefferson Street","IN_Address2":"","IN_Address3":null,"IN_Neighborhood":null,"IN_City":"Napa","IN_Subregion":null,"IN_Region":"CA","IN_Postal":"94559","IN_PostalExt":null,"IN_CountryCode":null,"USER_Organization":"Disability Services & Legal Center","USER_Street":"1820 Jefferson Street","USER_Unit":"","USER_City":"Napa","USER_State":"CA","USER_Zip":"94559","USER_Address":"1820 Jefferson Street, Napa, CA, 94559","USER_Contact":"Jordon Rico","USER_Phone":"(707) 331-1839","USER_CDDA_Phone":"(800) 390-2699","USER_Email":"Contact@MyDSLC.org","USER_Counties_Served":"Napa","USER_URL1":"http://mydslc.org/","USER_URL2":"https://disabilitydisasteraccess.org/","USER_DDA_Region":8,"USER_Label":"Independent Living Centers","USER_F17":null,"USER_F18":null,"USER_F19":null,"ORG_SHORT":"DSLC"}},{"type":"Feature","id":7,"geometry":{"type":"Point","coordinates":[-118.441662993,33.999981016]},"properties":{"ObjectID":7,"Loc_name":"World","Status":"M","Score":100,"Match_type":"A","Match_addr":"12901 Venice Blvd, Los Angeles, California, 90066","LongLabel":"12901 Venice Blvd, Los Angeles, CA, 90066, USA","ShortLabel":"12901 Venice Blvd","Addr_type":"PointAddress","Type":"","PlaceName":"","Place_addr":"12901 Venice Blvd, Los Angeles, California, 90066","Phone":"","URL":"","Rank":20,"AddBldg":"","AddNum":"12901","AddNumFrom":"","AddNumTo":"","AddRange":"","Side":"","StPreDir":"","StPreType":"","StName":"Venice","StType":"Blvd","StDir":"","BldgType":"","BldgName":"","LevelType":"","LevelName":"","UnitType":"","UnitName":"","SubAddr":"","StAddr":"12901 Venice Blvd","Block":"","Sector":"","Nbrhd":"","District":"","City":"Los Angeles","MetroArea":"","Subregion":"Los Angeles County","Region":"California","RegionAbbr":"CA","Territory":"","Zone":"","Postal":"90066","PostalExt":"3509","Country":"USA","CntryName":"United States","LangCode":"ENG","Distance":0,"X":-118.441563834642,"Y":33.9997770842164,"DisplayX":-118.441662992556,"DisplayY":33.9999810159206,"Xmin":-118.442662992556,"Xmax":-118.440662992556,"Ymin":33.9989810159206,"Ymax":34.0009810159206,"ExInfo":"","IN_Address":"12901 Venice Blvd.","IN_Address2":"","IN_Address3":null,"IN_Neighborhood":null,"IN_City":"Los Angeles","IN_Subregion":null,"IN_Region":"CA","IN_Postal":"90066","IN_PostalExt":null,"IN_CountryCode":null,"USER_Organization":"Disability Community Resource Center","USER_Street":"12901 Venice Blvd.","USER_Unit":"","USER_City":"Los Angeles","USER_State":"CA","USER_Zip":"90066","USER_Address":"12901 Venice Blvd., Los Angeles, CA, 90066","USER_Contact":"TJ Hill","USER_Phone":"(310) 390-3611","USER_CDDA_Phone":"(800) 390-2699","USER_Email":null,"USER_Counties_Served":"Los Angeles","USER_URL1":"https://www.dcrc.co/","USER_URL2":"https://disabilitydisasteraccess.org/","USER_DDA_Region":5,"USER_Label":"Independent Living Centers","USER_F17":null,"USER_F18":null,"USER_F19":null,"ORG_SHORT":"DCRC"}},{"type":"Feature","id":8,"geometry":{"type":"Point","coordinates":[-120.977909966,37.689371001]},"properties":{"ObjectID":8,"Loc_name":"World","Status":"M","Score":100,"Match_type":"A","Match_addr":"1101 Sylvan Ave, Modesto, California, 95350","LongLabel":"1101 Sylvan Ave, Modesto, CA, 95350, USA","ShortLabel":"1101 Sylvan Ave","Addr_type":"PointAddress","Type":"","PlaceName":"","Place_addr":"1101 Sylvan Ave, Modesto, California, 95350","Phone":"","URL":"","Rank":20,"AddBldg":"","AddNum":"1101","AddNumFrom":"","AddNumTo":"","AddRange":"","Side":"","StPreDir":"","StPreType":"","StName":"Sylvan","StType":"Ave","StDir":"","BldgType":"","BldgName":"","LevelType":"","LevelName":"","UnitType":"","UnitName":"","SubAddr":"","StAddr":"1101 Sylvan Ave","Block":"","Sector":"","Nbrhd":"","District":"","City":"Modesto","MetroArea":"","Subregion":"Stanislaus County","Region":"California","RegionAbbr":"CA","Territory":"","Zone":"","Postal":"95350","PostalExt":"1607","Country":"USA","CntryName":"United States","LangCode":"ENG","Distance":0,"X":-120.977916168504,"Y":37.6889455354256,"DisplayX":-120.977909965896,"DisplayY":37.6893710008307,"Xmin":-120.978909965896,"Xmax":-120.976909965896,"Ymin":37.6883710008307,"Ymax":37.6903710008307,"ExInfo":"","IN_Address":"1101 Sylvan Ave.","IN_Address2":"Suite C-105","IN_Address3":null,"IN_Neighborhood":null,"IN_City":"Modesto","IN_Subregion":null,"IN_Region":"CA","IN_Postal":"95350","IN_PostalExt":null,"IN_CountryCode":null,"USER_Organization":"Disability Resource Agency for Independent Living","USER_Street":"1101 Sylvan Ave.","USER_Unit":"Suite C-105","USER_City":"Modesto","USER_State":"CA","USER_Zip":"95350","USER_Address":"1101 Sylvan Ave., Suite C-105, Modesto, CA, 95350","USER_Contact":"Heather Santos","USER_Phone":"(209) 521-7260","USER_CDDA_Phone":"(800) 390-2699","USER_Email":null,"USER_Counties_Served":"Alpine, Amador, Calaveras, Mariposa, San Joaquin, Stanislaus, Tuolumne","USER_URL1":"http://www.drail.org","USER_URL2":"https://disabilitydisasteraccess.org/","USER_DDA_Region":6,"USER_Label":"Independent Living Centers","USER_F17":null,"USER_F18":null,"USER_F19":null,"ORG_SHORT":"DRAIL"}},{"type":"Feature","id":9,"geometry":{"type":"Point","coordinates":[-122.715996831,38.442921782]},"properties":{"ObjectID":9,"Loc_name":"World","Status":"M","Score":100,"Match_type":"A","Match_addr":"521 Mendocino Ave, Santa Rosa, California, 95401","LongLabel":"521 Mendocino Ave, Santa Rosa, CA, 95401, USA","ShortLabel":"521 Mendocino Ave","Addr_type":"PointAddress","Type":"","PlaceName":"","Place_addr":"521 Mendocino Ave, Santa Rosa, California, 95401","Phone":"","URL":"","Rank":20,"AddBldg":"","AddNum":"521","AddNumFrom":"","AddNumTo":"","AddRange":"","Side":"","StPreDir":"","StPreType":"","StName":"Mendocino","StType":"Ave","StDir":"","BldgType":"","BldgName":"","LevelType":"","LevelName":"","UnitType":"","UnitName":"","SubAddr":"","StAddr":"521 Mendocino Ave","Block":"","Sector":"","Nbrhd":"","District":"","City":"Santa Rosa","MetroArea":"","Subregion":"Sonoma County","Region":"California","RegionAbbr":"CA","Territory":"","Zone":"","Postal":"95401","PostalExt":"5241","Country":"USA","CntryName":"United States","LangCode":"ENG","Distance":0,"X":-122.715996831058,"Y":38.4429217821187,"DisplayX":-122.715996831058,"DisplayY":38.4429217821187,"Xmin":-122.716996831058,"Xmax":-122.714996831058,"Ymin":38.4419217821187,"Ymax":38.4439217821187,"ExInfo":"","IN_Address":"521 Mendocino Ave.","IN_Address2":"","IN_Address3":null,"IN_Neighborhood":null,"IN_City":"Santa Rosa","IN_Subregion":null,"IN_Region":"CA","IN_Postal":"95401","IN_PostalExt":null,"IN_CountryCode":null,"USER_Organization":"Disability Services & Legal Center","USER_Street":"521 Mendocino Ave.","USER_Unit":"","USER_City":"Santa Rosa","USER_State":"CA","USER_Zip":"95401","USER_Address":"521 Mendocino Ave., Santa Rosa, CA, 95401","USER_Contact":"Jordon Rico","USER_Phone":"(707) 331-1839","USER_CDDA_Phone":"(800) 390-2699","USER_Email":"Contact@MyDSLC.org","USER_Counties_Served":"Lake, Sonoma","USER_URL1":"http://mydslc.org/","USER_URL2":"https://disabilitydisasteraccess.org/","USER_DDA_Region":8,"USER_Label":"Independent Living Centers","USER_F17":null,"USER_F18":null,"USER_F19":null,"ORG_SHORT":"DSLC"}},{"type":"Feature","id":10,"geometry":{"type":"Point","coordinates":[-123.200358858,39.136136992]},"properties":{"ObjectID":10,"Loc_name":"World","Status":"M","Score":100,"Match_type":"A","Match_addr":"415 Talmage Rd, Ukiah, California, 95482","LongLabel":"415 Talmage Rd, Ukiah, CA, 95482, USA","ShortLabel":"415 Talmage Rd","Addr_type":"StreetAddress","Type":"","PlaceName":"","Place_addr":"415 Talmage Rd, Ukiah, California, 95482","Phone":"","URL":"","Rank":20,"AddBldg":"","AddNum":"415","AddNumFrom":"415","AddNumTo":"401","AddRange":"401-415","Side":"L","StPreDir":"","StPreType":"","StName":"Talmage","StType":"Rd","StDir":"","BldgType":"","BldgName":"","LevelType":"","LevelName":"","UnitType":"","UnitName":"","SubAddr":"","StAddr":"415 Talmage Rd","Block":"","Sector":"","Nbrhd":"","District":"","City":"Ukiah","MetroArea":"","Subregion":"Mendocino County","Region":"California","RegionAbbr":"CA","Territory":"","Zone":"","Postal":"95482","PostalExt":"7486","Country":"USA","CntryName":"United States","LangCode":"ENG","Distance":0,"X":-123.200358858355,"Y":39.1361369915954,"DisplayX":-123.200358858355,"DisplayY":39.1361369915954,"Xmin":-123.201358858355,"Xmax":-123.199358858355,"Ymin":39.1351369915954,"Ymax":39.1371369915954,"ExInfo":"","IN_Address":"415 Talmage Road","IN_Address2":"Suite B","IN_Address3":null,"IN_Neighborhood":null,"IN_City":"Ukiah","IN_Subregion":null,"IN_Region":"CA","IN_Postal":"95482","IN_PostalExt":null,"IN_CountryCode":null,"USER_Organization":"Disability Services & Legal Center","USER_Street":"415 Talmage Road","USER_Unit":"Suite B","USER_City":"Ukiah","USER_State":"CA","USER_Zip":"95482","USER_Address":"415 Talmage Road, Suite B, Ukiah, CA, 95482","USER_Contact":"Jordon Rico","USER_Phone":"(707) 331-1839","USER_CDDA_Phone":"(800) 390-2699","USER_Email":"Contact@MyDSLC.org","USER_Counties_Served":"Mendocino","USER_URL1":"http://mydslc.org/","USER_URL2":"https://disabilitydisasteraccess.org/","USER_DDA_Region":8,"USER_Label":"Independent Living Centers","USER_F17":null,"USER_F18":null,"USER_F19":null,"ORG_SHORT":"DSLC"}},{"type":"Feature","id":11,"geometry":{"type":"Point","coordinates":[-121.035133973,39.2324429980001]},"properties":{"ObjectID":11,"Loc_name":"World","Status":"M","Score":100,"Match_type":"A","Match_addr":"435 Sutton Way, Grass Valley, California, 95945","LongLabel":"435 Sutton Way, Grass Valley, CA, 95945, USA","ShortLabel":"435 Sutton Way","Addr_type":"PointAddress","Type":"","PlaceName":"","Place_addr":"435 Sutton Way, Grass Valley, California, 95945","Phone":"","URL":"","Rank":20,"AddBldg":"","AddNum":"435","AddNumFrom":"","AddNumTo":"","AddRange":"","Side":"","StPreDir":"","StPreType":"","StName":"Sutton","StType":"Way","StDir":"","BldgType":"","BldgName":"","LevelType":"","LevelName":"","UnitType":"","UnitName":"","SubAddr":"","StAddr":"435 Sutton Way","Block":"","Sector":"","Nbrhd":"","District":"","City":"Grass Valley","MetroArea":"","Subregion":"Nevada County","Region":"California","RegionAbbr":"CA","Territory":"","Zone":"","Postal":"95945","PostalExt":"4102","Country":"USA","CntryName":"United States","LangCode":"ENG","Distance":0,"X":-121.036040727531,"Y":39.2321677362697,"DisplayX":-121.035133973246,"DisplayY":39.2324429979699,"Xmin":-121.036133973246,"Xmax":-121.034133973246,"Ymin":39.2314429979699,"Ymax":39.2334429979699,"ExInfo":"","IN_Address":"435 Sutton Way","IN_Address2":"","IN_Address3":null,"IN_Neighborhood":null,"IN_City":"Grass Valley","IN_Subregion":null,"IN_Region":"CA","IN_Postal":"95945","IN_PostalExt":null,"IN_CountryCode":null,"USER_Organization":"FREED Center for Independent Living","USER_Street":"435 Sutton Way","USER_Unit":"","USER_City":"Grass Valley","USER_State":"CA","USER_Zip":"95945","USER_Address":"435 Sutton Way, Grass Valley, CA, 95945","USER_Contact":"Brian Snyder","USER_Phone":"(530) 477-3333","USER_CDDA_Phone":"(800) 390-2699","USER_Email":"FREEDMarysville@FREED.org","USER_Counties_Served":"Colusa, El Dorado, Nevada, Placer, Sierra, Sutter, Yuba","USER_URL1":"http://www.freed.org","USER_URL2":"https://disabilitydisasteraccess.org/","USER_DDA_Region":9,"USER_Label":"Independent Living Centers","USER_F17":null,"USER_F18":null,"USER_F19":null,"ORG_SHORT":"FREED"}},{"type":"Feature","id":12,"geometry":{"type":"Point","coordinates":[-118.159336018,33.811149017]},"properties":{"ObjectID":12,"Loc_name":"World","Status":"M","Score":100,"Match_type":"A","Match_addr":"2750 E Spring St, Long Beach, California, 90806","LongLabel":"2750 E Spring St, Long Beach, CA, 90806, USA","ShortLabel":"2750 E Spring St","Addr_type":"PointAddress","Type":"","PlaceName":"","Place_addr":"2750 E Spring St, Long Beach, California, 90806","Phone":"","URL":"","Rank":20,"AddBldg":"","AddNum":"2750","AddNumFrom":"","AddNumTo":"","AddRange":"","Side":"","StPreDir":"E","StPreType":"","StName":"Spring","StType":"St","StDir":"","BldgType":"","BldgName":"","LevelType":"","LevelName":"","UnitType":"","UnitName":"","SubAddr":"","StAddr":"2750 E Spring St","Block":"","Sector":"","Nbrhd":"","District":"","City":"Long Beach","MetroArea":"","Subregion":"Los Angeles County","Region":"California","RegionAbbr":"CA","Territory":"","Zone":"","Postal":"90806","PostalExt":"2249","Country":"USA","CntryName":"United States","LangCode":"ENG","Distance":0,"X":-118.15929452803,"Y":33.811584708193,"DisplayX":-118.15933601845,"DisplayY":33.8111490168661,"Xmin":-118.16033601845,"Xmax":-118.15833601845,"Ymin":33.8101490168661,"Ymax":33.8121490168661,"ExInfo":"","IN_Address":"2750 East Spring Street","IN_Address2":"","IN_Address3":null,"IN_Neighborhood":null,"IN_City":"Long Beach","IN_Subregion":null,"IN_Region":"CA","IN_Postal":"90806","IN_PostalExt":null,"IN_CountryCode":null,"USER_Organization":"Disabled Resources Center","USER_Street":"2750 East Spring Street","USER_Unit":"","USER_City":"Long Beach","USER_State":"CA","USER_Zip":"90806","USER_Address":"2750 East Spring Street, Long Beach, CA, 90806","USER_Contact":"Mario Rodriguez","USER_Phone":"(562) 427-1000","USER_CDDA_Phone":"(800) 390-2699","USER_Email":"info@drcinc.org","USER_Counties_Served":"Long Beach (Los Angeles County), Orange","USER_URL1":"http://www.drcinc.org","USER_URL2":"https://disabilitydisasteraccess.org/","USER_DDA_Region":7,"USER_Label":null,"USER_F17":null,"USER_F18":null,"USER_F19":null,"ORG_SHORT":"DRC"}},{"type":"Feature","id":13,"geometry":{"type":"Point","coordinates":[-120.673746039,35.2511389860001]},"properties":{"ObjectID":13,"Loc_name":"World","Status":"M","Score":100,"Match_type":"A","Match_addr":"51 Zaca Ln, Ste 140, San Luis Obispo, California, 93401","LongLabel":"51 Zaca Ln, Ste 140, San Luis Obispo, CA, 93401, USA","ShortLabel":"51 Zaca Ln, Ste 140","Addr_type":"Subaddress","Type":"","PlaceName":"","Place_addr":"51 Zaca Ln, Ste 140, San Luis Obispo, California, 93401","Phone":"","URL":"","Rank":20,"AddBldg":"","AddNum":"51","AddNumFrom":"","AddNumTo":"","AddRange":"","Side":"","StPreDir":"","StPreType":"","StName":"Zaca","StType":"Ln","StDir":"","BldgType":"","BldgName":"","LevelType":"","LevelName":"","UnitType":"Ste","UnitName":"140","SubAddr":"Ste 140","StAddr":"51 Zaca Ln","Block":"","Sector":"","Nbrhd":"","District":"","City":"San Luis Obispo","MetroArea":"","Subregion":"San Luis Obispo County","Region":"California","RegionAbbr":"CA","Territory":"","Zone":"","Postal":"93401","PostalExt":"7353","Country":"USA","CntryName":"United States","LangCode":"ENG","Distance":0,"X":-120.673648892284,"Y":35.2514035186038,"DisplayX":-120.673746038542,"DisplayY":35.2511389857396,"Xmin":-120.674746038542,"Xmax":-120.672746038542,"Ymin":35.2501389857396,"Ymax":35.2521389857396,"ExInfo":"","IN_Address":"51 Zaca Lane","IN_Address2":"Suite 140","IN_Address3":null,"IN_Neighborhood":null,"IN_City":"San Luis Obispo","IN_Subregion":null,"IN_Region":"CA","IN_Postal":"93401","IN_PostalExt":null,"IN_CountryCode":null,"USER_Organization":"Independent Living Resource Center - San Luis Obispo County","USER_Street":"51 Zaca Lane","USER_Unit":"Suite 140","USER_City":"San Luis Obispo","USER_State":"CA","USER_Zip":"93401","USER_Address":"51 Zaca Lane, Suite 140, San Luis Obispo, CA, 93401","USER_Contact":"Brandon Smith","USER_Phone":"(805) 310-4123 x303","USER_CDDA_Phone":"(800) 390-2699","USER_Email":"info@ilrc-trico.org","USER_Counties_Served":"San Luis Obispo","USER_URL1":"http://www.ilrc-trico.org","USER_URL2":"https://disabilitydisasteraccess.org/","USER_DDA_Region":11,"USER_Label":"Independent Living Centers","USER_F17":null,"USER_F18":null,"USER_F19":null,"ORG_SHORT":"ILRC"}},{"type":"Feature","id":14,"geometry":{"type":"Point","coordinates":[-119.060762012,35.3653510080001]},"properties":{"ObjectID":14,"Loc_name":"World","Status":"M","Score":100,"Match_type":"A","Match_addr":"5251 Office Park Dr, Bakersfield, California, 93309","LongLabel":"5251 Office Park Dr, Bakersfield, CA, 93309, USA","ShortLabel":"5251 Office Park Dr","Addr_type":"PointAddress","Type":"","PlaceName":"","Place_addr":"5251 Office Park Dr, Bakersfield, California, 93309","Phone":"","URL":"","Rank":20,"AddBldg":"","AddNum":"5251","AddNumFrom":"","AddNumTo":"","AddRange":"","Side":"","StPreDir":"","StPreType":"","StName":"Office Park","StType":"Dr","StDir":"","BldgType":"","BldgName":"","LevelType":"","LevelName":"","UnitType":"","UnitName":"","SubAddr":"","StAddr":"5251 Office Park Dr","Block":"","Sector":"","Nbrhd":"","District":"","City":"Bakersfield","MetroArea":"","Subregion":"Kern County","Region":"California","RegionAbbr":"CA","Territory":"","Zone":"","Postal":"93309","PostalExt":"0404","Country":"USA","CntryName":"United States","LangCode":"ENG","Distance":0,"X":-119.060932248393,"Y":35.3659680836674,"DisplayX":-119.06076201194,"DisplayY":35.3653510079558,"Xmin":-119.06176201194,"Xmax":-119.05976201194,"Ymin":35.3643510079558,"Ymax":35.3663510079558,"ExInfo":"","IN_Address":"5251 Office Park Drive","IN_Address2":"","IN_Address3":null,"IN_Neighborhood":null,"IN_City":"Bakersfield","IN_Subregion":null,"IN_Region":"CA","IN_Postal":"93309","IN_PostalExt":null,"IN_CountryCode":null,"USER_Organization":"Independent Living Center of Kern County","USER_Street":"5251 Office Park Drive","USER_Unit":"","USER_City":"Bakersfield","USER_State":"CA","USER_Zip":"93309","USER_Address":"5251 Office Park Drive, Bakersfield, CA, 93309","USER_Contact":"Jan Lemucchi","USER_Phone":"(661) 858-4326","USER_CDDA_Phone":"(800) 390-2699","USER_Email":"info@ilcofkerncounty.org","USER_Counties_Served":"Kern","USER_URL1":"http://www.ilcofkerncounty.org","USER_URL2":"https://disabilitydisasteraccess.org/","USER_DDA_Region":10,"USER_Label":"Independent Living Centers","USER_F17":null,"USER_F18":null,"USER_F19":null,"ORG_SHORT":"ILCKC"}},{"type":"Feature","id":15,"geometry":{"type":"Point","coordinates":[-120.438718289,34.924790864]},"properties":{"ObjectID":15,"Loc_name":"World","Status":"M","Score":100,"Match_type":"A","Match_addr":"218 W Carmen Ln, Santa Maria, California, 93458","LongLabel":"218 W Carmen Ln, Santa Maria, CA, 93458, USA","ShortLabel":"218 W Carmen Ln","Addr_type":"StreetAddress","Type":"","PlaceName":"","Place_addr":"218 W Carmen Ln, Santa Maria, California, 93458","Phone":"","URL":"","Rank":20,"AddBldg":"","AddNum":"218","AddNumFrom":"124","AddNumTo":"398","AddRange":"124-398","Side":"L","StPreDir":"W","StPreType":"","StName":"Carmen","StType":"Ln","StDir":"","BldgType":"","BldgName":"","LevelType":"","LevelName":"","UnitType":"","UnitName":"","SubAddr":"","StAddr":"218 W Carmen Ln","Block":"","Sector":"","Nbrhd":"","District":"","City":"Santa Maria","MetroArea":"","Subregion":"Santa Barbara County","Region":"California","RegionAbbr":"CA","Territory":"","Zone":"","Postal":"93458","PostalExt":"7731","Country":"USA","CntryName":"United States","LangCode":"ENG","Distance":0,"X":-120.438718289019,"Y":34.9247908637685,"DisplayX":-120.438718289019,"DisplayY":34.9247908637685,"Xmin":-120.439718289019,"Xmax":-120.437718289019,"Ymin":34.9237908637685,"Ymax":34.9257908637685,"ExInfo":"","IN_Address":"218 W. Carmen Lane","IN_Address2":"Suite 109","IN_Address3":null,"IN_Neighborhood":null,"IN_City":"Santa Maria","IN_Subregion":null,"IN_Region":"CA","IN_Postal":"93458","IN_PostalExt":null,"IN_CountryCode":null,"USER_Organization":"Independent Living Resource Center - Santa Maria Office","USER_Street":"218 W. Carmen Lane","USER_Unit":"Suite 109","USER_City":"Santa Maria","USER_State":"CA","USER_Zip":"93458","USER_Address":"218 W. Carmen Lane, Suite 109, Santa Maria, CA, 93458","USER_Contact":"Brandon Smith","USER_Phone":"(805) 310-4123 x303","USER_CDDA_Phone":"(800) 390-2699","USER_Email":"info@ilrc-trico.org","USER_Counties_Served":"Santa Barbara","USER_URL1":"http://www.ilrc-trico.org","USER_URL2":"https://disabilitydisasteraccess.org/","USER_DDA_Region":11,"USER_Label":"Independent Living Centers","USER_F17":null,"USER_F18":null,"USER_F19":null,"ORG_SHORT":"ILRC"}},{"type":"Feature","id":16,"geometry":{"type":"Point","coordinates":[-119.21475199,34.2690810120001]},"properties":{"ObjectID":16,"Loc_name":"World","Status":"M","Score":100,"Match_type":"A","Match_addr":"702 County Square Dr, Ventura, California, 93003","LongLabel":"702 County Square Dr, Ventura, CA, 93003, USA","ShortLabel":"702 County Square Dr","Addr_type":"PointAddress","Type":"","PlaceName":"","Place_addr":"702 County Square Dr, Ventura, California, 93003","Phone":"","URL":"","Rank":20,"AddBldg":"","AddNum":"702","AddNumFrom":"","AddNumTo":"","AddRange":"","Side":"","StPreDir":"","StPreType":"","StName":"County Square","StType":"Dr","StDir":"","BldgType":"","BldgName":"","LevelType":"","LevelName":"","UnitType":"","UnitName":"","SubAddr":"","StAddr":"702 County Square Dr","Block":"","Sector":"","Nbrhd":"","District":"","City":"Ventura","MetroArea":"","Subregion":"Ventura County","Region":"California","RegionAbbr":"CA","Territory":"","Zone":"","Postal":"93003","PostalExt":"5450","Country":"USA","CntryName":"United States","LangCode":"ENG","Distance":0,"X":-119.214923400066,"Y":34.2693080772968,"DisplayX":-119.214751990146,"DisplayY":34.2690810115398,"Xmin":-119.215751990146,"Xmax":-119.213751990146,"Ymin":34.2680810115398,"Ymax":34.2700810115398,"ExInfo":"","IN_Address":"702 County Square Dr.","IN_Address2":"Suite 105","IN_Address3":null,"IN_Neighborhood":null,"IN_City":"Ventura","IN_Subregion":null,"IN_Region":"CA","IN_Postal":"93003","IN_PostalExt":null,"IN_CountryCode":null,"USER_Organization":"Independent Living Resource Center - Ventura Office","USER_Street":"702 County Square Dr.","USER_Unit":"Suite 105","USER_City":"Ventura","USER_State":"CA","USER_Zip":"93003","USER_Address":"702 County Square Dr., Suite 105, Ventura, CA, 93003","USER_Contact":"Brandon Smith","USER_Phone":"(805) 310-4123 x303","USER_CDDA_Phone":"(800) 390-2699","USER_Email":"info@ilrc-trico.org","USER_Counties_Served":"Ventura","USER_URL1":"http://www.ilrc-trico.org","USER_URL2":"https://disabilitydisasteraccess.org/","USER_DDA_Region":11,"USER_Label":"Independent Living Centers","USER_F17":null,"USER_F18":null,"USER_F19":null,"ORG_SHORT":"ILRC"}},{"type":"Feature","id":17,"geometry":{"type":"Point","coordinates":[-122.04228703,37.971942014]},"properties":{"ObjectID":17,"Loc_name":"World","Status":"M","Score":100,"Match_type":"A","Match_addr":"1850 Gateway Blvd, Ste 170, Concord, California, 94520","LongLabel":"1850 Gateway Blvd, Ste 170, Concord, CA, 94520, USA","ShortLabel":"1850 Gateway Blvd, Ste 170","Addr_type":"Subaddress","Type":"","PlaceName":"","Place_addr":"1850 Gateway Blvd, Ste 170, Concord, California, 94520","Phone":"","URL":"","Rank":20,"AddBldg":"","AddNum":"1850","AddNumFrom":"","AddNumTo":"","AddRange":"","Side":"","StPreDir":"","StPreType":"","StName":"Gateway","StType":"Blvd","StDir":"","BldgType":"","BldgName":"","LevelType":"","LevelName":"","UnitType":"Ste","UnitName":"170","SubAddr":"Ste 170","StAddr":"1850 Gateway Blvd","Block":"","Sector":"","Nbrhd":"","District":"","City":"Concord","MetroArea":"","Subregion":"Contra Costa County","Region":"California","RegionAbbr":"CA","Territory":"","Zone":"","Postal":"94520","PostalExt":"8468","Country":"USA","CntryName":"United States","LangCode":"ENG","Distance":0,"X":-122.042249479351,"Y":37.971453768188,"DisplayX":-122.042287030277,"DisplayY":37.9719420140479,"Xmin":-122.043287030277,"Xmax":-122.041287030277,"Ymin":37.9709420140479,"Ymax":37.9729420140479,"ExInfo":"","IN_Address":"1850 Gateway Blvd","IN_Address2":"Suite 170","IN_Address3":null,"IN_Neighborhood":null,"IN_City":"Concord","IN_Subregion":null,"IN_Region":"CA","IN_Postal":"94520","IN_PostalExt":null,"IN_CountryCode":null,"USER_Organization":"Independent Living Resources of Solano & Contra Costa Counties - Main Office","USER_Street":"1850 Gateway Blvd","USER_Unit":"Suite 170","USER_City":"Concord","USER_State":"CA","USER_Zip":"94520","USER_Address":"1850 Gateway Blvd, Suite 170, Concord, CA, 94520","USER_Contact":"Ron Halog","USER_Phone":"(925) 421-9246","USER_CDDA_Phone":"(800) 390-2699","USER_Email":null,"USER_Counties_Served":"Contra Costa","USER_URL1":"http://www.ilrscc.org","USER_URL2":"https://disabilitydisasteraccess.org/","USER_DDA_Region":12,"USER_Label":"Independent Living Centers","USER_F17":null,"USER_F18":null,"USER_F19":null,"ORG_SHORT":"ILRSCC"}},{"type":"Feature","id":18,"geometry":{"type":"Point","coordinates":[-122.52298901,37.97277002]},"properties":{"ObjectID":18,"Loc_name":"World","Status":"M","Score":100,"Match_type":"A","Match_addr":"710 4th St, San Rafael, California, 94901","LongLabel":"710 4th St, San Rafael, CA, 94901, USA","ShortLabel":"710 4th St","Addr_type":"PointAddress","Type":"","PlaceName":"","Place_addr":"710 4th St, San Rafael, California, 94901","Phone":"","URL":"","Rank":20,"AddBldg":"","AddNum":"710","AddNumFrom":"","AddNumTo":"","AddRange":"","Side":"","StPreDir":"","StPreType":"","StName":"4th","StType":"St","StDir":"","BldgType":"","BldgName":"","LevelType":"","LevelName":"","UnitType":"","UnitName":"","SubAddr":"","StAddr":"710 4th St","Block":"","Sector":"","Nbrhd":"","District":"","City":"San Rafael","MetroArea":"","Subregion":"Marin County","Region":"California","RegionAbbr":"CA","Territory":"","Zone":"","Postal":"94901","PostalExt":"3213","Country":"USA","CntryName":"United States","LangCode":"ENG","Distance":0,"X":-122.523015999479,"Y":37.9725535157941,"DisplayX":-122.522989009751,"DisplayY":37.972770020353,"Xmin":-122.523989009751,"Xmax":-122.521989009751,"Ymin":37.971770020353,"Ymax":37.973770020353,"ExInfo":"","IN_Address":"710 Fourth Street","IN_Address2":"","IN_Address3":null,"IN_Neighborhood":null,"IN_City":"San Rafael","IN_Subregion":null,"IN_Region":"CA","IN_Postal":"94901","IN_PostalExt":null,"IN_CountryCode":null,"USER_Organization":"Marin Center for Independent Living","USER_Street":"710 Fourth Street","USER_Unit":"","USER_City":"San Rafael","USER_State":"CA","USER_Zip":"94901","USER_Address":"710 Fourth Street, San Rafael, CA, 94901","USER_Contact":"Ellie Agustin","USER_Phone":"(415) 459-6245","USER_CDDA_Phone":"(800) 390-2699","USER_Email":null,"USER_Counties_Served":"Marin, San Francisco","USER_URL1":"http://www.marincil.org","USER_URL2":"https://disabilitydisasteraccess.org/","USER_DDA_Region":13,"USER_Label":"Independent Living Centers","USER_F17":null,"USER_F18":null,"USER_F19":null,"ORG_SHORT":"MCIL"}},{"type":"Feature","id":19,"geometry":{"type":"Point","coordinates":[-121.500192639,38.5829869880001]},"properties":{"ObjectID":19,"Loc_name":"World","Status":"M","Score":100,"Match_type":"A","Match_addr":"420 I St, Sacramento, California, 95814","LongLabel":"420 I St, Sacramento, CA, 95814, USA","ShortLabel":"420 I St","Addr_type":"PointAddress","Type":"","PlaceName":"","Place_addr":"420 I St, Sacramento, California, 95814","Phone":"","URL":"","Rank":20,"AddBldg":"","AddNum":"420","AddNumFrom":"","AddNumTo":"","AddRange":"","Side":"","StPreDir":"","StPreType":"","StName":"I","StType":"St","StDir":"","BldgType":"","BldgName":"","LevelType":"","LevelName":"","UnitType":"","UnitName":"","SubAddr":"","StAddr":"420 I St","Block":"","Sector":"","Nbrhd":"","District":"","City":"Sacramento","MetroArea":"","Subregion":"Sacramento County","Region":"California","RegionAbbr":"CA","Territory":"","Zone":"","Postal":"95814","PostalExt":"2314","Country":"USA","CntryName":"United States","LangCode":"ENG","Distance":0,"X":-121.500192639185,"Y":38.5829869883987,"DisplayX":-121.500192639185,"DisplayY":38.5829869883987,"Xmin":-121.501192639185,"Xmax":-121.499192639185,"Ymin":38.5819869883987,"Ymax":38.5839869883987,"ExInfo":"","IN_Address":"420 I Street","IN_Address2":"Level B: Suite 3","IN_Address3":null,"IN_Neighborhood":null,"IN_City":"Sacramento","IN_Subregion":null,"IN_Region":"CA","IN_Postal":"95814","IN_PostalExt":null,"IN_CountryCode":null,"USER_Organization":"Resources for Independent Living","USER_Street":"420 I Street","USER_Unit":"Level B: Suite 3","USER_City":"Sacramento","USER_State":"CA","USER_Zip":"95814","USER_Address":"420 I Street, Level B: Suite 3, Sacramento, CA, 95814","USER_Contact":"Angie Guerrero","USER_Phone":"(916) 446-3074","USER_CDDA_Phone":"(800) 390-2699","USER_Email":null,"USER_Counties_Served":"Sacramento, Yolo","USER_URL1":"http://www.ril-sacramento.org","USER_URL2":"https://disabilitydisasteraccess.org/","USER_DDA_Region":15,"USER_Label":"Independent Living Centers","USER_F17":null,"USER_F18":null,"USER_F19":null,"ORG_SHORT":"RIL"}},{"type":"Feature","id":20,"geometry":{"type":"Point","coordinates":[-122.08203896,38.2347780040001]},"properties":{"ObjectID":20,"Loc_name":"World","Status":"M","Score":100,"Match_type":"A","Match_addr":"490 Chadbourne Rd, Ste B, Fairfield, California, 94534","LongLabel":"490 Chadbourne Rd, Ste B, Fairfield, CA, 94534, USA","ShortLabel":"490 Chadbourne Rd, Ste B","Addr_type":"Subaddress","Type":"","PlaceName":"","Place_addr":"490 Chadbourne Rd, Ste B, Fairfield, California, 94534","Phone":"","URL":"","Rank":20,"AddBldg":"","AddNum":"490","AddNumFrom":"","AddNumTo":"","AddRange":"","Side":"","StPreDir":"","StPreType":"","StName":"Chadbourne","StType":"Rd","StDir":"","BldgType":"","BldgName":"","LevelType":"","LevelName":"","UnitType":"Ste","UnitName":"B","SubAddr":"Ste B","StAddr":"490 Chadbourne Rd","Block":"","Sector":"","Nbrhd":"","District":"","City":"Fairfield","MetroArea":"","Subregion":"Solano County","Region":"California","RegionAbbr":"CA","Territory":"","Zone":"","Postal":"94534","PostalExt":"9613","Country":"USA","CntryName":"United States","LangCode":"ENG","Distance":0,"X":-122.081547445656,"Y":38.2347780038765,"DisplayX":-122.082038960458,"DisplayY":38.2347780038765,"Xmin":-122.083038960458,"Xmax":-122.081038960458,"Ymin":38.2337780038765,"Ymax":38.2357780038765,"ExInfo":"","IN_Address":"490 Chadbourne Rd.","IN_Address2":"Suite B","IN_Address3":null,"IN_Neighborhood":null,"IN_City":"Fairfield","IN_Subregion":null,"IN_Region":"CA","IN_Postal":"94534","IN_PostalExt":null,"IN_CountryCode":null,"USER_Organization":"Independent Living Resources of Solano & Contra Costa Counties - Solano Office","USER_Street":"490 Chadbourne Rd.","USER_Unit":"Suite B","USER_City":"Fairfield","USER_State":"CA","USER_Zip":"94534","USER_Address":"490 Chadbourne Rd., Suite B, Fairfield, CA, 94534","USER_Contact":"Susan Rotchy","USER_Phone":"(707) 410-6471","USER_CDDA_Phone":"(800) 390-2699","USER_Email":null,"USER_Counties_Served":"Solano","USER_URL1":"http://www.ilrscc.org","USER_URL2":"https://disabilitydisasteraccess.org/","USER_DDA_Region":12,"USER_Label":"Independent Living Centers","USER_F17":null,"USER_F18":null,"USER_F19":null,"ORG_SHORT":"ILRSCC"}},{"type":"Feature","id":21,"geometry":{"type":"Point","coordinates":[-117.303947041,34.521162014]},"properties":{"ObjectID":21,"Loc_name":"World","Status":"M","Score":100,"Match_type":"A","Match_addr":"16519 Victor St, Ste 406, Victorville, California, 92395","LongLabel":"16519 Victor St, Ste 406, Victorville, CA, 92395, USA","ShortLabel":"16519 Victor St, Ste 406","Addr_type":"Subaddress","Type":"","PlaceName":"","Place_addr":"16519 Victor St, Ste 406, Victorville, California, 92395","Phone":"","URL":"","Rank":20,"AddBldg":"","AddNum":"16519","AddNumFrom":"","AddNumTo":"","AddRange":"","Side":"","StPreDir":"","StPreType":"","StName":"Victor","StType":"St","StDir":"","BldgType":"","BldgName":"","LevelType":"","LevelName":"","UnitType":"Ste","UnitName":"406","SubAddr":"Ste 406","StAddr":"16519 Victor St","Block":"","Sector":"","Nbrhd":"","District":"","City":"Victorville","MetroArea":"","Subregion":"San Bernardino County","Region":"California","RegionAbbr":"CA","Territory":"","Zone":"","Postal":"92395","PostalExt":"3968","Country":"USA","CntryName":"United States","LangCode":"ENG","Distance":0,"X":-117.304453224551,"Y":34.5212740798114,"DisplayX":-117.303947041418,"DisplayY":34.521162013766,"Xmin":-117.304947041418,"Xmax":-117.302947041418,"Ymin":34.520162013766,"Ymax":34.522162013766,"ExInfo":"","IN_Address":"16519 Victor St.","IN_Address2":"Suite 406","IN_Address3":null,"IN_Neighborhood":null,"IN_City":"Victorville","IN_Subregion":null,"IN_Region":"CA","IN_Postal":"92395","IN_PostalExt":null,"IN_CountryCode":null,"USER_Organization":"Rolling Start, Inc.","USER_Street":"16519 Victor St.","USER_Unit":"Suite 406","USER_City":"Victorville","USER_State":"CA","USER_Zip":"92395","USER_Address":"16519 Victor St., Suite 406, Victorville, CA, 92395","USER_Contact":"Bruce Morgan","USER_Phone":"(760) 949-7626","USER_CDDA_Phone":"(800) 390-2699","USER_Email":null,"USER_Counties_Served":"Inyo, Mono, San Bernardino, Riverside","USER_URL1":"http://www.rollingstart.com","USER_URL2":"https://disabilitydisasteraccess.org/","USER_DDA_Region":16,"USER_Label":"Independent Living Centers","USER_F17":null,"USER_F18":null,"USER_F19":null,"ORG_SHORT":"RSI"}},{"type":"Feature","id":22,"geometry":{"type":"Point","coordinates":[-124.169574997,40.8016869850001]},"properties":{"ObjectID":22,"Loc_name":"World","Status":"M","Score":100,"Match_type":"A","Match_addr":"139 5th St, Eureka, California, 95501","LongLabel":"139 5th St, Eureka, CA, 95501, USA","ShortLabel":"139 5th St","Addr_type":"PointAddress","Type":"","PlaceName":"","Place_addr":"139 5th St, Eureka, California, 95501","Phone":"","URL":"","Rank":20,"AddBldg":"","AddNum":"139","AddNumFrom":"","AddNumTo":"","AddRange":"","Side":"","StPreDir":"","StPreType":"","StName":"5th","StType":"St","StDir":"","BldgType":"","BldgName":"","LevelType":"","LevelName":"","UnitType":"","UnitName":"","SubAddr":"","StAddr":"139 5th St","Block":"","Sector":"","Nbrhd":"","District":"","City":"Eureka","MetroArea":"","Subregion":"Humboldt County","Region":"California","RegionAbbr":"CA","Territory":"","Zone":"","Postal":"95501","PostalExt":"0327","Country":"USA","CntryName":"United States","LangCode":"ENG","Distance":0,"X":-124.169544905503,"Y":40.8014721566819,"DisplayX":-124.169574996535,"DisplayY":40.8016869848602,"Xmin":-124.170574996535,"Xmax":-124.168574996535,"Ymin":40.8006869848602,"Ymax":40.8026869848602,"ExInfo":"","IN_Address":"139 FIfth Street","IN_Address2":"","IN_Address3":null,"IN_Neighborhood":null,"IN_City":"Eureka","IN_Subregion":null,"IN_Region":"CA","IN_Postal":"95501","IN_PostalExt":null,"IN_CountryCode":null,"USER_Organization":"Tri-County Independent Living","USER_Street":"139 FIfth Street","USER_Unit":"","USER_City":"Eureka","USER_State":"CA","USER_Zip":"95501","USER_Address":"139 FIfth Street, Eureka, CA, 95501","USER_Contact":"Dawn Albrecht","USER_Phone":"(707) 445-8404","USER_CDDA_Phone":"(800) 390-2699","USER_Email":null,"USER_Counties_Served":"Del Norte, Humboldt, Trinity","USER_URL1":"http://www.tilinet.org","USER_URL2":"https://disabilitydisasteraccess.org/","USER_DDA_Region":19,"USER_Label":"Independent Living Centers","USER_F17":null,"USER_F18":null,"USER_F19":null,"ORG_SHORT":"TCIILC"}},{"type":"Feature","id":44,"geometry":{"type":"Point","coordinates":[-119.771557962,36.783208017]},"properties":{"ObjectID":44,"Loc_name":"World","Status":"M","Score":99.73,"Match_type":"A","Match_addr":"3636 N 1st St, Ste 101, Fresno, California, 93726","LongLabel":"3636 N 1st St, Ste 101, Fresno, CA, 93726, USA","ShortLabel":"3636 N 1st St, Ste 101","Addr_type":"Subaddress","Type":"","PlaceName":"","Place_addr":"3636 N 1st St, Ste 101, Fresno, California, 93726","Phone":"","URL":"","Rank":20,"AddBldg":"","AddNum":"3636","AddNumFrom":"","AddNumTo":"","AddRange":"","Side":"","StPreDir":"N","StPreType":"","StName":"1st","StType":"St","StDir":"","BldgType":"","BldgName":"","LevelType":"","LevelName":"","UnitType":"Ste","UnitName":"101","SubAddr":"Ste 101","StAddr":"3636 N 1st St","Block":"","Sector":"","Nbrhd":"","District":"","City":"Fresno","MetroArea":"","Subregion":"Fresno County","Region":"California","RegionAbbr":"CA","Territory":"","Zone":"","Postal":"93726","PostalExt":"6818","Country":"USA","CntryName":"United States","LangCode":"ENG","Distance":0,"X":-119.772400846599,"Y":36.7832370180559,"DisplayX":-119.771557962416,"DisplayY":36.7832080166709,"Xmin":-119.772557962416,"Xmax":-119.770557962416,"Ymin":36.7822080166709,"Ymax":36.7842080166709,"ExInfo":"93703","IN_Address":"3636 N. First Street","IN_Address2":"Suite 101","IN_Address3":null,"IN_Neighborhood":null,"IN_City":"Fresno","IN_Subregion":null,"IN_Region":"CA","IN_Postal":"93703","IN_PostalExt":null,"IN_CountryCode":null,"USER_Organization":"Resources for Independence, Central Valley","USER_Street":"3636 N. First Street","USER_Unit":"Suite 101","USER_City":"Fresno","USER_State":"CA","USER_Zip":"93703","USER_Address":"3636 N. First Street, Suite 101, Fresno, CA, 93703","USER_Contact":"Suzy Gamez","USER_Phone":"(559) 221-2330","USER_CDDA_Phone":"(800) 390-2699","USER_Email":"info@ricv.org","USER_Counties_Served":"Fresno, Kings, Madera, Merced, Tulare","USER_URL1":"http://www.ricv.org","USER_URL2":"https://disabilitydisasteraccess.org/","USER_DDA_Region":14,"USER_Label":"Independent Living Centers","USER_F17":null,"USER_F18":null,"USER_F19":null,"ORG_SHORT":"RICV"}},{"type":"Feature","id":51,"geometry":{"type":"Point","coordinates":[-117.716731588,34.0928638660001]},"properties":{"ObjectID":51,"Loc_name":"World","Status":"M","Score":98.87,"Match_type":"A","Match_addr":"107 Spring St, Claremont, California, 91711","LongLabel":"107 Spring St, Claremont, CA, 91711, USA","ShortLabel":"107 Spring St","Addr_type":"StreetAddress","Type":"","PlaceName":"","Place_addr":"107 Spring St, Claremont, California, 91711","Phone":"","URL":"","Rank":20,"AddBldg":"","AddNum":"107","AddNumFrom":"199","AddNumTo":"101","AddRange":"101-199","Side":"L","StPreDir":"","StPreType":"","StName":"Spring","StType":"St","StDir":"","BldgType":"","BldgName":"","LevelType":"","LevelName":"","UnitType":"","UnitName":"","SubAddr":"","StAddr":"107 Spring St","Block":"","Sector":"","Nbrhd":"","District":"","City":"Claremont","MetroArea":"Los Angeles Metro Area","Subregion":"Los Angeles County","Region":"California","RegionAbbr":"CA","Territory":"","Zone":"","Postal":"91711","PostalExt":"4930","Country":"USA","CntryName":"United States","LangCode":"ENG","Distance":0,"X":-117.716731588357,"Y":34.0928638657746,"DisplayX":-117.716731588357,"DisplayY":34.0928638657746,"Xmin":-117.717731588357,"Xmax":-117.715731588357,"Ymin":34.0918638657746,"Ymax":34.0938638657746,"ExInfo":"","IN_Address":"107 S. Spring Street","IN_Address2":"","IN_Address3":null,"IN_Neighborhood":null,"IN_City":"Claremont","IN_Subregion":null,"IN_Region":"CA","IN_Postal":"91711","IN_PostalExt":null,"IN_CountryCode":null,"USER_Organization":"Service Center for Independent Life","USER_Street":"107 S. Spring Street","USER_Unit":"","USER_City":"Claremont","USER_State":"CA","USER_Zip":"91711","USER_Address":"107 S. Spring Street, Claremont, CA, 91711","USER_Contact":"Marquis Quinton","USER_Phone":"(909) 621-6722","USER_CDDA_Phone":"(800) 390-2699","USER_Email":null,"USER_Counties_Served":"Los Angeles","USER_URL1":"http://www.scil-ilc.org","USER_URL2":"https://disabilitydisasteraccess.org/","USER_DDA_Region":17,"USER_Label":"Independent Living Centers","USER_F17":null,"USER_F18":null,"USER_F19":null,"ORG_SHORT":"SCIL"}},{"type":"Feature","id":52,"geometry":{"type":"Point","coordinates":[-121.877725041,37.342833996]},"properties":{"ObjectID":52,"Loc_name":"World","Status":"M","Score":100,"Match_type":"A","Match_addr":"25 N 14th St, Ste 1000, San Jose, California, 95112","LongLabel":"25 N 14th St, Ste 1000, San Jose, CA, 95112, USA","ShortLabel":"25 N 14th St, Ste 1000","Addr_type":"Subaddress","Type":"","PlaceName":"","Place_addr":"25 N 14th St, Ste 1000, San Jose, California, 95112","Phone":"","URL":"","Rank":20,"AddBldg":"","AddNum":"25","AddNumFrom":"","AddNumTo":"","AddRange":"","Side":"","StPreDir":"N","StPreType":"","StName":"14th","StType":"St","StDir":"","BldgType":"","BldgName":"","LevelType":"","LevelName":"","UnitType":"Ste","UnitName":"1000","SubAddr":"Ste 1000","StAddr":"25 N 14th St","Block":"","Sector":"","Nbrhd":"","District":"","City":"San Jose","MetroArea":"","Subregion":"Santa Clara County","Region":"California","RegionAbbr":"CA","Territory":"","Zone":"","Postal":"95112","PostalExt":"6209","Country":"USA","CntryName":"United States","LangCode":"ENG","Distance":0,"X":-121.877545249591,"Y":37.3429671010668,"DisplayX":-121.877725041414,"DisplayY":37.3428339964444,"Xmin":-121.878725041415,"Xmax":-121.876725041414,"Ymin":37.3418339964444,"Ymax":37.3438339964444,"ExInfo":"","IN_Address":"25 N. 14th St.","IN_Address2":"Suite 1000","IN_Address3":null,"IN_Neighborhood":null,"IN_City":"San Jose","IN_Subregion":null,"IN_Region":"CA","IN_Postal":"95112","IN_PostalExt":null,"IN_CountryCode":null,"USER_Organization":"Silicon Valley Independent Living Center","USER_Street":"25 N. 14th St.","USER_Unit":"Suite 1000","USER_City":"San Jose","USER_State":"CA","USER_Zip":"95112","USER_Address":"25 N. 14th St., Suite 1000, San Jose, CA, 95112","USER_Contact":"Lisa Samaro","USER_Phone":"(408) 894-9041 x253","USER_CDDA_Phone":"(800) 390-2699","USER_Email":"info@svilc.org","USER_Counties_Served":"Santa Clara","USER_URL1":"http://www.svilc.org","USER_URL2":"https://disabilitydisasteraccess.org/","USER_DDA_Region":18,"USER_Label":"Independent Living Centers","USER_F17":null,"USER_F18":null,"USER_F19":null,"ORG_SHORT":"SVILC"}}]}