{"type":"FeatureCollection","features":[{"type":"Feature","properties":{"counties":["Alpine","Inyo","Mono"],"cocName":"Alpine, Inyo, Mono Counties CoC"},"geometry":{"type":"Polygon","coordinates":[[[-116.8743,36.7521],[-116.2151,36.2495],[-115.6484,35.8092],[-115.7358,35.8091],[-115.7359,35.7936],[-117.9193,35.7984],[-117.9244,35.7984],[-117.923,35.7867],[-118.0081,35.7889],[-118.0077,35.8171],[-117.9986,35.823],[-118.0062,35.829],[-118.0029,35.8413],[-118.0074,35.8582],[-117.9967,35.8695],[-117.9808,35.8675],[-117.9891,35.8813],[-117.9821,35.8947],[-117.9903,35.9141],[-117.9833,35.9266],[-117.992,35.9438],[-118.0069,35.9465],[-118.0111,35.9546],[-118.0168,35.9546],[-118.0146,35.9729],[-118.0045,35.9772],[-118.0036,35.9837],[-118.0121,35.9983],[-118.0336,36.0089],[-118.0371,36.0291],[-118.0414,36.0298],[-118.0395,36.0342],[-118.0463,36.0422],[-118.0427,36.0485],[-118.0517,36.0595],[-118.0516,36.0835],[-118.058,36.0919],[-118.0631,36.0892],[-118.0673,36.0934],[-118.0683,36.1085],[-118.0646,36.1104],[-118.0735,36.1403],[-118.0597,36.1508],[-118.0626,36.1622],[-118.0593,36.1701],[-118.07,36.1786],[-118.0737,36.1894],[-118.0907,36.1973],[-118.1056,36.2134],[-118.1092,36.2255],[-118.1052,36.2336],[-118.1194,36.2556],[-118.1174,36.2712],[-118.1276,36.2804],[-118.127,36.3002],[-118.1201,36.3022],[-118.1216,36.3068],[-118.1118,36.3083],[-118.1125,36.322],[-118.0976,36.3311],[-118.1003,36.3461],[-118.1242,36.3519],[-118.1305,36.3703],[-118.141,36.3716],[-118.1629,36.3894],[-118.1403,36.4035],[-118.1374,36.4153],[-118.1412,36.4209],[-118.1568,36.4326],[-118.1749,36.4265],[-118.1936,36.4265],[-118.2144,36.4343],[-118.2096,36.4421],[-118.2156,36.4563],[-118.2326,36.4663],[-118.237,36.477],[-118.2499,36.4824],[-118.235,36.4937],[-118.2414,36.5],[-118.2388,36.5236],[-118.2494,36.524],[-118.252,36.5421],[-118.2602,36.5441],[-118.2653,36.5515],[-118.2759,36.5508],[-118.2912,36.5593],[-118.2898,36.5732],[-118.2941,36.5774],[-118.288,36.5837],[-118.289,36.5907],[-118.278,36.5923],[-118.2746,36.5973],[-118.2816,36.6045],[-118.2939,36.6051],[-118.3028,36.619],[-118.3213,36.6274],[-118.3188,36.6389],[-118.3382,36.6554],[-118.3295,36.6654],[-118.3312,36.6694],[-118.3475,36.6723],[-118.352,36.6829],[-118.3661,36.6904],[-118.3355,36.7044],[-118.336,36.7163],[-118.3396,36.729],[-118.3509,36.7407],[-118.3692,36.75],[-118.3802,36.7822],[-118.374,36.8002],[-118.3937,36.8297],[-118.3898,36.8345],[-118.3715,36.8361],[-118.3622,36.844],[-118.3622,36.8614],[-118.3702,36.8717],[-118.3608,36.8877],[-118.3884,36.9455],[-118.3966,36.9573],[-118.4047,36.9575],[-118.4044,36.972],[-118.4195,36.9874],[-118.4189,36.9948],[-118.4122,36.9983],[-118.428,37.0112],[-118.4228,37.0258],[-118.4417,37.045],[-118.435,37.0497],[-118.4371,37.0598],[-118.449,37.0691],[-118.4673,37.0668],[-118.4712,37.0727],[-118.4866,37.0774],[-118.5031,37.0952],[-118.5119,37.0928],[-118.5221,37.0984],[-118.5309,37.1112],[-118.5451,37.1154],[-118.5641,37.1132],[-118.569,37.1226],[-118.5831,37.1224],[-118.5927,37.1382],[-118.5997,37.1365],[-118.6134,37.143],[-118.6413,37.1372],[-118.6546,37.1418],[-118.6727,37.1673],[-118.6643,37.1782],[-118.6665,37.1895],[-118.6814,37.2044],[-118.6756,37.2142],[-118.6864,37.2276],[-118.6823,37.234],[-118.6838,37.2444],[-118.6653,37.2619],[-118.6821,37.2805],[-118.695,37.306],[-118.716,37.3282],[-118.7411,37.3153],[-118.7579,37.3288],[-118.7801,37.3349],[-118.7867,37.3434],[-118.7845,37.3517],[-118.7782,37.3583],[-118.7686,37.3598],[-118.7677,37.3677],[-118.79,37.394],[-118.7798,37.4217],[-118.7693,37.4222],[-118.7596,37.4356],[-118.7633,37.4565],[-118.775,37.4631],[-118.7948,37.4875],[-118.8043,37.4889],[-118.8505,37.4758],[-118.8572,37.4795],[-118.8608,37.5015],[-118.8817,37.5103],[-118.8837,37.5201],[-118.8911,37.5253],[-118.9019,37.526],[-118.9012,37.5312],[-118.9171,37.5503],[-118.9297,37.5489],[-118.9527,37.5658],[-118.9641,37.5581],[-118.977,37.5568],[-118.9849,37.5673],[-119.0023,37.5711],[-119.0205,37.5834],[-119.0344,37.6035],[-119.0326,37.6305],[-119.0546,37.6451],[-119.0543,37.6512],[-119.0614,37.6578],[-119.0652,37.6846],[-119.0931,37.7036],[-119.1145,37.7282],[-119.1276,37.7347],[-119.1496,37.7329],[-119.1691,37.7384],[-119.1771,37.7348],[-119.1838,37.7395],[-119.1997,37.7358],[-119.2163,37.7141],[-119.23,37.7174],[-119.2431,37.7286],[-119.251,37.7302],[-119.2579,37.7246],[-119.2688,37.7395],[-119.2559,37.745],[-119.255,37.7563],[-119.2431,37.7691],[-119.2213,37.7791],[-119.2153,37.7899],[-119.203,37.7956],[-119.205,37.8115],[-119.2169,37.8187],[-119.204,37.8298],[-119.2069,37.8399],[-119.1962,37.844],[-119.2169,37.8496],[-119.2126,37.8569],[-119.2133,37.8733],[-119.2003,37.8858],[-119.2077,37.8898],[-119.2108,37.8994],[-119.2199,37.8986],[-119.2345,37.9103],[-119.2639,37.9122],[-119.264,37.9265],[-119.2879,37.933],[-119.3131,37.953],[-119.3146,37.9641],[-119.3226,37.971],[-119.3147,37.9811],[-119.3184,37.9864],[-119.3046,38.0239],[-119.314,38.0345],[-119.3112,38.0448],[-119.3227,38.0499],[-119.3242,38.0609],[-119.3359,38.0663],[-119.3459,38.0831],[-119.3571,38.083],[-119.3651,38.0902],[-119.3802,38.0926],[-119.397,38.1068],[-119.424,38.1074],[-119.4306,38.1163],[-119.4416,38.1027],[-119.4405,38.0957],[-119.4459,38.0931],[-119.4494,38.0996],[-119.4619,38.0972],[-119.4645,38.1036],[-119.4575,38.1106],[-119.4621,38.1091],[-119.4729,38.117],[-119.4695,38.1283],[-119.4885,38.1322],[-119.4895,38.1444],[-119.5013,38.159],[-119.5078,38.1526],[-119.5065,38.1371],[-119.5312,38.1445],[-119.5468,38.1433],[-119.547,38.1544],[-119.5765,38.1577],[-119.5814,38.1725],[-119.5786,38.1769],[-119.5856,38.1844],[-119.5983,38.1816],[-119.6327,38.1989],[-119.625,38.2069],[-119.6244,38.2287],[-119.6042,38.235],[-119.6217,38.2519],[-119.6132,38.2614],[-119.6302,38.2687],[-119.6515,38.2865],[-119.6425,38.2938],[-119.6448,38.3216],[-119.6351,38.329],[-119.6279,38.3481],[-119.6365,38.3281],[-119.7,38.3652],[-119.6943,38.3851],[-119.6987,38.4098],[-119.7079,38.4173],[-119.7507,38.4174],[-119.7706,38.4067],[-119.8014,38.4015],[-119.8147,38.3875],[-119.8376,38.3824],[-119.8848,38.3562],[-120.0537,38.4556],[-120.0726,38.4471],[-120.0733,38.7011],[-119.965,38.776],[-119.9479,38.7816],[-119.9398,38.7936],[-119.944,38.7968],[-119.9425,38.8026],[-119.9213,38.8217],[-119.9227,38.83],[-119.9085,38.8344],[-119.9063,38.8555],[-119.8935,38.8567],[-119.8803,38.8648],[-119.8784,38.8745],[-119.8888,38.8792],[-119.8796,38.8865],[-119.8845,38.8942],[-119.8799,38.8994],[-119.8873,38.9179],[-119.9052,38.9281],[-119.9043,38.9333],[-119.5795,38.7056],[-119.5854,38.7132],[-118.7142,38.1021],[-117.8327,37.4649],[-116.8743,36.7521]]]}},{"type":"Feature","properties":{"counties":["Amador","Calaveras","Mariposa","Tuolumne"],"cocName":"Amador, Calaveras, Mariposa, Tuolumne Counties CoC"},"geometry":{"type":"Polygon","coordinates":[[[-119.5842,37.4947],[-119.6152,37.4947],[-119.6155,37.4615],[-119.6512,37.4614],[-119.6512,37.4178],[-119.7618,37.4171],[-120.0521,37.1831],[-120.0622,37.198],[-120.0901,37.2215],[-120.1438,37.2392],[-120.1785,37.2624],[-120.1866,37.2803],[-120.1827,37.2914],[-120.1877,37.3011],[-120.2035,37.3133],[-120.247,37.3802],[-120.2834,37.4244],[-120.2841,37.4325],[-120.2751,37.4407],[-120.2796,37.458],[-120.3002,37.4843],[-120.2991,37.4888],[-120.3115,37.4972],[-120.3188,37.5208],[-120.3877,37.6334],[-120.38599999999985,37.636087096774425],[-120.3876,37.6337],[-120.6533,37.8319],[-120.9389,38.0883],[-120.9955,38.2254],[-121.0271,38.3003],[-121.0275,38.5083],[-121.0114,38.5125],[-121.0076,38.5191],[-120.9948,38.5137],[-120.9747,38.5159],[-120.9699,38.521],[-120.9525,38.521],[-120.9409,38.5286],[-120.9364,38.5194],[-120.9257,38.5151],[-120.9055,38.5242],[-120.9024,38.5312],[-120.8851,38.5251],[-120.8807,38.5296],[-120.8837,38.5365],[-120.8761,38.5434],[-120.871,38.5363],[-120.8635,38.5353],[-120.8624,38.5433],[-120.8566,38.5427],[-120.8561,38.5486],[-120.8472,38.5538],[-120.8409,38.556],[-120.8359,38.5515],[-120.8136,38.5622],[-120.8105,38.5578],[-120.7941,38.5576],[-120.7842,38.5509],[-120.76,38.5549],[-120.7366,38.5456],[-120.7225,38.5472],[-120.7069,38.5352],[-120.6831,38.5264],[-120.6772,38.5178],[-120.6592,38.5156],[-120.6284,38.5032],[-120.6062,38.5024],[-120.5797,38.5034],[-120.5538,38.5119],[-120.5055,38.5123],[-120.4858,38.5213],[-120.45,38.5285],[-120.4332,38.5268],[-120.3555,38.548],[-120.3179,38.545],[-120.3017,38.5491],[-120.2976,38.5568],[-120.2745,38.5595],[-120.2619,38.5792],[-120.2339,38.5883],[-120.2326,38.6],[-120.2237,38.6043],[-120.2271,38.6106],[-120.2143,38.6291],[-120.2018,38.6247],[-120.1913,38.6312],[-120.1401,38.6384],[-120.1314,38.6498],[-120.1351,38.6545],[-120.1322,38.6603],[-120.1231,38.6667],[-120.1167,38.6798],[-120.1234,38.6869],[-120.1226,38.6954],[-120.112,38.705],[-120.0777,38.7089],[-120.0777,38.7021],[-120.0825,38.7006],[-120.0724,38.7028],[-120.0725,38.5099],[-120.0726,38.4471],[-120.0537,38.4556],[-120.02,38.4335],[-119.8848,38.3562],[-119.8376,38.3824],[-119.8147,38.3875],[-119.8014,38.4015],[-119.7706,38.4067],[-119.7507,38.4174],[-119.7129,38.4185],[-119.6985,38.4093],[-119.6936,38.3789],[-119.7,38.3652],[-119.6392,38.3269],[-119.6452,38.3206],[-119.6425,38.2938],[-119.6515,38.2865],[-119.6302,38.2687],[-119.6132,38.2614],[-119.6217,38.2519],[-119.6042,38.235],[-119.6244,38.2287],[-119.625,38.2069],[-119.6327,38.1989],[-119.5983,38.1816],[-119.5856,38.1844],[-119.5786,38.1769],[-119.5814,38.1725],[-119.5765,38.1577],[-119.547,38.1544],[-119.5468,38.1433],[-119.5312,38.1445],[-119.5065,38.1371],[-119.5078,38.1526],[-119.5029,38.159],[-119.4965,38.1567],[-119.4885,38.1322],[-119.4695,38.1283],[-119.4729,38.117],[-119.4621,38.1091],[-119.4575,38.1106],[-119.4645,38.1036],[-119.4598,38.0963],[-119.4494,38.0996],[-119.4459,38.0931],[-119.4405,38.0957],[-119.4416,38.1027],[-119.4306,38.1163],[-119.424,38.1074],[-119.397,38.1068],[-119.3802,38.0926],[-119.3651,38.0902],[-119.3571,38.083],[-119.3459,38.0831],[-119.3359,38.0663],[-119.3242,38.0609],[-119.3227,38.0499],[-119.3112,38.0448],[-119.314,38.0345],[-119.3046,38.0239],[-119.3184,37.9864],[-119.3147,37.9811],[-119.3226,37.971],[-119.3146,37.9641],[-119.3131,37.953],[-119.2879,37.933],[-119.264,37.9265],[-119.2639,37.9122],[-119.2345,37.9103],[-119.2199,37.8986],[-119.2108,37.8994],[-119.2077,37.8898],[-119.2008,37.8874],[-119.2141,37.8715],[-119.2126,37.8569],[-119.2169,37.8496],[-119.1962,37.844],[-119.2069,37.8399],[-119.204,37.8298],[-119.2169,37.8187],[-119.205,37.8115],[-119.203,37.7956],[-119.2153,37.7899],[-119.2213,37.7791],[-119.2431,37.7691],[-119.255,37.7563],[-119.2547,37.7466],[-119.2612,37.741],[-119.2718,37.7392],[-119.2884,37.745],[-119.2934,37.7679],[-119.30951830483995,37.77758909335885],[-119.5836,37.5603],[-119.5842,37.4947]],[[-120.4318,38.0598],[-120.43177601935038,38.06042349689012],[-120.4425,38.0587],[-120.4318,38.0598]],[[-120.4247,38.0729],[-120.4308,38.0734],[-120.43082297567283,38.07280722764132],[-120.4247,38.0729]],[[-120.0879,38.4034],[-120.1349,38.3965],[-120.13885643966896,38.394341077392184],[-120.0879,38.4034]],[[-120.39376509348952,37.67045956859653],[-120.3941,37.6681],[-120.37559558139534,37.65253279069767],[-120.3753,37.653],[-120.39376509348952,37.67045956859653]],[[-120.3663,37.6808],[-120.36666907975459,37.68084036809816],[-120.3625,37.6728],[-120.3663,37.6808]],[[-120.3529,37.6748],[-120.35377480190175,37.674617749603804],[-120.35139962509375,37.673328367908034],[-120.3529,37.6748]],[[-120.32731452276273,37.649704666004816],[-120.33326238003825,37.65553857965437],[-120.3277,37.6496],[-120.32731452276273,37.649704666004816]],[[-120.31256033649197,37.65492956874879],[-120.32187526205452,37.651181551362676],[-120.3126,37.6537],[-120.31256033649197,37.65492956874879]],[[-119.4628,37.8684],[-119.46565616438357,37.86522096486003],[-119.45549441860464,37.87008093023256],[-119.4628,37.8684]],[[-119.4515,37.871],[-119.45354758397171,37.870528874484386],[-119.442,37.8675],[-119.4515,37.871]],[[-119.35493715473267,37.81203916115624],[-119.3514,37.8255],[-119.35220616717955,37.825781397977764],[-119.3556,37.8124],[-119.35493715473267,37.81203916115624]],[[-119.3073,37.7828],[-119.3112,37.7935],[-119.30936556177356,37.78057554885923],[-119.3073,37.7828]],[[-120.4239,38.4732],[-120.4614,38.4462],[-120.42345487985031,38.47311918209572],[-120.4239,38.4732]]]}},{"type":"Feature","properties":{"counties":["Colusa","Glenn","Trinity"],"cocName":"Colusa, Glenn, Trinity Counties CoC"},"geometry":{"type":"MultiPolygon","coordinates":[[[[-121.8839,39.3739],[-121.8936,39.3586],[-121.8991,39.3573],[-121.8944,39.3411],[-121.9046,39.3259],[-121.9077,39.3023],[-121.9169,39.2957],[-121.921,39.2811],[-121.9369,39.268],[-121.9468,39.2498],[-121.9483,39.2409],[-121.9401,39.2287],[-121.9415,39.2217],[-121.9361,39.221],[-121.9283,39.1987],[-121.9457,39.1812],[-121.9342,39.161],[-121.9174,39.149],[-121.9206,39.1413],[-121.9378,39.144],[-121.938,39.133],[-121.925,39.1282],[-121.9214,39.1222],[-121.9111,39.1232],[-121.9128,39.1136],[-121.9055,39.1148],[-121.9058,39.1031],[-121.8938,39.0948],[-121.8953,39.0868],[-121.8898,39.0812],[-121.8941,39.078],[-121.8708,39.0671],[-121.8494,39.0714],[-121.8386,39.0641],[-121.8396,39.0469],[-121.8296,39.038],[-121.8307,39.0327],[-121.8229,39.0294],[-121.821,39.0203],[-121.8265,39.0112],[-121.7954,38.9964],[-121.8021,38.9898],[-121.8192,38.9886],[-121.8214,38.9747],[-121.8343,38.9687],[-121.8321,38.9605],[-121.8406,38.9548],[-121.8302,38.9388],[-121.8379,38.9271],[-121.8355,38.9245],[-122.338,38.924],[-122.3728,38.9397],[-122.394,38.9556],[-122.4019,38.9558],[-122.4095,38.9639],[-122.407,38.9714],[-122.4167,38.978],[-122.4193,38.9893],[-122.4086,39.007],[-122.4115,39.0191],[-122.4373,39.0214],[-122.467,39.0426],[-122.4658,39.0484],[-122.492,39.0535],[-122.4908,39.0648],[-122.4839,39.067],[-122.4905,39.0744],[-122.486,39.0856],[-122.4965,39.1078],[-122.4942,39.1151],[-122.5009,39.1211],[-122.4968,39.1405],[-122.481,39.1383],[-122.4746,39.1447],[-122.4826,39.1629],[-122.4754,39.1702],[-122.4773,39.174],[-122.4919,39.1753],[-122.4986,39.1911],[-122.5084,39.1903],[-122.5145,39.1972],[-122.5153,39.2092],[-122.535,39.2116],[-122.5414,39.2069],[-122.5702,39.2039],[-122.582,39.212],[-122.6103,39.2162],[-122.6226,39.2232],[-122.6349,39.2232],[-122.6502,39.2139],[-122.6654,39.2176],[-122.6735,39.2257],[-122.6797,39.2245],[-122.6761,39.2308],[-122.6914,39.2474],[-122.7125,39.257],[-122.7286,39.2733],[-122.7367,39.2726],[-122.7581,39.2854],[-122.7582,39.294],[-122.7755,39.3152],[-122.7683,39.3255],[-122.7653,39.3427],[-122.7524,39.3461],[-122.7425,39.3575],[-122.7422,39.3653],[-122.76,39.3781],[-122.7743,39.3747],[-122.7851,39.383],[-122.136,39.3855],[-122.7391,39.3833],[-122.7418,39.4352],[-122.7326,39.4508],[-122.7317,39.4792],[-122.7366,39.5085],[-122.7357,39.5807],[-122.8854,39.5801],[-122.8927,39.7089],[-122.9129,39.7087],[-122.9125,39.7482],[-122.9384,39.7481],[-122.9377,39.7982],[-122.0465,39.7977],[-122.0401,39.7928],[-122.0336,39.7994],[-122.0242,39.7985],[-122.0324,39.7787],[-122.0183,39.7626],[-121.9952,39.7499],[-121.9822,39.7339],[-121.9707,39.7321],[-121.9694,39.7394],[-121.9638,39.7414],[-121.9602,39.7342],[-121.9675,39.7246],[-121.9658,39.7197],[-121.9573,39.7191],[-121.9514,39.7328],[-121.9467,39.7296],[-121.951,39.715],[-121.9419,39.6997],[-121.9449,39.6909],[-121.9569,39.6875],[-121.9614,39.6773],[-121.9974,39.6685],[-121.9908,39.6604],[-121.9758,39.6635],[-121.9666,39.6524],[-121.9688,39.6481],[-121.9851,39.6459],[-121.9908,39.6365],[-121.9907,39.6263],[-121.9794,39.6172],[-121.9958,39.6032],[-121.9952,39.5818],[-122.0033,39.5748],[-122.0014,39.569],[-121.9906,39.5643],[-122.0031,39.5593],[-121.994,39.5339],[-121.9768,39.5329],[-121.974,39.5289],[-121.9452,39.5361],[-121.8565,39.5369],[-121.8595,39.5272],[-121.8774,39.5096],[-121.8709,39.4851],[-121.8736,39.4786],[-121.8694,39.4662],[-121.8749,39.4605],[-121.8708,39.4487],[-121.89,39.3839],[-121.8839,39.3739]]],[[[-122.476,41.1765],[-122.446,41.1592],[-122.4506,41.1469],[-122.446,41.1334],[-122.4486,41.1182],[-122.4572,41.0966],[-122.4681,41.0968],[-122.4933,41.086],[-122.5134,41.0882],[-122.5398,41.0726],[-122.538,41.065],[-122.5276,41.0642],[-122.5232,41.0592],[-122.5289,41.0365],[-122.5278,41.0144],[-122.5379,41.0024],[-122.5545,41.0036],[-122.5692,40.985],[-122.5892,40.9854],[-122.5914,40.9767],[-122.5985,40.9759],[-122.6031,40.9594],[-122.6074,40.9578],[-122.6032,40.9406],[-122.6128,40.9213],[-122.6,40.9003],[-122.6099,40.8846],[-122.6255,40.8792],[-122.6264,40.8671],[-122.6344,40.8613],[-122.6397,40.845],[-122.6554,40.8416],[-122.6661,40.8259],[-122.6553,40.8082],[-122.6614,40.8005],[-122.6581,40.7875],[-122.6705,40.7728],[-122.7005,40.7589],[-122.7063,40.7496],[-122.7174,40.7472],[-122.7199,40.7394],[-122.7066,40.7253],[-122.7224,40.6955],[-122.73,40.6922],[-122.7439,40.695],[-122.7523,40.6896],[-122.7426,40.6788],[-122.7412,40.6654],[-122.7336,40.6624],[-122.727,40.6505],[-122.7362,40.6363],[-122.7097,40.6312],[-122.7109,40.6132],[-122.7061,40.6102],[-122.701,40.5877],[-122.6931,40.5753],[-122.6988,40.5693],[-122.7231,40.5752],[-122.7413,40.5641],[-122.7439,40.5538],[-122.7675,40.5552],[-122.7852,40.5409],[-122.7822,40.5319],[-122.7936,40.5234],[-122.7933,40.5145],[-122.846,40.5052],[-122.8521,40.501],[-122.8465,40.4935],[-122.851,40.4859],[-122.8765,40.4804],[-122.8837,40.4748],[-122.9012,40.4456],[-122.9177,40.4498],[-122.9279,40.4471],[-122.9378,40.4369],[-122.9386,40.4289],[-122.9542,40.4215],[-122.961,40.426],[-122.9749,40.4196],[-122.9987,40.4181],[-122.9966,40.3964],[-123.0164,40.3856],[-123.0183,40.3724],[-123.0393,40.3627],[-123.044,40.347],[-123.0569,40.3493],[-123.0655,40.3451],[-123.064,40.3375],[-123.0688,40.3322],[-123.0618,40.3134],[-123.0686,40.3047],[-123.0613,40.2778],[-123.0442,40.2642],[-123.0186,40.2628],[-122.9776,40.2413],[-122.9749,40.2306],[-122.98,40.2147],[-122.9701,40.1863],[-122.984,40.172],[-122.9846,40.1534],[-122.9896,40.1451],[-122.9686,40.139],[-122.9737,40.13],[-122.9611,40.1],[-122.9615,40.0898],[-122.9674,40.0887],[-122.9732,40.0772],[-122.9509,40.0559],[-122.9489,40.0498],[-122.9542,40.0449],[-122.9498,40.031],[-122.9564,40.0199],[-122.9495,40.0121],[-122.9519,39.9988],[-122.9388,39.9913],[-122.934,39.9781],[-123.5446,39.977],[-123.543,40.7336],[-123.5542,40.7595],[-123.5499,40.7758],[-123.5583,40.7811],[-123.56,40.7903],[-123.5663,40.7888],[-123.5659,40.7962],[-123.5541,40.7963],[-123.5562,40.8088],[-123.5625,40.8097],[-123.5687,40.8197],[-123.5596,40.8303],[-123.5663,40.835],[-123.5631,40.8404],[-123.5732,40.8435],[-123.5759,40.858],[-123.5876,40.8585],[-123.5806,40.868],[-123.5911,40.8673],[-123.598,40.8776],[-123.6103,40.879],[-123.5972,40.8841],[-123.6086,40.8949],[-123.6047,40.9004],[-123.6158,40.9141],[-123.6134,40.9216],[-123.6238,40.9294],[-123.5879,40.9278],[-123.5677,40.9366],[-123.57,40.9466],[-123.5602,40.9503],[-123.5412,40.9397],[-123.541,40.9323],[-123.5339,40.9308],[-123.5297,40.9349],[-123.5118,40.9204],[-123.4818,40.9149],[-123.478,40.9281],[-123.4677,40.9382],[-123.448,40.9438],[-123.4449,40.9562],[-123.4533,40.9642],[-123.4366,40.9737],[-123.4349,40.9826],[-123.4273,40.9883],[-123.4278,41.0007],[-123.4201,41.0097],[-123.4061,41.0129],[-123.4103,41.0207],[-123.4072,41.0306],[-123.4193,41.0345],[-123.4238,41.0432],[-123.4233,41.0582],[-123.4307,41.0633],[-123.4456,41.0617],[-123.464,41.0764],[-123.4583,41.0838],[-123.4642,41.0944],[-123.4436,41.0896],[-123.4293,41.118],[-123.4288,41.1521],[-123.4326,41.1623],[-123.417,41.1655],[-123.4077,41.1801],[-123.3935,41.1707],[-123.3927,41.1612],[-123.3841,41.1577],[-123.3812,41.1513],[-123.3533,41.1631],[-123.3296,41.1517],[-123.325,41.1416],[-123.2951,41.1407],[-123.284,41.1235],[-123.2734,41.1229],[-123.2584,41.0936],[-123.2395,41.0758],[-123.2032,41.0718],[-123.1883,41.0776],[-123.1091,41.0754],[-123.1059,41.0658],[-123.0964,41.0594],[-123.0801,41.0576],[-123.0552,41.0467],[-123.046,41.0335],[-123.0476,41.0247],[-123.0368,41.0041],[-122.9801,41.0143],[-122.952,41.0064],[-122.9417,40.9926],[-122.9175,40.994],[-122.9145,41.0069],[-122.9031,41.0116],[-122.9024,41.0238],[-122.8974,41.0292],[-122.9092,41.0412],[-122.9233,41.072],[-122.9421,41.0701],[-122.9532,41.0743],[-122.9661,41.0809],[-122.971,41.0902],[-122.9691,41.1034],[-122.9743,41.1096],[-122.9599,41.124],[-122.9654,41.1383],[-122.9517,41.1503],[-122.9614,41.1815],[-122.9513,41.1856],[-122.9384,41.1781],[-122.9292,41.1787],[-122.9249,41.1867],[-122.9154,41.1872],[-122.9069,41.1959],[-122.8859,41.2051],[-122.844,41.2002],[-122.8252,41.21],[-122.8114,41.2025],[-122.8021,41.2031],[-122.7812,41.2182],[-122.777,41.2308],[-122.7583,41.2408],[-122.7253,41.2475],[-122.7246,41.2611],[-122.712,41.2748],[-122.6874,41.2813],[-122.6791,41.279],[-122.6773,41.285],[-122.6635,41.2916],[-122.6529,41.2897],[-122.6516,41.2996],[-122.6456,41.3047],[-122.6477,41.3223],[-122.6421,41.3266],[-122.6275,41.332],[-122.5989,41.3245],[-122.5891,41.3268],[-122.581,41.3377],[-122.587,41.3497],[-122.5853,41.359],[-122.5714,41.3681],[-122.5517,41.3617],[-122.5405,41.3532],[-122.5427,41.3502],[-122.5358,41.3415],[-122.5039,41.343],[-122.5026,41.3329],[-122.4788,41.3201],[-122.5019,41.3091],[-122.4992,41.2921],[-122.5102,41.2887],[-122.514,41.2802],[-122.514,41.2552],[-122.5083,41.2453],[-122.5175,41.2398],[-122.5123,41.2265],[-122.5226,41.2135],[-122.4974,41.1956],[-122.4984,41.1827],[-122.4926,41.176],[-122.476,41.1765]]]]}},{"type":"Feature","properties":{"counties":["Del Norte","Lassen","Modoc","Plumas","Shasta","Sierra","Siskiyou"],"cocName":"Redding/Shasta, Siskiyou, Lassen, Plumas, Del Norte, Modoc, Sierra Counties CoC"},"geometry":{"type":"MultiPolygon","coordinates":[[[[-120.5055,39.4461],[-120.5102,39.4552],[-120.5345,39.4644],[-120.5342,39.4837],[-120.5491,39.4945],[-120.5566,39.5141],[-120.5777,39.5233],[-120.6247,39.5196],[-120.6301,39.5249],[-120.651,39.5234],[-120.6546,39.5269],[-120.7009,39.5025],[-120.7066,39.4931],[-120.717,39.4892],[-120.7146,39.4816],[-120.7436,39.4668],[-120.7425,39.4613],[-120.7529,39.4583],[-120.7563,39.4525],[-120.7847,39.4481],[-120.8009,39.4375],[-120.811,39.4361],[-120.8166,39.4408],[-120.8178,39.4365],[-120.8264,39.435],[-120.8369,39.4405],[-120.8433,39.4351],[-120.8783,39.4312],[-120.894,39.4241],[-120.9106,39.426],[-120.9142,39.4201],[-120.9289,39.421],[-120.9318,39.4171],[-120.9786,39.4178],[-120.9798,39.4116],[-120.9926,39.4144],[-121.007,39.4047],[-121.0153,39.4054],[-121.0075,39.3991],[-121.0222,39.3916],[-121.0344,39.5145],[-121.0454,39.5144],[-121.0537,39.5222],[-121.0578,39.5395],[-121.0318,39.5582],[-121.0244,39.5591],[-121.0095,39.6395],[-121.0767,39.5973],[-121.0794,39.6034],[-121.0889,39.6033],[-121.089,39.6136],[-121.0977,39.6137],[-121.0976,39.6209],[-121.1163,39.621],[-121.1166,39.6281],[-121.1367,39.6282],[-121.1364,39.6568],[-121.1551,39.6568],[-121.1552,39.6639],[-121.1629,39.6638],[-121.163,39.671],[-121.1712,39.6711],[-121.1712,39.6856],[-121.1903,39.6854],[-121.1905,39.6999],[-121.2087,39.7004],[-121.2109,39.7257],[-121.2295,39.7257],[-121.2297,39.7402],[-121.2483,39.74],[-121.2507,39.754],[-121.268,39.7542],[-121.2683,39.7688],[-121.2859,39.7676],[-121.285,39.7816],[-121.2941,39.7893],[-121.3078,39.7894],[-121.3077,39.7966],[-121.317,39.7967],[-121.3185,39.8109],[-121.3323,39.8111],[-121.3323,39.8257],[-121.3508,39.8257],[-121.3511,39.8404],[-121.3605,39.8407],[-121.3612,39.8555],[-121.3802,39.8554],[-121.3802,39.8628],[-121.3985,39.8629],[-121.399,39.8713],[-121.4119,39.8714],[-121.411,39.9004],[-121.43,39.9003],[-121.43,39.9148],[-121.411,39.9151],[-121.4111,39.9294],[-121.4206,39.9295],[-121.4199,39.9586],[-121.4103,39.9585],[-121.4103,39.9873],[-121.4198,39.9876],[-121.4195,40.0158],[-121.4096,40.0157],[-121.4097,40.0306],[-121.4004,40.0305],[-121.4004,40.0521],[-121.3823,40.0518],[-121.382,40.057],[-121.3771,40.0571],[-121.3769,40.0718],[-121.3672,40.0719],[-121.3668,40.0861],[-121.3768,40.086],[-121.3765,40.1086],[-121.3861,40.1087],[-121.3859,40.1159],[-121.4049,40.1156],[-121.4045,40.1517],[-121.4419,40.1521],[-121.4462,40.1559],[-121.4429,40.1619],[-121.4451,40.1777],[-121.4361,40.1819],[-121.4441,40.1908],[-121.4344,40.1959],[-121.4074,40.1914],[-121.385,40.2103],[-121.3677,40.2127],[-121.3617,40.2256],[-121.3673,40.245],[-121.349,40.2645],[-121.3527,40.2685],[-121.3494,40.2734],[-121.3599,40.2775],[-121.3632,40.2875],[-121.3703,40.288],[-121.3768,40.298],[-121.3667,40.3011],[-121.3566,40.2975],[-121.3423,40.3098],[-121.3675,40.3229],[-121.3673,40.331],[-121.3804,40.3403],[-121.4121,40.3427],[-121.4286,40.3503],[-121.4724,40.3516],[-121.481,40.3666],[-121.4736,40.3746],[-121.4828,40.3829],[-121.4843,40.3966],[-121.4796,40.4195],[-121.4738,40.4246],[-121.4979,40.432],[-121.4944,40.4404],[-121.4979,40.4446],[-121.3661,40.4459],[-121.5651,40.4458],[-121.5931,40.4311],[-121.6141,40.4391],[-121.6463,40.4347],[-121.672,40.4504],[-121.6858,40.4531],[-121.6983,40.4483],[-121.7198,40.4486],[-121.7346,40.4356],[-121.7763,40.4376],[-121.7877,40.4437],[-121.8067,40.445],[-121.8341,40.4373],[-121.8514,40.4426],[-121.8796,40.4362],[-121.901,40.4209],[-121.9148,40.426],[-121.941,40.4153],[-122.01,40.4268],[-122.0148,40.421],[-122.0219,40.4241],[-122.031,40.4174],[-122.0522,40.4204],[-122.0912,40.4106],[-122.0916,40.4143],[-122.0968,40.4099],[-122.0991,40.4148],[-122.1113,40.4054],[-122.129,40.4038],[-122.1294,40.3988],[-122.1829,40.3925],[-122.1885,40.3875],[-122.1781,40.3838],[-122.1731,40.3791],[-122.1873,40.3814],[-122.1936,40.3923],[-122.1994,40.3778],[-122.2272,40.3893],[-122.2355,40.3854],[-122.2518,40.3872],[-122.257,40.3794],[-122.2809,40.3758],[-122.2941,40.3805],[-122.3104,40.3711],[-122.321,40.3749],[-122.3422,40.3709],[-122.3958,40.3721],[-122.4126,40.3745],[-122.4179,40.3797],[-122.444,40.3733],[-122.4529,40.3785],[-122.4629,40.3756],[-122.4705,40.3839],[-122.5002,40.3825],[-122.505,40.3894],[-122.5138,40.3884],[-122.5246,40.3945],[-122.522,40.3878],[-122.5322,40.3798],[-122.541,40.3824],[-122.5417,40.3765],[-122.5506,40.3784],[-122.564,40.3656],[-122.5813,40.3673],[-122.5859,40.3593],[-122.597,40.3572],[-122.6102,40.3464],[-122.6252,40.3475],[-122.6219,40.3404],[-122.6506,40.3284],[-122.6737,40.3304],[-122.6773,40.3363],[-122.7097,40.3482],[-122.7317,40.347],[-122.7302,40.3583],[-122.7488,40.3657],[-122.7525,40.3605],[-122.7587,40.3633],[-122.7881,40.3553],[-122.8059,40.3559],[-122.8538,40.3429],[-122.8727,40.3489],[-122.884,40.3422],[-122.9036,40.3162],[-122.9071,40.3178],[-122.919,40.3066],[-122.9296,40.3075],[-122.9344,40.3132],[-122.9498,40.308],[-122.9769,40.3152],[-123.0138,40.3031],[-123.0252,40.3037],[-123.0567,40.2854],[-123.0654,40.287],[-123.0689,40.3083],[-123.0618,40.3134],[-123.0688,40.3322],[-123.064,40.3375],[-123.0655,40.3451],[-123.0569,40.3493],[-123.044,40.347],[-123.0393,40.3627],[-123.0183,40.3724],[-123.0164,40.3856],[-122.9966,40.3964],[-122.9987,40.4181],[-122.9749,40.4196],[-122.961,40.426],[-122.9542,40.4215],[-122.9386,40.4289],[-122.9378,40.4369],[-122.9279,40.4471],[-122.9177,40.4498],[-122.9012,40.4456],[-122.8837,40.4748],[-122.8765,40.4804],[-122.851,40.4859],[-122.8465,40.4935],[-122.8521,40.501],[-122.846,40.5052],[-122.7933,40.5145],[-122.7936,40.5234],[-122.7822,40.5319],[-122.7852,40.5409],[-122.7675,40.5552],[-122.7439,40.5538],[-122.7413,40.5641],[-122.7231,40.5752],[-122.6988,40.5693],[-122.6931,40.5753],[-122.701,40.5877],[-122.7061,40.6102],[-122.7109,40.6132],[-122.7097,40.6312],[-122.7362,40.6363],[-122.727,40.6505],[-122.7336,40.6624],[-122.7412,40.6654],[-122.7426,40.6788],[-122.7523,40.6896],[-122.7439,40.695],[-122.73,40.6922],[-122.7224,40.6955],[-122.7066,40.7253],[-122.7199,40.7394],[-122.7174,40.7472],[-122.7063,40.7496],[-122.7005,40.7589],[-122.6705,40.7728],[-122.6581,40.7875],[-122.6614,40.8005],[-122.6553,40.8082],[-122.6661,40.8259],[-122.6554,40.8416],[-122.6397,40.845],[-122.6344,40.8613],[-122.6264,40.8671],[-122.6255,40.8792],[-122.6099,40.8846],[-122.6,40.9003],[-122.6128,40.9213],[-122.6032,40.9406],[-122.6074,40.9578],[-122.6031,40.9594],[-122.5985,40.9759],[-122.5914,40.9767],[-122.5892,40.9854],[-122.5692,40.985],[-122.5545,41.0036],[-122.5379,41.0024],[-122.5278,41.0144],[-122.5289,41.0365],[-122.5232,41.0592],[-122.5276,41.0642],[-122.538,41.065],[-122.5398,41.0726],[-122.5134,41.0882],[-122.4933,41.086],[-122.4681,41.0968],[-122.4572,41.0966],[-122.4486,41.1182],[-122.446,41.1334],[-122.4506,41.1469],[-122.446,41.1592],[-122.476,41.1765],[-122.4926,41.176],[-122.4984,41.1827],[-122.4974,41.1956],[-122.5226,41.2135],[-122.5123,41.2265],[-122.5175,41.2398],[-122.5083,41.2453],[-122.514,41.2552],[-122.514,41.2802],[-122.5102,41.2887],[-122.4992,41.2921],[-122.5019,41.3091],[-122.4788,41.3201],[-122.5026,41.3329],[-122.5039,41.343],[-122.5358,41.3415],[-122.5427,41.3502],[-122.5405,41.3532],[-122.5517,41.3617],[-122.5714,41.3681],[-122.5853,41.359],[-122.587,41.3497],[-122.581,41.3377],[-122.5891,41.3268],[-122.5989,41.3245],[-122.6275,41.332],[-122.6421,41.3266],[-122.6477,41.3223],[-122.6456,41.3047],[-122.6516,41.2996],[-122.6529,41.2897],[-122.6635,41.2916],[-122.6773,41.285],[-122.6791,41.279],[-122.6874,41.2813],[-122.712,41.2748],[-122.7246,41.2611],[-122.7253,41.2475],[-122.7583,41.2408],[-122.777,41.2308],[-122.7812,41.2182],[-122.8021,41.2031],[-122.8114,41.2025],[-122.8252,41.21],[-122.844,41.2002],[-122.8859,41.2051],[-122.9069,41.1959],[-122.9154,41.1872],[-122.9249,41.1867],[-122.9292,41.1787],[-122.9384,41.1781],[-122.9513,41.1856],[-122.9614,41.1815],[-122.9517,41.1503],[-122.9654,41.1383],[-122.9599,41.124],[-122.9743,41.1096],[-122.9691,41.1034],[-122.971,41.0902],[-122.9661,41.0809],[-122.9532,41.0743],[-122.9421,41.0701],[-122.9233,41.072],[-122.9092,41.0412],[-122.8974,41.0292],[-122.9024,41.0238],[-122.9015,41.0147],[-122.9145,41.0069],[-122.9175,40.994],[-122.935,40.9924],[-122.9443,40.9942],[-122.9597,41.0102],[-122.9801,41.0143],[-123.0368,41.0041],[-123.0476,41.0247],[-123.046,41.0335],[-123.0552,41.0467],[-123.0801,41.0576],[-123.0964,41.0594],[-123.1059,41.0658],[-123.1091,41.0754],[-123.1883,41.0776],[-123.2032,41.0718],[-123.2395,41.0758],[-123.2584,41.0936],[-123.2734,41.1229],[-123.284,41.1235],[-123.2951,41.1407],[-123.325,41.1416],[-123.3296,41.1517],[-123.3533,41.1631],[-123.3812,41.1513],[-123.3841,41.1577],[-123.3927,41.1612],[-123.3935,41.1707],[-123.404,41.1745],[-123.4171,41.197],[-123.4348,41.2125],[-123.4344,41.2229],[-123.4549,41.2357],[-123.4422,41.2514],[-123.4438,41.2732],[-123.4628,41.2842],[-123.4555,41.2928],[-123.4596,41.3102],[-123.4782,41.3286],[-123.4825,41.3537],[-123.4741,41.3662],[-123.4882,41.3771],[-123.5012,41.3826],[-123.6614,41.3821],[-123.7703,41.3808],[-123.7706,41.4642],[-124.0652,41.4647],[-124.0846,41.5243],[-124.0816,41.5475],[-124.0923,41.5532],[-124.1011,41.5692],[-124.102,41.5794],[-124.0974,41.5853],[-124.1048,41.5944],[-124.1008,41.6022],[-124.1158,41.6151],[-124.1199,41.6396],[-124.1356,41.6573],[-124.1435,41.6874],[-124.1435,41.7093],[-124.1524,41.726],[-124.1713,41.7435],[-124.1778,41.7457],[-124.1854,41.7393],[-124.1811,41.7448],[-124.1937,41.7498],[-124.1995,41.7432],[-124.2163,41.7508],[-124.2417,41.7719],[-124.2544,41.7707],[-124.2485,41.7735],[-124.256,41.783],[-124.245,41.7923],[-124.2307,41.8187],[-124.2084,41.8882],[-124.2034,41.941],[-124.2102,41.9507],[-124.2049,41.9834],[-124.2116,41.9985],[-123.6572,41.9951],[-123.624,41.9998],[-123.5179,42.0008],[-123.347,41.9993],[-123.1457,42.0088],[-123.044,42.0031],[-122.3781,42.0095],[-121.4476,41.9975],[-120.9741,41.993],[-119.9992,41.9949],[-119.9999,41.184],[-119.9977,39.9999],[-120.0011,39.7224],[-120.0038,39.4451],[-120.5055,39.4461]],[[-120.9638,39.6652],[-120.9499,39.6721],[-120.94999846547314,39.67229245524297],[-120.9638,39.6652]],[[-120.9521,39.6764],[-120.94,39.6868],[-120.9382961056203,39.691177245906474],[-120.9521,39.6764]],[[-120.93635977242589,39.696151619112825],[-120.9342,39.7017],[-120.9344,39.7388],[-120.93635977242589,39.696151619112825]],[[-120.87236123956326,39.77581225112396],[-120.8595,39.7705],[-120.8708,39.7769],[-120.87236123956326,39.77581225112396]],[[-120.84894879362989,39.757849051068675],[-120.8394,39.7464],[-120.8443,39.7561],[-120.84894879362989,39.757849051068675]],[[-123.7191,41.5953],[-123.7157,41.5913],[-123.7190645376549,41.59543357483317],[-123.7191,41.5953]],[[-123.7161,41.6066],[-123.71887222820236,41.59615794043775],[-123.7068925960097,41.61654993657017],[-123.7161,41.6066]],[[-123.7038,41.8291],[-123.7031,41.8198],[-123.70367814291909,41.82914664385872],[-123.7038,41.8291]]],[[[-124.2026,41.7445],[-124.2035,41.7433],[-124.2042,41.7438],[-124.2026,41.7445]]]]}},{"type":"Feature","properties":{"counties":["Fresno","Madera"],"cocName":"Fresno City & County/Madera County CoC"},"geometry":{"type":"Polygon","coordinates":[[[-118.7633,37.4565],[-118.7589,37.4413],[-118.7675,37.4236],[-118.7798,37.4217],[-118.79,37.394],[-118.7677,37.3677],[-118.7686,37.3598],[-118.7815,37.3564],[-118.7867,37.3434],[-118.7801,37.3349],[-118.7579,37.3288],[-118.7411,37.3153],[-118.716,37.3282],[-118.695,37.306],[-118.6821,37.2805],[-118.6653,37.2619],[-118.6838,37.2444],[-118.6823,37.234],[-118.6864,37.2276],[-118.6756,37.2142],[-118.6814,37.2044],[-118.6665,37.1895],[-118.6643,37.1782],[-118.6727,37.1673],[-118.6665,37.1614],[-118.6672,37.1546],[-118.6546,37.1418],[-118.6413,37.1372],[-118.6134,37.143],[-118.5997,37.1365],[-118.5927,37.1382],[-118.5831,37.1224],[-118.569,37.1226],[-118.5641,37.1132],[-118.5451,37.1154],[-118.5309,37.1112],[-118.5221,37.0984],[-118.5119,37.0928],[-118.5031,37.0952],[-118.4866,37.0774],[-118.4712,37.0727],[-118.4673,37.0668],[-118.449,37.0691],[-118.4371,37.0598],[-118.435,37.0497],[-118.4417,37.045],[-118.4228,37.0258],[-118.428,37.0112],[-118.4122,36.9983],[-118.4189,36.9948],[-118.4195,36.9874],[-118.4044,36.972],[-118.4047,36.9575],[-118.3966,36.9573],[-118.3884,36.9455],[-118.3608,36.8877],[-118.3702,36.8717],[-118.3622,36.8614],[-118.3622,36.844],[-118.3715,36.8361],[-118.3898,36.8345],[-118.3937,36.8297],[-118.374,36.8002],[-118.3802,36.7822],[-118.3692,36.75],[-118.3606,36.7448],[-118.5555,36.7448],[-118.555,36.7391],[-118.9825,36.7417],[-118.9848,36.6572],[-119.3046,36.6606],[-119.3051,36.5737],[-119.4663,36.5752],[-119.5461,36.509],[-119.6666,36.4188],[-119.6716,36.4311],[-119.6936,36.4245],[-119.7057,36.427],[-119.714,36.4189],[-119.7463,36.4168],[-119.7531,36.4019],[-119.9592,36.401],[-119.9589,36.1814],[-120.3151,35.9072],[-120.3323,35.9155],[-120.3367,35.9236],[-120.3359,35.9371],[-120.3565,35.9481],[-120.3625,35.9594],[-120.3604,35.9644],[-120.394,35.9679],[-120.4086,35.976],[-120.4344,35.9694],[-120.4497,35.9884],[-120.4774,36.0008],[-120.4793,36.0107],[-120.5176,36.0275],[-120.52,36.0209],[-120.5298,36.0243],[-120.527,36.0357],[-120.5404,36.0367],[-120.5454,36.0461],[-120.5667,36.0529],[-120.5879,36.0666],[-120.5961,36.0782],[-120.5898,36.0896],[-120.5994,36.1009],[-120.608,36.1027],[-120.6152,36.0952],[-120.6336,36.1033],[-120.6419,36.1013],[-120.6488,36.108],[-120.6454,36.1162],[-120.6532,36.1188],[-120.6565,36.1326],[-120.6676,36.1381],[-120.6647,36.1473],[-120.672,36.1643],[-120.6643,36.1657],[-120.6631,36.1712],[-120.6499,36.168],[-120.652,36.1741],[-120.6447,36.1792],[-120.6392,36.1965],[-120.6269,36.2032],[-120.6517,36.2307],[-120.6798,36.2467],[-120.6815,36.252],[-120.673,36.2577],[-120.6804,36.2671],[-120.6726,36.2805],[-120.6829,36.2868],[-120.6828,36.2943],[-120.6588,36.3162],[-120.6179,36.3188],[-120.5966,36.3285],[-120.5972,36.4882],[-120.6037,36.4882],[-120.9187,36.7404],[-120.656,36.9528],[-120.5906,36.9526],[-120.5905,36.9816],[-120.5853,36.9906],[-120.5986,36.9986],[-120.5417,37.0445],[-120.4767,37.0964],[-120.4698,37.0943],[-120.4068,37.1109],[-120.3849,37.1246],[-120.3635,37.1197],[-120.3412,37.1246],[-120.3246,37.1364],[-120.3038,37.1411],[-120.2899,37.1526],[-120.2439,37.157],[-120.223,37.164],[-120.1876,37.1603],[-120.1741,37.1659],[-120.1646,37.1627],[-120.1151,37.1657],[-120.0518,37.1832],[-119.7618,37.4171],[-119.6512,37.4178],[-119.6512,37.4614],[-119.6155,37.4615],[-119.6152,37.4947],[-119.5842,37.4947],[-119.5836,37.5603],[-119.309,37.778],[-119.2934,37.7679],[-119.2884,37.745],[-119.269,37.7392],[-119.2579,37.7246],[-119.251,37.7302],[-119.2431,37.7286],[-119.23,37.7174],[-119.2163,37.7141],[-119.1997,37.7358],[-119.1838,37.7395],[-119.1771,37.7348],[-119.1691,37.7384],[-119.1496,37.7329],[-119.1276,37.7347],[-119.1145,37.7282],[-119.0931,37.7036],[-119.0652,37.6846],[-119.0614,37.6578],[-119.0543,37.6512],[-119.0546,37.6451],[-119.0326,37.6305],[-119.0344,37.6035],[-119.0224,37.5857],[-119.0023,37.5711],[-118.9849,37.5673],[-118.977,37.5568],[-118.9641,37.5581],[-118.9527,37.5658],[-118.9297,37.5489],[-118.9171,37.5503],[-118.9012,37.5312],[-118.9019,37.526],[-118.8911,37.5253],[-118.8837,37.5201],[-118.8817,37.5103],[-118.8608,37.5015],[-118.8561,37.4784],[-118.8498,37.4759],[-118.8155,37.4878],[-118.7971,37.4887],[-118.775,37.4631],[-118.7633,37.4565]],[[-120.5453,37.0269],[-120.5369,37.0193],[-120.54503846276893,37.0271545629049],[-120.5453,37.0269]],[[-120.4594,36.8753],[-120.45906401826484,36.87514862361383],[-120.4537,36.8808],[-120.4594,36.8753]],[[-120.45130517423442,36.86829028511089],[-120.45,36.8699],[-120.45063175597691,36.87023965375103],[-120.45130517423442,36.86829028511089]],[[-120.4541,36.8602],[-120.4395,36.8557],[-120.45364126555415,36.86152791550111],[-120.4541,36.8602]],[[-120.4403,36.85],[-120.4339,36.8506],[-120.44026997319034,36.850213941018765],[-120.4403,36.85]],[[-119.40818306508046,37.1605378586424],[-119.4087,37.1612],[-119.41010129870132,37.16128383838384],[-119.40818306508046,37.1605378586424]],[[-119.3889,37.1492],[-119.38835387887889,37.14954181681682],[-119.3998,37.1498],[-119.3889,37.1492]],[[-119.375,37.1579],[-119.3752,37.1641],[-119.37549138311975,37.15759244365886],[-119.375,37.1579]],[[-119.3619,37.1679],[-119.36179895131087,37.16887939498703],[-119.3752,37.1641],[-119.3619,37.1679]],[[-119.3301,37.2074],[-119.33052838801711,37.21217346647649],[-119.33058976903487,37.206710555897075],[-119.3301,37.2074]],[[-119.3308,37.2152],[-119.3378,37.2192],[-119.33077006878601,37.2148664807585],[-119.3308,37.2152]]]}},{"type":"Feature","properties":{"counties":["Kings","Tulare"],"cocName":"Visalia/Kings, Tulare Counties CoC"},"geometry":{"type":"Polygon","coordinates":[[[-120.214,35.7893],[-120.2199,35.8189],[-120.2445,35.824],[-120.2593,35.8451],[-120.2563,35.8554],[-120.2403,35.8659],[-120.2452,35.8731],[-120.2433,35.8777],[-120.2769,35.9065],[-120.3151,35.9072],[-119.9589,36.1814],[-119.9592,36.401],[-119.7531,36.4019],[-119.7463,36.4168],[-119.714,36.4189],[-119.7057,36.427],[-119.6936,36.4245],[-119.6716,36.4311],[-119.6668,36.4188],[-119.5732,36.4888],[-119.5569,36.5034],[-119.4663,36.5752],[-119.3051,36.5737],[-119.3046,36.6606],[-118.9848,36.6572],[-118.9825,36.7417],[-118.555,36.7391],[-118.5555,36.7448],[-118.3606,36.7448],[-118.3396,36.729],[-118.3347,36.7053],[-118.3661,36.6904],[-118.352,36.6829],[-118.3475,36.6723],[-118.3312,36.6694],[-118.3295,36.6654],[-118.3382,36.6554],[-118.3188,36.6389],[-118.3213,36.6274],[-118.3028,36.619],[-118.2939,36.6051],[-118.2816,36.6045],[-118.2746,36.5973],[-118.278,36.5923],[-118.289,36.5907],[-118.288,36.5837],[-118.2941,36.5774],[-118.2898,36.5732],[-118.2912,36.5593],[-118.2759,36.5508],[-118.2653,36.5515],[-118.2602,36.5441],[-118.252,36.5421],[-118.2494,36.524],[-118.2387,36.5234],[-118.2414,36.5],[-118.235,36.4937],[-118.2499,36.4824],[-118.237,36.477],[-118.2326,36.4663],[-118.2159,36.4567],[-118.2096,36.4421],[-118.2148,36.435],[-118.2098,36.4303],[-118.1749,36.4265],[-118.1568,36.4326],[-118.1388,36.4189],[-118.1403,36.4035],[-118.1629,36.3894],[-118.141,36.3716],[-118.1305,36.3703],[-118.1242,36.3519],[-118.1003,36.3461],[-118.0976,36.3311],[-118.1125,36.322],[-118.1118,36.3083],[-118.1216,36.3068],[-118.1201,36.3022],[-118.127,36.3002],[-118.1276,36.2804],[-118.1174,36.2712],[-118.1194,36.2556],[-118.1052,36.2336],[-118.1092,36.2255],[-118.1056,36.2134],[-118.0907,36.1973],[-118.0737,36.1894],[-118.07,36.1786],[-118.0593,36.1701],[-118.0626,36.1622],[-118.0597,36.1508],[-118.0735,36.1403],[-118.0646,36.1104],[-118.0683,36.1085],[-118.0673,36.0934],[-118.0631,36.0892],[-118.058,36.0919],[-118.0516,36.0835],[-118.0517,36.0595],[-118.0427,36.0485],[-118.0463,36.0422],[-118.0395,36.0342],[-118.0414,36.0298],[-118.0371,36.0291],[-118.0336,36.0089],[-118.0121,35.9983],[-118.0036,35.9837],[-118.0045,35.9772],[-118.0146,35.9729],[-118.0168,35.9546],[-118.0111,35.9546],[-118.0069,35.9465],[-117.992,35.9438],[-117.9833,35.9266],[-117.9903,35.9141],[-117.9821,35.8947],[-117.9891,35.8813],[-117.9808,35.8675],[-117.9967,35.8695],[-118.0074,35.8582],[-118.0029,35.8413],[-118.0062,35.829],[-117.9986,35.823],[-118.0077,35.8171],[-118.0081,35.7889],[-118.4672,35.7925],[-119.5381,35.7899],[-120.214,35.7893]]]}},{"type":"Feature","properties":{"counties":["Monterey","San Benito"],"cocName":"Salinas/Monterey, San Benito Counties CoC"},"geometry":{"type":"Polygon","coordinates":[[[-121.6426,36.8737],[-121.644,36.894],[-121.6295,36.9117],[-121.6074,36.8995],[-121.586,36.901],[-121.5757,36.893],[-121.5603,36.8971],[-121.5586,36.9103],[-121.5403,36.9205],[-121.5392,36.9273],[-121.5138,36.9452],[-121.5124,36.9588],[-121.489,36.9832],[-121.468,36.9768],[-121.4636,36.9783],[-121.4637,36.9849],[-121.4506,36.9889],[-121.4183,36.9606],[-121.2154,36.9613],[-121.2118,36.9571],[-121.2292,36.941],[-121.2343,36.9262],[-121.2242,36.9199],[-121.2217,36.9104],[-121.1983,36.9143],[-121.1843,36.909],[-121.1843,36.8964],[-121.1691,36.885],[-121.1636,36.8692],[-121.1526,36.8654],[-121.1415,36.8367],[-120.9337,36.7519],[-120.6037,36.4882],[-120.5972,36.4882],[-120.5966,36.3285],[-120.6179,36.3188],[-120.6631,36.3144],[-120.6828,36.2943],[-120.6829,36.2868],[-120.6726,36.2805],[-120.6786,36.2673],[-120.67910969162996,36.26771167400881],[-120.6737,36.2598],[-120.6818,36.2514],[-120.6798,36.2467],[-120.6517,36.2307],[-120.6269,36.2032],[-120.6392,36.1965],[-120.6447,36.1792],[-120.652,36.1741],[-120.6499,36.168],[-120.6631,36.1712],[-120.6643,36.1657],[-120.672,36.1643],[-120.6647,36.1473],[-120.6676,36.1381],[-120.6565,36.1326],[-120.6532,36.1188],[-120.6454,36.1162],[-120.6461,36.1047],[-120.6143,36.0951],[-120.608,36.1027],[-120.5994,36.1009],[-120.5898,36.0896],[-120.5961,36.0782],[-120.5879,36.0666],[-120.5667,36.0529],[-120.5454,36.0461],[-120.5404,36.0367],[-120.527,36.0357],[-120.5298,36.0243],[-120.52,36.0209],[-120.5176,36.0275],[-120.4793,36.0107],[-120.4774,36.0008],[-120.4497,35.9884],[-120.4344,35.9694],[-120.4086,35.976],[-120.394,35.9679],[-120.3604,35.9644],[-120.3625,35.9594],[-120.3565,35.9481],[-120.336,35.9372],[-120.3367,35.9236],[-120.3229,35.9078],[-120.2758,35.9059],[-120.2433,35.8777],[-120.2452,35.8731],[-120.2403,35.8659],[-120.2563,35.8554],[-120.2593,35.8451],[-120.2445,35.824],[-120.2199,35.8189],[-120.214,35.7893],[-121.3473,35.7952],[-121.3736,35.8121],[-121.3905,35.8257],[-121.4131,35.8553],[-121.4396,35.867],[-121.4649,35.8885],[-121.4632,35.9038],[-121.4747,35.92],[-121.4687,35.9267],[-121.4767,35.9309],[-121.4862,35.9703],[-121.5031,36.0003],[-121.5319,36.0144],[-121.5735,36.0236],[-121.5914,36.0493],[-121.5928,36.0651],[-121.6068,36.0721],[-121.6191,36.0865],[-121.6296,36.1145],[-121.6758,36.1635],[-121.6985,36.1748],[-121.7172,36.1952],[-121.7799,36.2274],[-121.7971,36.2342],[-121.8111,36.2334],[-121.8264,36.2419],[-121.8378,36.2491],[-121.8371,36.2564],[-121.852,36.2778],[-121.8634,36.281],[-121.8865,36.3021],[-121.9027,36.3061],[-121.8951,36.3159],[-121.8929,36.3404],[-121.9073,36.3566],[-121.9027,36.3639],[-121.908,36.3743],[-121.9018,36.3816],[-121.9032,36.3936],[-121.9147,36.4031],[-121.9147,36.4259],[-121.9295,36.4472],[-121.9258,36.4598],[-121.9371,36.472],[-121.9417,36.4891],[-121.9463,36.4904],[-121.937,36.498],[-121.938,36.505],[-121.9545,36.5186],[-121.9529,36.5243],[-121.9394,36.5189],[-121.9368,36.5237],[-121.9277,36.5236],[-121.9283,36.5362],[-121.9261,36.5364],[-121.9242,36.5356],[-121.9228,36.5353],[-121.922,36.5354],[-121.9251,36.5366],[-121.9218,36.54],[-121.9283,36.5364],[-121.9329,36.5402],[-121.9294,36.5481],[-121.9353,36.5621],[-121.9497,36.5676],[-121.9552,36.5619],[-121.971,36.5699],[-121.9787,36.5802],[-121.9664,36.5847],[-121.9591,36.6092],[-121.9515,36.6092],[-121.9432,36.6161],[-121.9364,36.6367],[-121.924,36.6345],[-121.9139,36.6232],[-121.9038,36.6218],[-121.8897,36.6085],[-121.8896,36.6019],[-121.8832,36.6013],[-121.8586,36.6124],[-121.8311,36.6463],[-121.8145,36.6829],[-121.8071,36.7142],[-121.8056,36.7507],[-121.7883,36.804],[-121.81,36.8508],[-121.8009,36.8576],[-121.8033,36.8685],[-121.7938,36.8795],[-121.785,36.8857],[-121.7694,36.8851],[-121.7453,36.9093],[-121.7349,36.9087],[-121.7256,36.9143],[-121.7147,36.9088],[-121.7,36.9197],[-121.7055,36.9095],[-121.6975,36.9116],[-121.6806,36.9033],[-121.6673,36.9122],[-121.6555,36.913],[-121.6532,36.9021],[-121.6462,36.9026],[-121.6426,36.8737]],[[-121.45297653221583,36.723669355683604],[-121.4514,36.7248],[-121.45279857800084,36.72722843998326],[-121.45297653221583,36.723669355683604]],[[-121.47402258726898,36.71580277207392],[-121.4613,36.7177],[-121.45828457443082,36.719862577933455],[-121.47402258726898,36.71580277207392]],[[-121.4845,36.7131],[-121.469,36.6854],[-121.48359499014343,36.71333345795663],[-121.4845,36.7131]],[[-120.7182,36.1969],[-120.71805221374045,36.19698305343512],[-120.71826277224866,36.19693277080629],[-120.7182,36.1969]],[[-120.7061,36.2037],[-120.70629346962504,36.207881920356535],[-120.70995034182721,36.20153617153512],[-120.7061,36.2037]],[[-120.7074,36.2318],[-120.7177,36.26],[-120.70733380634391,36.230369198664455],[-120.7074,36.2318]],[[-120.6885,36.2722],[-120.68410674157303,36.27174775280899],[-120.702,36.2862],[-120.6885,36.2722]]]}},{"type":"Feature","properties":{"counties":["Sutter","Yuba"],"cocName":"Yuba City & County/Sutter County CoC"},"geometry":{"type":"Polygon","coordinates":[[[-121.4146,38.996],[-121.4144,38.9262],[-121.4694,38.926],[-121.4698,38.7516],[-121.4845,38.7514],[-121.4844,38.7346],[-121.6029,38.7358],[-121.5934,38.754],[-121.5932,38.7643],[-121.6049,38.7794],[-121.6246,38.7854],[-121.631,38.7829],[-121.628,38.779],[-121.6344,38.7679],[-121.6462,38.7741],[-121.639,38.7672],[-121.6541,38.7645],[-121.6632,38.7692],[-121.6585,38.755],[-121.668,38.7545],[-121.6696,38.7454],[-121.6742,38.7434],[-121.6772,38.7509],[-121.67,38.7593],[-121.6926,38.7677],[-121.6865,38.7754],[-121.6934,38.7898],[-121.6907,38.7956],[-121.7013,38.803],[-121.7234,38.8038],[-121.7234,38.8256],[-121.731,38.8358],[-121.7232,38.8513],[-121.7296,38.8584],[-121.7448,38.8642],[-121.7486,38.8713],[-121.7593,38.8684],[-121.7584,38.8624],[-121.7653,38.8642],[-121.7839,38.8565],[-121.7858,38.8632],[-121.8024,38.8646],[-121.8152,38.8771],[-121.8167,38.8845],[-121.8068,38.8903],[-121.804,38.9017],[-121.7936,38.9007],[-121.7911,38.9045],[-121.8122,38.9088],[-121.8153,38.9112],[-121.8059,38.9108],[-121.8048,38.9145],[-121.8289,38.9185],[-121.8373,38.9261],[-121.8301,38.9384],[-121.8406,38.9548],[-121.8321,38.9605],[-121.8333,38.9702],[-121.8214,38.9747],[-121.8195,38.9883],[-121.8021,38.9898],[-121.7953,38.9961],[-121.8265,39.0112],[-121.821,39.0203],[-121.8229,39.0294],[-121.8307,39.0327],[-121.8296,39.038],[-121.8396,39.0469],[-121.8386,39.0641],[-121.8494,39.0714],[-121.8698,39.0669],[-121.8891,39.0724],[-121.8946,39.079],[-121.8898,39.0812],[-121.8953,39.0868],[-121.8944,39.0961],[-121.9058,39.1031],[-121.9055,39.1148],[-121.9131,39.1143],[-121.9111,39.1232],[-121.9214,39.1222],[-121.939,39.1354],[-121.9378,39.144],[-121.9206,39.1413],[-121.9172,39.1473],[-121.9342,39.161],[-121.9455,39.1798],[-121.9346,39.1899],[-121.9366,39.1947],[-121.9283,39.1987],[-121.9361,39.221],[-121.9415,39.2217],[-121.9401,39.2287],[-121.9483,39.2409],[-121.9468,39.2498],[-121.9083,39.3039],[-121.6302,39.3057],[-121.6323,39.3022],[-121.62478586988519,39.29636549896968],[-121.6182,39.301],[-121.6208,39.3033],[-121.6119,39.319],[-121.6042,39.318],[-121.6023,39.3114],[-121.5942,39.3078],[-121.5757,39.3108],[-121.5637,39.3049],[-121.5306,39.3183],[-121.4978,39.3142],[-121.4953,39.319],[-121.4841,39.318],[-121.4841,39.3261],[-121.4746,39.3335],[-121.4636,39.3309],[-121.4576,39.3355],[-121.447,39.3306],[-121.4348,39.3375],[-121.4263,39.335],[-121.4073,39.3399],[-121.4032,39.3496],[-121.3724,39.3649],[-121.3726,39.3736],[-121.36,39.399],[-121.3631,39.4042],[-121.3341,39.4258],[-121.3454,39.4389],[-121.3452,39.4526],[-121.3384,39.4544],[-121.3383,39.465],[-121.3242,39.4686],[-121.3241,39.4757],[-121.3148,39.4759],[-121.315,39.487],[-121.3102,39.4868],[-121.3102,39.4978],[-121.3054,39.4978],[-121.3051,39.5196],[-121.2768,39.5203],[-121.2771,39.5128],[-121.2403,39.5131],[-121.2405,39.5266],[-121.21,39.5272],[-121.1852,39.5267],[-121.1854,39.5197],[-121.1593,39.5196],[-121.159,39.5261],[-121.1499,39.5265],[-121.1499,39.5553],[-121.1409,39.5556],[-121.1412,39.5623],[-121.107,39.5672],[-121.1075,39.5853],[-121.0796,39.5853],[-121.0767,39.5973],[-121.0095,39.6395],[-121.0244,39.5591],[-121.0483,39.5483],[-121.0582,39.537],[-121.0488,39.517],[-121.0344,39.5145],[-121.0221,39.3916],[-121.0257,39.3894],[-121.0346,39.3955],[-121.0419,39.3882],[-121.0498,39.3955],[-121.0631,39.391],[-121.084,39.3946],[-121.0869,39.3864],[-121.0964,39.3877],[-121.1016,39.381],[-121.1279,39.38],[-121.1271,39.3726],[-121.1369,39.3681],[-121.1451,39.3558],[-121.1438,39.3497],[-121.1548,39.3486],[-121.1575,39.3325],[-121.1625,39.3326],[-121.165,39.3386],[-121.178,39.3387],[-121.1845,39.3309],[-121.1956,39.3296],[-121.2064,39.3165],[-121.2002,39.3024],[-121.2149,39.2929],[-121.2184,39.2842],[-121.2426,39.2835],[-121.2661,39.2727],[-121.2592,39.2564],[-121.2693,39.2521],[-121.2688,39.2403],[-121.2795,39.2305],[-121.2795,39.0346],[-121.2902,39.0369],[-121.2937,39.0443],[-121.3092,39.0526],[-121.3539,39.0313],[-121.3657,39.0317],[-121.4148,38.9965],[-121.4438,38.9933],[-121.4146,38.996]],[[-121.6325,39.2709],[-121.6322837461731,39.27075972724742],[-121.622,39.2736],[-121.6325,39.2709]],[[-121.5789,38.9217],[-121.57873545454545,38.92154485714285],[-121.5822,38.9357],[-121.5789,38.9217]]]}}]}