{"type":"FeatureCollection","features":[{"type":"Feature","id":1,"geometry":{"type":"Point","coordinates":[-121.50595288033924,38.580050528159823]},"properties":{"OBJECTID":1,"sb79_type":"Planned (Selected Alternative)","GlobalID_1":"{0303D61E-067A-404F-B584-30EE0DD4FD3B}","created_user":null,"created_date":null,"last_edited_user":null,"last_edited_date":null}},{"type":"Feature","id":2,"geometry":{"type":"Point","coordinates":[-121.50239358813938,38.577823709127216]},"properties":{"OBJECTID":2,"sb79_type":"Planned (Selected Alternative)","GlobalID_1":"{4CA0F8A2-830B-4158-8B59-96ADABCC6BB2}","created_user":null,"created_date":null,"last_edited_user":null,"last_edited_date":null}},{"type":"Feature","id":3,"geometry":{"type":"Point","coordinates":[-121.47158242080236,38.564688392760502]},"properties":{"OBJECTID":3,"sb79_type":"Existing TOD Stop","GlobalID_1":"{350E0948-EA02-4E76-9AFE-1CEBC8B7BBBB}","created_user":null,"created_date":null,"last_edited_user":null,"last_edited_date":null}},{"type":"Feature","id":4,"geometry":{"type":"Point","coordinates":[-121.21226048324526,38.630441479787258]},"properties":{"OBJECTID":4,"sb79_type":"Existing TOD Stop","GlobalID_1":"{C34D5241-EDB6-4381-B520-C287777F6F5B}","created_user":null,"created_date":null,"last_edited_user":null,"last_edited_date":null}},{"type":"Feature","id":5,"geometry":{"type":"Point","coordinates":[-121.49341272689036,38.596672220156655]},"properties":{"OBJECTID":5,"sb79_type":"Existing TOD Stop","GlobalID_1":"{69CDD2B5-1438-4977-8DC4-B6A2853235E2}","created_user":null,"created_date":null,"last_edited_user":null,"last_edited_date":null}},{"type":"Feature","id":6,"geometry":{"type":"Point","coordinates":[-121.43918385073891,38.608109505293427]},"properties":{"OBJECTID":6,"sb79_type":"Existing TOD Stop","GlobalID_1":"{09D1E016-2EF5-4258-B663-B7615440CA89}","created_user":null,"created_date":null,"last_edited_user":null,"last_edited_date":null}},{"type":"Feature","id":7,"geometry":{"type":"Point","coordinates":[-121.49569926203019,38.582247002657894]},"properties":{"OBJECTID":7,"sb79_type":"Existing TOD Stop","GlobalID_1":"{A48CB6B6-EFE9-4339-9F90-D20050D64913}","created_user":null,"created_date":null,"last_edited_user":null,"last_edited_date":null}},{"type":"Feature","id":8,"geometry":{"type":"Point","coordinates":[-121.49416826437952,38.57422834164587]},"properties":{"OBJECTID":8,"sb79_type":"Existing TOD Stop","GlobalID_1":"{0253AC40-DB70-4A93-837C-45974B0BA84A}","created_user":null,"created_date":null,"last_edited_user":null,"last_edited_date":null}},{"type":"Feature","id":9,"geometry":{"type":"Point","coordinates":[-121.49298337308009,38.57077189653517]},"properties":{"OBJECTID":9,"sb79_type":"Existing TOD Stop","GlobalID_1":"{13F0DD94-A7A5-427B-A3F1-339EC93541A0}","created_user":null,"created_date":null,"last_edited_user":null,"last_edited_date":null}},{"type":"Feature","id":10,"geometry":{"type":"Point","coordinates":[-121.44812991646153,38.558284816376471]},"properties":{"OBJECTID":10,"sb79_type":"Existing TOD Stop","GlobalID_1":"{6F2084CD-6319-4AC3-A080-643FFE151A6D}","created_user":null,"created_date":null,"last_edited_user":null,"last_edited_date":null}},{"type":"Feature","id":11,"geometry":{"type":"Point","coordinates":[-121.46734093365299,38.483698961666342]},"properties":{"OBJECTID":11,"sb79_type":"Existing TOD Stop","GlobalID_1":"{BACADA8F-0D7E-4AB9-ACD5-6FE4B4E069D4}","created_user":null,"created_date":null,"last_edited_user":null,"last_edited_date":null}},{"type":"Feature","id":12,"geometry":{"type":"Point","coordinates":[-121.49834649622738,38.579066876805555]},"properties":{"OBJECTID":12,"sb79_type":"Existing TOD Stop","GlobalID_1":"{28A18A98-BEE6-4A04-A22E-BEA20A90B750}","created_user":null,"created_date":null,"last_edited_user":null,"last_edited_date":null}},{"type":"Feature","id":13,"geometry":{"type":"Point","coordinates":[-121.49432671315837,38.571141326180758]},"properties":{"OBJECTID":13,"sb79_type":"Existing TOD Stop","GlobalID_1":"{0842631B-34B3-4A1C-8B2F-8C31E61DDE91}","created_user":null,"created_date":null,"last_edited_user":null,"last_edited_date":null}},{"type":"Feature","id":14,"geometry":{"type":"Point","coordinates":[-121.44907003122714,38.558557479901239]},"properties":{"OBJECTID":14,"sb79_type":"Existing TOD Stop","GlobalID_1":"{1AAAA319-374A-4081-B6DC-AD41F0E96FA0}","created_user":null,"created_date":null,"last_edited_user":null,"last_edited_date":null}},{"type":"Feature","id":15,"geometry":{"type":"Point","coordinates":[-121.47617852853328,38.512317200513309]},"properties":{"OBJECTID":15,"sb79_type":"Existing TOD Stop","GlobalID_1":"{ED2F522E-94D5-4671-92D3-D2D550C5C098}","created_user":null,"created_date":null,"last_edited_user":null,"last_edited_date":null}},{"type":"Feature","id":16,"geometry":{"type":"Point","coordinates":[-121.39357770892208,38.643320339362702]},"properties":{"OBJECTID":16,"sb79_type":"Existing TOD Stop","GlobalID_1":"{7BD2704C-529E-4A21-ADFF-36EDBDB9BE8F}","created_user":null,"created_date":null,"last_edited_user":null,"last_edited_date":null}},{"type":"Feature","id":17,"geometry":{"type":"Point","coordinates":[-121.48010916371376,38.52495269306678]},"properties":{"OBJECTID":17,"sb79_type":"Existing TOD Stop","GlobalID_1":"{606019CC-760F-4B32-A5F8-E2825A9CCF2E}","created_user":null,"created_date":null,"last_edited_user":null,"last_edited_date":null}},{"type":"Feature","id":18,"geometry":{"type":"Point","coordinates":[-121.49651063058791,38.58041077668436]},"properties":{"OBJECTID":18,"sb79_type":"Existing TOD Stop","GlobalID_1":"{D389A0F7-A3E7-4B29-A35C-12706B11B380}","created_user":null,"created_date":null,"last_edited_user":null,"last_edited_date":null}},{"type":"Feature","id":19,"geometry":{"type":"Point","coordinates":[-121.49789305361313,38.627884886262741]},"properties":{"OBJECTID":19,"sb79_type":"Planned (Selected Alternative)","GlobalID_1":"{7D6B2E0C-1C21-4220-B433-A25DF339CC62}","created_user":null,"created_date":null,"last_edited_user":null,"last_edited_date":null}},{"type":"Feature","id":20,"geometry":{"type":"Point","coordinates":[-121.46329386586736,38.466434199433444]},"properties":{"OBJECTID":20,"sb79_type":"Existing TOD Stop","GlobalID_1":"{702F1599-3416-4E2C-BFE5-0E08096F6E99}","created_user":null,"created_date":null,"last_edited_user":null,"last_edited_date":null}},{"type":"Feature","id":21,"geometry":{"type":"Point","coordinates":[-121.54661456103429,38.677869439172831]},"properties":{"OBJECTID":21,"sb79_type":"Planned (Selected Alternative)","GlobalID_1":"{F87AAB2C-F7BC-476B-8A33-0F8BC14FE2AA}","created_user":null,"created_date":null,"last_edited_user":null,"last_edited_date":null}},{"type":"Feature","id":22,"geometry":{"type":"Point","coordinates":[-121.49789841894614,38.612310282660403]},"properties":{"OBJECTID":22,"sb79_type":"Planned (Selected Alternative)","GlobalID_1":"{5D683596-CF0E-4947-BEBF-8B05033D9178}","created_user":null,"created_date":null,"last_edited_user":null,"last_edited_date":null}},{"type":"Feature","id":23,"geometry":{"type":"Point","coordinates":[-121.49316859841076,38.596603903918307]},"properties":{"OBJECTID":23,"sb79_type":"Existing TOD Stop","GlobalID_1":"{D4888343-42C2-4FB2-96BF-9F7276D90B15}","created_user":null,"created_date":null,"last_edited_user":null,"last_edited_date":null}},{"type":"Feature","id":24,"geometry":{"type":"Point","coordinates":[-121.49144319961314,38.57844563119852]},"properties":{"OBJECTID":24,"sb79_type":"Existing TOD Stop","GlobalID_1":"{9A3566B0-8BA9-49B0-B132-09560EBD1305}","created_user":null,"created_date":null,"last_edited_user":null,"last_edited_date":null}},{"type":"Feature","id":25,"geometry":{"type":"Point","coordinates":[-121.49294180054014,38.570902263211089]},"properties":{"OBJECTID":25,"sb79_type":"Existing TOD Stop","GlobalID_1":"{3E326B6A-FB34-4721-971D-EA08A36C3BB4}","created_user":null,"created_date":null,"last_edited_user":null,"last_edited_date":null}},{"type":"Feature","id":26,"geometry":{"type":"Point","coordinates":[-121.18358530259168,38.663762377680982]},"properties":{"OBJECTID":26,"sb79_type":"Existing TOD Stop","GlobalID_1":"{48E0A5FB-6D59-49DA-A7B0-CB1248FA8B79}","created_user":null,"created_date":null,"last_edited_user":null,"last_edited_date":null}},{"type":"Feature","id":27,"geometry":{"type":"Point","coordinates":[-121.43994358565625,38.607441938663868]},"properties":{"OBJECTID":27,"sb79_type":"Existing TOD Stop","GlobalID_1":"{3F90AC4C-1579-4078-BC0C-ED177991D526}","created_user":null,"created_date":null,"last_edited_user":null,"last_edited_date":null}},{"type":"Feature","id":28,"geometry":{"type":"Point","coordinates":[-121.44763625170896,38.606308147676593]},"properties":{"OBJECTID":28,"sb79_type":"Existing TOD Stop","GlobalID_1":"{37B5B210-37B1-409D-A5B3-A5E1DD01DEFF}","created_user":null,"created_date":null,"last_edited_user":null,"last_edited_date":null}},{"type":"Feature","id":29,"geometry":{"type":"Point","coordinates":[-121.47855057845022,38.566437458719051]},"properties":{"OBJECTID":29,"sb79_type":"Existing TOD Stop","GlobalID_1":"{895797A2-FA00-4523-9033-CDFD6E6762BE}","created_user":null,"created_date":null,"last_edited_user":null,"last_edited_date":null}},{"type":"Feature","id":30,"geometry":{"type":"Point","coordinates":[-121.4958473863699,38.579775010168625]},"properties":{"OBJECTID":30,"sb79_type":"Existing TOD Stop","GlobalID_1":"{7A227E6D-C7D5-47C3-9B58-E7339CC186F7}","created_user":null,"created_date":null,"last_edited_user":null,"last_edited_date":null}},{"type":"Feature","id":31,"geometry":{"type":"Point","coordinates":[-121.44848248950744,38.606183433582622]},"properties":{"OBJECTID":31,"sb79_type":"Existing TOD Stop","GlobalID_1":"{FD3CF80D-67BD-468F-A011-23C4C43E172C}","created_user":null,"created_date":null,"last_edited_user":null,"last_edited_date":null}},{"type":"Feature","id":32,"geometry":{"type":"Point","coordinates":[-121.45751325598502,38.606333305329009]},"properties":{"OBJECTID":32,"sb79_type":"Existing TOD Stop","GlobalID_1":"{D6A44316-836E-43E6-87D7-BE016EAE8A4B}","created_user":null,"created_date":null,"last_edited_user":null,"last_edited_date":null}},{"type":"Feature","id":33,"geometry":{"type":"Point","coordinates":[-121.31064033379909,38.584792812097476]},"properties":{"OBJECTID":33,"sb79_type":"Existing TOD Stop","GlobalID_1":"{ACFC12E0-9A70-4AE8-8315-AB69CE0013CB}","created_user":null,"created_date":null,"last_edited_user":null,"last_edited_date":null}},{"type":"Feature","id":34,"geometry":{"type":"Point","coordinates":[-121.41820685417687,38.453034318517609]},"properties":{"OBJECTID":34,"sb79_type":"Existing TOD Stop","GlobalID_1":"{E7ECEDDD-BF3F-4D4C-BEAC-E4F98CE44434}","created_user":null,"created_date":null,"last_edited_user":null,"last_edited_date":null}},{"type":"Feature","id":35,"geometry":{"type":"Point","coordinates":[-121.47163524736098,38.564573012586564]},"properties":{"OBJECTID":35,"sb79_type":"Existing TOD Stop","GlobalID_1":"{1EB08EC3-3609-4C0C-8CF1-1302DFA097E4}","created_user":null,"created_date":null,"last_edited_user":null,"last_edited_date":null}},{"type":"Feature","id":36,"geometry":{"type":"Point","coordinates":[-121.42720239747906,38.552364031534651]},"properties":{"OBJECTID":36,"sb79_type":"Existing TOD Stop","GlobalID_1":"{32A5FF47-D12D-4DE9-BFD7-0DEA9718CB91}","created_user":null,"created_date":null,"last_edited_user":null,"last_edited_date":null}},{"type":"Feature","id":37,"geometry":{"type":"Point","coordinates":[-121.47631517914762,38.511819762012344]},"properties":{"OBJECTID":37,"sb79_type":"Existing TOD Stop","GlobalID_1":"{A982D899-B647-403C-835F-8F6510CBBBE7}","created_user":null,"created_date":null,"last_edited_user":null,"last_edited_date":null}},{"type":"Feature","id":38,"geometry":{"type":"Point","coordinates":[-121.4889363141202,38.569835160905065]},"properties":{"OBJECTID":38,"sb79_type":"Existing TOD Stop","GlobalID_1":"{A47799DF-C8A5-40C6-BBF5-1658D3E06245}","created_user":null,"created_date":null,"last_edited_user":null,"last_edited_date":null}},{"type":"Feature","id":39,"geometry":{"type":"Point","coordinates":[-121.48841853023508,38.551673708474439]},"properties":{"OBJECTID":39,"sb79_type":"Existing TOD Stop","GlobalID_1":"{C52A6BBC-9329-42AC-829D-ECF089C7BAE5}","created_user":null,"created_date":null,"last_edited_user":null,"last_edited_date":null}},{"type":"Feature","id":40,"geometry":{"type":"Point","coordinates":[-121.3829540966607,38.645162956030973]},"properties":{"OBJECTID":40,"sb79_type":"Existing TOD Stop","GlobalID_1":"{DF179169-B8FF-42C0-818C-974BA2D4D3A4}","created_user":null,"created_date":null,"last_edited_user":null,"last_edited_date":null}},{"type":"Feature","id":41,"geometry":{"type":"Point","coordinates":[-121.49374989976126,38.579210971865798]},"properties":{"OBJECTID":41,"sb79_type":"Existing TOD Stop","GlobalID_1":"{CA426941-DF8B-4D75-8295-33DD65295437}","created_user":null,"created_date":null,"last_edited_user":null,"last_edited_date":null}},{"type":"Feature","id":42,"geometry":{"type":"Point","coordinates":[-121.51163855566989,38.651518825298808]},"properties":{"OBJECTID":42,"sb79_type":"Planned (Selected Alternative)","GlobalID_1":"{FB0DC5FB-860D-41C1-B00D-51D4B867AF1F}","created_user":null,"created_date":null,"last_edited_user":null,"last_edited_date":null}},{"type":"Feature","id":43,"geometry":{"type":"Point","coordinates":[-121.44925744596922,38.463267163591574]},"properties":{"OBJECTID":43,"sb79_type":"Existing TOD Stop","GlobalID_1":"{8F6E3EB7-D83D-4691-A496-B3BC27EDEF44}","created_user":null,"created_date":null,"last_edited_user":null,"last_edited_date":null}},{"type":"Feature","id":44,"geometry":{"type":"Point","coordinates":[-121.21179624170884,38.630392649502696]},"properties":{"OBJECTID":44,"sb79_type":"Existing TOD Stop","GlobalID_1":"{A4A70D32-01D9-4E5F-AE3E-7FD8DD1FBE2F}","created_user":null,"created_date":null,"last_edited_user":null,"last_edited_date":null}},{"type":"Feature","id":45,"geometry":{"type":"Point","coordinates":[-121.49359963449076,38.574052197324406]},"properties":{"OBJECTID":45,"sb79_type":"Existing TOD Stop","GlobalID_1":"{DA6AB782-E0C9-45DC-AA27-BC4C0304AD6B}","created_user":null,"created_date":null,"last_edited_user":null,"last_edited_date":null}},{"type":"Feature","id":46,"geometry":{"type":"Point","coordinates":[-121.48980436966268,38.581658953135239]},"properties":{"OBJECTID":46,"sb79_type":"Existing TOD Stop","GlobalID_1":"{42548E40-D176-439D-9F0A-A06DB53C1B23}","created_user":null,"created_date":null,"last_edited_user":null,"last_edited_date":null}},{"type":"Feature","id":47,"geometry":{"type":"Point","coordinates":[-121.42773037571936,38.552589050141499]},"properties":{"OBJECTID":47,"sb79_type":"Existing TOD Stop","GlobalID_1":"{E5C9A354-4485-4C6D-8832-D4EA4F9D8E66}","created_user":null,"created_date":null,"last_edited_user":null,"last_edited_date":null}},{"type":"Feature","id":48,"geometry":{"type":"Point","coordinates":[-121.28359293837838,38.598220568183152]},"properties":{"OBJECTID":48,"sb79_type":"Existing TOD Stop","GlobalID_1":"{B51AC1ED-5E8A-468D-94A6-88410C61E4AD}","created_user":null,"created_date":null,"last_edited_user":null,"last_edited_date":null}},{"type":"Feature","id":49,"geometry":{"type":"Point","coordinates":[-121.40919497091602,38.547828421342395]},"properties":{"OBJECTID":49,"sb79_type":"Existing TOD Stop","GlobalID_1":"{978558B3-C162-4B0A-932C-6BDCC5C261F3}","created_user":null,"created_date":null,"last_edited_user":null,"last_edited_date":null}},{"type":"Feature","id":50,"geometry":{"type":"Point","coordinates":[-121.4858297854566,38.541727406480689]},"properties":{"OBJECTID":50,"sb79_type":"Existing TOD Stop","GlobalID_1":"{090B659A-BEEE-4F02-893B-A4243E767291}","created_user":null,"created_date":null,"last_edited_user":null,"last_edited_date":null}},{"type":"Feature","id":51,"geometry":{"type":"Point","coordinates":[-121.3944789316804,38.64290973065183]},"properties":{"OBJECTID":51,"sb79_type":"Existing TOD Stop","GlobalID_1":"{CCDB82F4-F779-4B42-86D4-B8303F44DFD4}","created_user":null,"created_date":null,"last_edited_user":null,"last_edited_date":null}},{"type":"Feature","id":52,"geometry":{"type":"Point","coordinates":[-121.40143896899691,38.638499711989958]},"properties":{"OBJECTID":52,"sb79_type":"Existing TOD Stop","GlobalID_1":"{B8C88856-08DE-4B34-ACE2-0583E4C581F7}","created_user":null,"created_date":null,"last_edited_user":null,"last_edited_date":null}},{"type":"Feature","id":53,"geometry":{"type":"Point","coordinates":[-121.425188083762,38.621057729909289]},"properties":{"OBJECTID":53,"sb79_type":"Existing TOD Stop","GlobalID_1":"{B0D358F5-D5EE-44CB-953B-1F22CE1429E1}","created_user":null,"created_date":null,"last_edited_user":null,"last_edited_date":null}},{"type":"Feature","id":54,"geometry":{"type":"Point","coordinates":[-121.49535728229513,38.583119232038975]},"properties":{"OBJECTID":54,"sb79_type":"Existing TOD Stop","GlobalID_1":"{810FB09F-5E56-42AC-AE68-1D3B811E4426}","created_user":null,"created_date":null,"last_edited_user":null,"last_edited_date":null}},{"type":"Feature","id":55,"geometry":{"type":"Point","coordinates":[-121.49804351248737,38.576844076394536]},"properties":{"OBJECTID":55,"sb79_type":"Existing TOD Stop","GlobalID_1":"{52CDBE8D-058E-413B-8B1C-DDCAACFF7E62}","created_user":null,"created_date":null,"last_edited_user":null,"last_edited_date":null}},{"type":"Feature","id":56,"geometry":{"type":"Point","coordinates":[-121.48989199252003,38.581461178601053]},"properties":{"OBJECTID":56,"sb79_type":"Existing TOD Stop","GlobalID_1":"{65B9CF30-9ABD-4826-8F1F-643A41529517}","created_user":null,"created_date":null,"last_edited_user":null,"last_edited_date":null}},{"type":"Feature","id":57,"geometry":{"type":"Point","coordinates":[-121.48780835256335,38.560279473871269]},"properties":{"OBJECTID":57,"sb79_type":"Existing TOD Stop","GlobalID_1":"{3126704B-87BB-4970-B584-228B18A39AB2}","created_user":null,"created_date":null,"last_edited_user":null,"last_edited_date":null}},{"type":"Feature","id":58,"geometry":{"type":"Point","coordinates":[-121.42438073847777,38.621758699988845]},"properties":{"OBJECTID":58,"sb79_type":"Existing TOD Stop","GlobalID_1":"{8064153B-BA9B-4B82-AF6C-718ED1F870D1}","created_user":null,"created_date":null,"last_edited_user":null,"last_edited_date":null}},{"type":"Feature","id":59,"geometry":{"type":"Point","coordinates":[-121.44829875861704,38.606307099075295]},"properties":{"OBJECTID":59,"sb79_type":"Existing TOD Stop","GlobalID_1":"{0E755D6C-1E64-4043-B8C8-3177B728D17C}","created_user":null,"created_date":null,"last_edited_user":null,"last_edited_date":null}},{"type":"Feature","id":60,"geometry":{"type":"Point","coordinates":[-121.40721147730761,38.546962056353102]},"properties":{"OBJECTID":60,"sb79_type":"Existing TOD Stop","GlobalID_1":"{7D235C11-7A14-4289-9E7A-014476B82E5A}","created_user":null,"created_date":null,"last_edited_user":null,"last_edited_date":null}},{"type":"Feature","id":61,"geometry":{"type":"Point","coordinates":[-121.42991067388564,38.458574138935198]},"properties":{"OBJECTID":61,"sb79_type":"Existing TOD Stop","GlobalID_1":"{AABF4C35-7518-4F67-AA14-F4F3BACEE342}","created_user":null,"created_date":null,"last_edited_user":null,"last_edited_date":null}},{"type":"Feature","id":62,"geometry":{"type":"Point","coordinates":[-121.42765259262653,38.552430680641002]},"properties":{"OBJECTID":62,"sb79_type":"Existing TOD Stop","GlobalID_1":"{59FBEFEB-0158-4988-938F-4F5CFDA7E954}","created_user":null,"created_date":null,"last_edited_user":null,"last_edited_date":null}},{"type":"Feature","id":63,"geometry":{"type":"Point","coordinates":[-121.46308695029241,38.465823954809245]},"properties":{"OBJECTID":63,"sb79_type":"Existing TOD Stop","GlobalID_1":"{08FCFE6A-4625-4381-8EE1-2D6E6F633161}","created_user":null,"created_date":null,"last_edited_user":null,"last_edited_date":null}},{"type":"Feature","id":64,"geometry":{"type":"Point","coordinates":[-121.26717200916366,38.606681595718456]},"properties":{"OBJECTID":64,"sb79_type":"Existing TOD Stop","GlobalID_1":"{C19B981F-15CC-4B37-A489-46D4FCB6381F}","created_user":null,"created_date":null,"last_edited_user":null,"last_edited_date":null}},{"type":"Feature","id":65,"geometry":{"type":"Point","coordinates":[-121.4270468288166,38.552328372414337]},"properties":{"OBJECTID":65,"sb79_type":"Existing TOD Stop","GlobalID_1":"{38186BA0-A518-47A2-B0E9-1E599401F397}","created_user":null,"created_date":null,"last_edited_user":null,"last_edited_date":null}},{"type":"Feature","id":66,"geometry":{"type":"Point","coordinates":[-121.40282567062995,38.637987463980394]},"properties":{"OBJECTID":66,"sb79_type":"Existing TOD Stop","GlobalID_1":"{D7BA5F76-2B5A-4A88-9866-A6C5F1080523}","created_user":null,"created_date":null,"last_edited_user":null,"last_edited_date":null}},{"type":"Feature","id":67,"geometry":{"type":"Point","coordinates":[-121.28363317159246,38.598484697113406]},"properties":{"OBJECTID":67,"sb79_type":"Existing TOD Stop","GlobalID_1":"{33A3AC41-9195-4B46-B2C1-42BD7CB2A3A7}","created_user":null,"created_date":null,"last_edited_user":null,"last_edited_date":null}},{"type":"Feature","id":68,"geometry":{"type":"Point","coordinates":[-121.49869920736442,38.578226048989251]},"properties":{"OBJECTID":68,"sb79_type":"Existing TOD Stop","GlobalID_1":"{96EB523E-C74D-4580-8AC6-3049C963FC11}","created_user":null,"created_date":null,"last_edited_user":null,"last_edited_date":null}},{"type":"Feature","id":69,"geometry":{"type":"Point","coordinates":[-121.43655350306572,38.554905793976133]},"properties":{"OBJECTID":69,"sb79_type":"Existing TOD Stop","GlobalID_1":"{AB9BDF83-4A20-4EE4-80E8-675B20F6D54D}","created_user":null,"created_date":null,"last_edited_user":null,"last_edited_date":null}},{"type":"Feature","id":70,"geometry":{"type":"Point","coordinates":[-121.34725516949338,38.566937657162782]},"properties":{"OBJECTID":70,"sb79_type":"Existing TOD Stop","GlobalID_1":"{AEE9593C-C1D5-4130-B055-A972B59F79B6}","created_user":null,"created_date":null,"last_edited_user":null,"last_edited_date":null}},{"type":"Feature","id":71,"geometry":{"type":"Point","coordinates":[-121.49000330227932,38.581229487888237]},"properties":{"OBJECTID":71,"sb79_type":"Existing TOD Stop","GlobalID_1":"{CE20852B-CE92-41E4-9C01-C9596E8BA290}","created_user":null,"created_date":null,"last_edited_user":null,"last_edited_date":null}},{"type":"Feature","id":72,"geometry":{"type":"Point","coordinates":[-121.49684054337176,38.582538970172337]},"properties":{"OBJECTID":72,"sb79_type":"Existing TOD Stop","GlobalID_1":"{93CF0C60-3EC7-4C34-9357-DCB3C7F3B314}","created_user":null,"created_date":null,"last_edited_user":null,"last_edited_date":null}},{"type":"Feature","id":73,"geometry":{"type":"Point","coordinates":[-121.49432114878178,38.574391903765246]},"properties":{"OBJECTID":73,"sb79_type":"Existing TOD Stop","GlobalID_1":"{6E2E5ADF-B904-45A5-82F6-BD15106815F6}","created_user":null,"created_date":null,"last_edited_user":null,"last_edited_date":null}},{"type":"Feature","id":74,"geometry":{"type":"Point","coordinates":[-121.49590847564836,38.57965960356676]},"properties":{"OBJECTID":74,"sb79_type":"Existing TOD Stop","GlobalID_1":"{37829728-A228-4208-A6D6-6EB1B49F03F3}","created_user":null,"created_date":null,"last_edited_user":null,"last_edited_date":null}},{"type":"Feature","id":75,"geometry":{"type":"Point","coordinates":[-121.47049076333455,38.564409461825669]},"properties":{"OBJECTID":75,"sb79_type":"Existing TOD Stop","GlobalID_1":"{30AE880F-20DE-468E-9EB7-4731FAC778C3}","created_user":null,"created_date":null,"last_edited_user":null,"last_edited_date":null}},{"type":"Feature","id":76,"geometry":{"type":"Point","coordinates":[-121.49775919865044,38.577523461572532]},"properties":{"OBJECTID":76,"sb79_type":"Existing TOD Stop","GlobalID_1":"{666CF2E2-9B1F-4075-968D-0E73C9413AAC}","created_user":null,"created_date":null,"last_edited_user":null,"last_edited_date":null}},{"type":"Feature","id":77,"geometry":{"type":"Point","coordinates":[-121.47851660225115,38.566538821373065]},"properties":{"OBJECTID":77,"sb79_type":"Existing TOD Stop","GlobalID_1":"{8622074A-377B-4E29-9E00-BD4AB33899FE}","created_user":null,"created_date":null,"last_edited_user":null,"last_edited_date":null}},{"type":"Feature","id":78,"geometry":{"type":"Point","coordinates":[-121.29112458084182,38.594788921012324]},"properties":{"OBJECTID":78,"sb79_type":"Existing TOD Stop","GlobalID_1":"{C51572C7-E421-4892-B1D5-5F21965214DE}","created_user":null,"created_date":null,"last_edited_user":null,"last_edited_date":null}},{"type":"Feature","id":79,"geometry":{"type":"Point","coordinates":[-121.39521117470066,38.642595487855438]},"properties":{"OBJECTID":79,"sb79_type":"Existing TOD Stop","GlobalID_1":"{3DE319BA-F3FE-4F08-89CD-0FE240DCC93E}","created_user":null,"created_date":null,"last_edited_user":null,"last_edited_date":null}},{"type":"Feature","id":80,"geometry":{"type":"Point","coordinates":[-121.49834178078702,38.575543120603868]},"properties":{"OBJECTID":80,"sb79_type":"Existing TOD Stop","GlobalID_1":"{D49F9406-F7AB-4725-B055-10FC4B23500C}","created_user":null,"created_date":null,"last_edited_user":null,"last_edited_date":null}},{"type":"Feature","id":81,"geometry":{"type":"Point","coordinates":[-121.50894690206334,38.64417894567822]},"properties":{"OBJECTID":81,"sb79_type":"Planned (Selected Alternative)","GlobalID_1":"{794836FB-04EB-48B3-B5C0-33A7B0F394EF}","created_user":null,"created_date":null,"last_edited_user":null,"last_edited_date":null}},{"type":"Feature","id":82,"geometry":{"type":"Point","coordinates":[-121.3525511896172,38.564310908201534]},"properties":{"OBJECTID":82,"sb79_type":"Existing TOD Stop","GlobalID_1":"{B269A98D-1572-4165-8CA3-FAE6BA72BE8C}","created_user":null,"created_date":null,"last_edited_user":null,"last_edited_date":null}},{"type":"Feature","id":83,"geometry":{"type":"Point","coordinates":[-121.31171321691549,38.584613548464048]},"properties":{"OBJECTID":83,"sb79_type":"Existing TOD Stop","GlobalID_1":"{4B5D1673-E90B-4436-A6D4-F2A95FA79A8F}","created_user":null,"created_date":null,"last_edited_user":null,"last_edited_date":null}},{"type":"Feature","id":84,"geometry":{"type":"Point","coordinates":[-121.47988922332142,38.524926462354685]},"properties":{"OBJECTID":84,"sb79_type":"Existing TOD Stop","GlobalID_1":"{74FE2302-14EC-44ED-8862-CADF3C992FAE}","created_user":null,"created_date":null,"last_edited_user":null,"last_edited_date":null}},{"type":"Feature","id":85,"geometry":{"type":"Point","coordinates":[-121.18345132203096,38.662922977484911]},"properties":{"OBJECTID":85,"sb79_type":"Existing TOD Stop","GlobalID_1":"{75EDA7A9-2077-4CC6-A779-77D9A024B1B4}","created_user":null,"created_date":null,"last_edited_user":null,"last_edited_date":null}},{"type":"Feature","id":86,"geometry":{"type":"Point","coordinates":[-121.26736775832721,38.606548452646209]},"properties":{"OBJECTID":86,"sb79_type":"Existing TOD Stop","GlobalID_1":"{39D9BA57-85CB-43A2-AE02-162006B9348F}","created_user":null,"created_date":null,"last_edited_user":null,"last_edited_date":null}},{"type":"Feature","id":87,"geometry":{"type":"Point","coordinates":[-121.2897700661029,38.595176745542283]},"properties":{"OBJECTID":87,"sb79_type":"Existing TOD Stop","GlobalID_1":"{388F976B-D754-4D97-8658-B053BC2F127D}","created_user":null,"created_date":null,"last_edited_user":null,"last_edited_date":null}},{"type":"Feature","id":88,"geometry":{"type":"Point","coordinates":[-121.3927664409926,38.547186516531376]},"properties":{"OBJECTID":88,"sb79_type":"Existing TOD Stop","GlobalID_1":"{04AC84BB-593F-49DA-B638-E69299600AA3}","created_user":null,"created_date":null,"last_edited_user":null,"last_edited_date":null}},{"type":"Feature","id":89,"geometry":{"type":"Point","coordinates":[-121.352996438329,38.563733115367498]},"properties":{"OBJECTID":89,"sb79_type":"Existing TOD Stop","GlobalID_1":"{D542EC2A-FA91-41E5-98CC-3CF070BC9FEE}","created_user":null,"created_date":null,"last_edited_user":null,"last_edited_date":null}},{"type":"Feature","id":90,"geometry":{"type":"Point","coordinates":[-121.48831708542839,38.585167757005721]},"properties":{"OBJECTID":90,"sb79_type":"Existing TOD Stop","GlobalID_1":"{09636A4B-05A8-4A71-A76D-BD23EE066BA2}","created_user":null,"created_date":null,"last_edited_user":null,"last_edited_date":null}},{"type":"Feature","id":91,"geometry":{"type":"Point","coordinates":[-121.19068121610539,38.644185408508619]},"properties":{"OBJECTID":91,"sb79_type":"Existing TOD Stop","GlobalID_1":"{BAC4D7B2-F720-4F6B-AC90-6C982C8C9B2C}","created_user":null,"created_date":null,"last_edited_user":null,"last_edited_date":null}},{"type":"Feature","id":92,"geometry":{"type":"Point","coordinates":[-121.5046009175562,38.637950389834039]},"properties":{"OBJECTID":92,"sb79_type":"Planned (Selected Alternative)","GlobalID_1":"{1DC43EAA-FDCC-4138-8813-58CE08EB827B}","created_user":null,"created_date":null,"last_edited_user":null,"last_edited_date":null}},{"type":"Feature","id":93,"geometry":{"type":"Point","coordinates":[-121.49395938238359,38.589666781921778]},"properties":{"OBJECTID":93,"sb79_type":"Planned (TIP)","GlobalID_1":"{E8A98E85-B62A-46F6-8041-D58FF6A11804}","created_user":null,"created_date":null,"last_edited_user":null,"last_edited_date":null}},{"type":"Feature","id":94,"geometry":{"type":"Point","coordinates":[-121.47054977114966,38.564220709659963]},"properties":{"OBJECTID":94,"sb79_type":"Existing TOD Stop","GlobalID_1":"{221E9E5F-F0B7-43B3-984D-5999E603E4C2}","created_user":null,"created_date":null,"last_edited_user":null,"last_edited_date":null}},{"type":"Feature","id":95,"geometry":{"type":"Point","coordinates":[-121.44842193838599,38.462843974752381]},"properties":{"OBJECTID":95,"sb79_type":"Existing TOD Stop","GlobalID_1":"{E2953D40-2888-4D5D-B2F9-AC37AB3CD009}","created_user":null,"created_date":null,"last_edited_user":null,"last_edited_date":null}},{"type":"Feature","id":96,"geometry":{"type":"Point","coordinates":[-121.49134067360241,38.596107077874599]},"properties":{"OBJECTID":96,"sb79_type":"Existing TOD Stop","GlobalID_1":"{93C40398-4EEF-4E95-97D8-0DF1BA30CDD7}","created_user":null,"created_date":null,"last_edited_user":null,"last_edited_date":null}},{"type":"Feature","id":97,"geometry":{"type":"Point","coordinates":[-121.4933233682475,38.574144463640572]},"properties":{"OBJECTID":97,"sb79_type":"Existing TOD Stop","GlobalID_1":"{E580E250-9C6D-4AC6-9A75-ABE3C03D58B4}","created_user":null,"created_date":null,"last_edited_user":null,"last_edited_date":null}},{"type":"Feature","id":98,"geometry":{"type":"Point","coordinates":[-121.49791767635615,38.62114809816439]},"properties":{"OBJECTID":98,"sb79_type":"Planned (Selected Alternative)","GlobalID_1":"{E8D5B885-450E-4E65-8D5A-4E7B95537D1C}","created_user":null,"created_date":null,"last_edited_user":null,"last_edited_date":null}},{"type":"Feature","id":99,"geometry":{"type":"Point","coordinates":[-121.45775770665807,38.560972607970079]},"properties":{"OBJECTID":99,"sb79_type":"Existing TOD Stop","GlobalID_1":"{2A2B3EA0-B100-459F-B0DA-A1F4E2E996CA}","created_user":null,"created_date":null,"last_edited_user":null,"last_edited_date":null}},{"type":"Feature","id":100,"geometry":{"type":"Point","coordinates":[-121.35369112897372,38.563776109368249]},"properties":{"OBJECTID":100,"sb79_type":"Existing TOD Stop","GlobalID_1":"{9EA844E5-5720-4C6C-92B6-7C7C0C1BBD68}","created_user":null,"created_date":null,"last_edited_user":null,"last_edited_date":null}},{"type":"Feature","id":101,"geometry":{"type":"Point","coordinates":[-121.18344103996529,38.663420387352645]},"properties":{"OBJECTID":101,"sb79_type":"Existing TOD Stop","GlobalID_1":"{6167A095-517C-427C-AA42-2EA5DC51D96D}","created_user":null,"created_date":null,"last_edited_user":null,"last_edited_date":null}},{"type":"Feature","id":102,"geometry":{"type":"Point","coordinates":[-121.47151938868124,38.496803565196537]},"properties":{"OBJECTID":102,"sb79_type":"Existing TOD Stop","GlobalID_1":"{F3A025EE-42AA-4FDC-928E-20D618F14C42}","created_user":null,"created_date":null,"last_edited_user":null,"last_edited_date":null}},{"type":"Feature","id":103,"geometry":{"type":"Point","coordinates":[-121.37253921513724,38.554280462343336]},"properties":{"OBJECTID":103,"sb79_type":"Existing TOD Stop","GlobalID_1":"{1C5E79D2-BE25-4E68-A06E-A12517D3B907}","created_user":null,"created_date":null,"last_edited_user":null,"last_edited_date":null}},{"type":"Feature","id":104,"geometry":{"type":"Point","coordinates":[-121.52695179579541,38.659663338623275]},"properties":{"OBJECTID":104,"sb79_type":"Planned (Selected Alternative)","GlobalID_1":"{23BB729E-10B8-446C-A47B-C20972428752}","created_user":null,"created_date":null,"last_edited_user":null,"last_edited_date":null}},{"type":"Feature","id":105,"geometry":{"type":"Point","coordinates":[-121.49538604644862,38.579642913180066]},"properties":{"OBJECTID":105,"sb79_type":"Existing TOD Stop","GlobalID_1":"{69DD6A68-9D18-4DB4-94D7-793011BCD394}","created_user":null,"created_date":null,"last_edited_user":null,"last_edited_date":null}},{"type":"Feature","id":106,"geometry":{"type":"Point","coordinates":[-121.49668095108063,38.580051179945663]},"properties":{"OBJECTID":106,"sb79_type":"Existing TOD Stop","GlobalID_1":"{20AF8B06-2ADD-4D7C-B64E-2E2F132EBC30}","created_user":null,"created_date":null,"last_edited_user":null,"last_edited_date":null}},{"type":"Feature","id":107,"geometry":{"type":"Point","coordinates":[-121.49008698204621,38.570032286363229]},"properties":{"OBJECTID":107,"sb79_type":"Existing TOD Stop","GlobalID_1":"{29F9669C-4658-4013-80EF-F9A5FFD8EFE7}","created_user":null,"created_date":null,"last_edited_user":null,"last_edited_date":null}},{"type":"Feature","id":108,"geometry":{"type":"Point","coordinates":[-121.47927030389876,38.566619214138569]},"properties":{"OBJECTID":108,"sb79_type":"Existing TOD Stop","GlobalID_1":"{AC083EBF-F339-43C5-BDAF-A7E76BFE0F42}","created_user":null,"created_date":null,"last_edited_user":null,"last_edited_date":null}},{"type":"Feature","id":109,"geometry":{"type":"Point","coordinates":[-121.50055406230305,38.584635127108847]},"properties":{"OBJECTID":109,"sb79_type":"Existing TOD Stop","GlobalID_1":"{58B15507-2A23-4871-BD42-466A7D91E01C}","created_user":null,"created_date":null,"last_edited_user":null,"last_edited_date":null}},{"type":"Feature","id":110,"geometry":{"type":"Point","coordinates":[-121.26744604047052,38.606181696670262]},"properties":{"OBJECTID":110,"sb79_type":"Existing TOD Stop","GlobalID_1":"{212168CC-802A-4E99-B5ED-DC6DBC404316}","created_user":null,"created_date":null,"last_edited_user":null,"last_edited_date":null}},{"type":"Feature","id":111,"geometry":{"type":"Point","coordinates":[-121.48792816571869,38.586051482552996]},"properties":{"OBJECTID":111,"sb79_type":"Existing TOD Stop","GlobalID_1":"{D696616C-B020-45FC-AE57-D2F7E63AB9A3}","created_user":null,"created_date":null,"last_edited_user":null,"last_edited_date":null}},{"type":"Feature","id":112,"geometry":{"type":"Point","coordinates":[-121.37369524720931,38.553703638277092]},"properties":{"OBJECTID":112,"sb79_type":"Existing TOD Stop","GlobalID_1":"{EC92F7EC-A76D-4DD8-88A3-2F26E2E3775C}","created_user":null,"created_date":null,"last_edited_user":null,"last_edited_date":null}},{"type":"Feature","id":113,"geometry":{"type":"Point","coordinates":[-121.51244321868806,38.656319705817751]},"properties":{"OBJECTID":113,"sb79_type":"Planned (Selected Alternative)","GlobalID_1":"{0F751763-A895-4519-8B65-8AF1DC4727B0}","created_user":null,"created_date":null,"last_edited_user":null,"last_edited_date":null}},{"type":"Feature","id":114,"geometry":{"type":"Point","coordinates":[-121.42750104858106,38.552692879863301]},"properties":{"OBJECTID":114,"sb79_type":"Existing TOD Stop","GlobalID_1":"{2B8ACBC1-8DCC-45F1-A418-A51BB4BB4B02}","created_user":null,"created_date":null,"last_edited_user":null,"last_edited_date":null}},{"type":"Feature","id":115,"geometry":{"type":"Point","coordinates":[-121.4658629734281,38.602865363031533]},"properties":{"OBJECTID":115,"sb79_type":"Existing TOD Stop","GlobalID_1":"{B3549214-869B-4657-9E59-DA79D3467820}","created_user":null,"created_date":null,"last_edited_user":null,"last_edited_date":null}},{"type":"Feature","id":116,"geometry":{"type":"Point","coordinates":[-121.19007682570552,38.644570872083946]},"properties":{"OBJECTID":116,"sb79_type":"Existing TOD Stop","GlobalID_1":"{2D7B32E7-82E5-4B80-8CF1-366398AF9D6F}","created_user":null,"created_date":null,"last_edited_user":null,"last_edited_date":null}},{"type":"Feature","id":117,"geometry":{"type":"Point","coordinates":[-121.47604427628136,38.511588895395626]},"properties":{"OBJECTID":117,"sb79_type":"Existing TOD Stop","GlobalID_1":"{DFBE6D22-B9D4-4AAC-9805-14AD25A37D5B}","created_user":null,"created_date":null,"last_edited_user":null,"last_edited_date":null}},{"type":"Feature","id":118,"geometry":{"type":"Point","coordinates":[-121.49646235084201,38.583395995923439]},"properties":{"OBJECTID":118,"sb79_type":"Existing TOD Stop","GlobalID_1":"{08B0F125-C6E7-40D5-A663-D1942390F258}","created_user":null,"created_date":null,"last_edited_user":null,"last_edited_date":null}},{"type":"Feature","id":119,"geometry":{"type":"Point","coordinates":[-121.46722962257661,38.482917909229975]},"properties":{"OBJECTID":119,"sb79_type":"Existing TOD Stop","GlobalID_1":"{25D59D14-C9FC-4EB5-BDEC-B48E07B6DAF6}","created_user":null,"created_date":null,"last_edited_user":null,"last_edited_date":null}},{"type":"Feature","id":120,"geometry":{"type":"Point","coordinates":[-121.40787532377726,38.547074285887071]},"properties":{"OBJECTID":120,"sb79_type":"Existing TOD Stop","GlobalID_1":"{E41B0413-6B67-43EC-AFCD-40DEC91B2A5F}","created_user":null,"created_date":null,"last_edited_user":null,"last_edited_date":null}},{"type":"Feature","id":121,"geometry":{"type":"Point","coordinates":[-121.49695338633721,38.598192701220505]},"properties":{"OBJECTID":121,"sb79_type":"Planned (Selected Alternative)","GlobalID_1":"{6A88DA70-336E-4A0C-BA8B-DB7E1C3283DF}","created_user":null,"created_date":null,"last_edited_user":null,"last_edited_date":null}},{"type":"Feature","id":122,"geometry":{"type":"Point","coordinates":[-121.32879833892372,38.576125240960543]},"properties":{"OBJECTID":122,"sb79_type":"Planned (TIP)","GlobalID_1":"{074D21C6-337E-4D9B-A1CA-369366009B17}","created_user":null,"created_date":null,"last_edited_user":null,"last_edited_date":null}},{"type":"Feature","id":123,"geometry":{"type":"Point","coordinates":[-121.49227139899834,38.596543110366213]},"properties":{"OBJECTID":123,"sb79_type":"Existing TOD Stop","GlobalID_1":"{A7A47A6E-B1CE-4827-9302-9A669599A0BC}","created_user":null,"created_date":null,"last_edited_user":null,"last_edited_date":null}},{"type":"Feature","id":124,"geometry":{"type":"Point","coordinates":[-121.49928135328348,38.584311192279038]},"properties":{"OBJECTID":124,"sb79_type":"Existing TOD Stop","GlobalID_1":"{9916CC8E-D067-433E-8455-E4E5CC396C70}","created_user":null,"created_date":null,"last_edited_user":null,"last_edited_date":null}},{"type":"Feature","id":125,"geometry":{"type":"Point","coordinates":[-121.51991585268597,38.658799617334566]},"properties":{"OBJECTID":125,"sb79_type":"Planned (Selected Alternative)","GlobalID_1":"{EB5BDE32-B03D-4A79-95F9-3A8BDBF2B43C}","created_user":null,"created_date":null,"last_edited_user":null,"last_edited_date":null}},{"type":"Feature","id":126,"geometry":{"type":"Point","coordinates":[-121.39242768320099,38.547097367178715]},"properties":{"OBJECTID":126,"sb79_type":"Existing TOD Stop","GlobalID_1":"{1A25A1C2-4195-4CB1-938E-45C8C1B39701}","created_user":null,"created_date":null,"last_edited_user":null,"last_edited_date":null}},{"type":"Feature","id":127,"geometry":{"type":"Point","coordinates":[-121.36273721504564,38.559208922035296]},"properties":{"OBJECTID":127,"sb79_type":"Existing TOD Stop","GlobalID_1":"{F638805A-66A0-41AF-B753-78D98E806A1C}","created_user":null,"created_date":null,"last_edited_user":null,"last_edited_date":null}},{"type":"Feature","id":128,"geometry":{"type":"Point","coordinates":[-121.44822245405382,38.558145337876567]},"properties":{"OBJECTID":128,"sb79_type":"Existing TOD Stop","GlobalID_1":"{37748853-1459-4B66-BDDC-66D53D225BAC}","created_user":null,"created_date":null,"last_edited_user":null,"last_edited_date":null}},{"type":"Feature","id":129,"geometry":{"type":"Point","coordinates":[-121.49019463245995,38.58077831822802]},"properties":{"OBJECTID":129,"sb79_type":"Existing TOD Stop","GlobalID_1":"{2BB5C36E-FDEB-4BD1-95F1-4C941F1E82D0}","created_user":null,"created_date":null,"last_edited_user":null,"last_edited_date":null}},{"type":"Feature","id":130,"geometry":{"type":"Point","coordinates":[-121.28321206452337,38.598717378840966]},"properties":{"OBJECTID":130,"sb79_type":"Existing TOD Stop","GlobalID_1":"{A60FA6C2-7259-4D71-95E4-30B254CF5061}","created_user":null,"created_date":null,"last_edited_user":null,"last_edited_date":null}},{"type":"Feature","id":131,"geometry":{"type":"Point","coordinates":[-121.4900503267128,38.570134344176651]},"properties":{"OBJECTID":131,"sb79_type":"Existing TOD Stop","GlobalID_1":"{CA63FEF8-16C7-4013-AD1B-EBD11E17F3E3}","created_user":null,"created_date":null,"last_edited_user":null,"last_edited_date":null}},{"type":"Feature","id":132,"geometry":{"type":"Point","coordinates":[-121.45704655244586,38.606152000484769]},"properties":{"OBJECTID":132,"sb79_type":"Existing TOD Stop","GlobalID_1":"{302B72F3-7550-4324-BB0E-BD1BAB17D63D}","created_user":null,"created_date":null,"last_edited_user":null,"last_edited_date":null}},{"type":"Feature","id":133,"geometry":{"type":"Point","coordinates":[-121.4181438236551,38.454202180342911]},"properties":{"OBJECTID":133,"sb79_type":"Existing TOD Stop","GlobalID_1":"{A37107FD-F672-4E38-B5B6-487647B94CC0}","created_user":null,"created_date":null,"last_edited_user":null,"last_edited_date":null}},{"type":"Feature","id":134,"geometry":{"type":"Point","coordinates":[-121.42870099766637,38.458565737282548]},"properties":{"OBJECTID":134,"sb79_type":"Existing TOD Stop","GlobalID_1":"{CB7E623D-F5DD-4826-8B91-C7AB072C595E}","created_user":null,"created_date":null,"last_edited_user":null,"last_edited_date":null}},{"type":"Feature","id":135,"geometry":{"type":"Point","coordinates":[-121.28259515690777,38.599023430453975]},"properties":{"OBJECTID":135,"sb79_type":"Existing TOD Stop","GlobalID_1":"{743B43A7-5FFC-44E8-BF54-756F902CF0C8}","created_user":null,"created_date":null,"last_edited_user":null,"last_edited_date":null}},{"type":"Feature","id":136,"geometry":{"type":"Point","coordinates":[-121.42482464386396,38.621442268657397]},"properties":{"OBJECTID":136,"sb79_type":"Existing TOD Stop","GlobalID_1":"{2E26BE64-CCB6-46E3-8546-682C12CAA98B}","created_user":null,"created_date":null,"last_edited_user":null,"last_edited_date":null}},{"type":"Feature","id":137,"geometry":{"type":"Point","coordinates":[-121.47554538610656,38.510428261930905]},"properties":{"OBJECTID":137,"sb79_type":"Existing TOD Stop","GlobalID_1":"{7E6DEC85-D52F-4F10-AFF6-E5315E3E3E71}","created_user":null,"created_date":null,"last_edited_user":null,"last_edited_date":null}},{"type":"Feature","id":138,"geometry":{"type":"Point","coordinates":[-121.42657878378077,38.552257055344768]},"properties":{"OBJECTID":138,"sb79_type":"Existing TOD Stop","GlobalID_1":"{E9897C8D-85A4-4931-A6C8-CA9C8B47A909}","created_user":null,"created_date":null,"last_edited_user":null,"last_edited_date":null}},{"type":"Feature","id":139,"geometry":{"type":"Point","coordinates":[-121.45557401824573,38.606174007631211]},"properties":{"OBJECTID":139,"sb79_type":"Existing TOD Stop","GlobalID_1":"{6869533C-BF38-4B94-9B63-E263F48DE74B}","created_user":null,"created_date":null,"last_edited_user":null,"last_edited_date":null}},{"type":"Feature","id":140,"geometry":{"type":"Point","coordinates":[-121.18068015266165,38.676425105612005]},"properties":{"OBJECTID":140,"sb79_type":"Existing TOD Stop","GlobalID_1":"{C2CA3B58-8C22-49DD-86F2-CB542EB324CE}","created_user":null,"created_date":null,"last_edited_user":null,"last_edited_date":null}},{"type":"Feature","id":141,"geometry":{"type":"Point","coordinates":[-121.29029577881164,38.59491679768567]},"properties":{"OBJECTID":141,"sb79_type":"Existing TOD Stop","GlobalID_1":"{112A49AB-4CC6-4374-AC38-0D37FF7B81B5}","created_user":null,"created_date":null,"last_edited_user":null,"last_edited_date":null}},{"type":"Feature","id":142,"geometry":{"type":"Point","coordinates":[-121.26645983216208,38.607032628446717]},"properties":{"OBJECTID":142,"sb79_type":"Existing TOD Stop","GlobalID_1":"{A0A0FC0F-D99D-4281-8B53-CD70588270C6}","created_user":null,"created_date":null,"last_edited_user":null,"last_edited_date":null}},{"type":"Feature","id":143,"geometry":{"type":"Point","coordinates":[-121.4792148717581,38.566766016746399]},"properties":{"OBJECTID":143,"sb79_type":"Existing TOD Stop","GlobalID_1":"{C15EA1F8-6855-4325-B05E-62B37E9114E5}","created_user":null,"created_date":null,"last_edited_user":null,"last_edited_date":null}},{"type":"Feature","id":144,"geometry":{"type":"Point","coordinates":[-121.38334703951089,38.645095920114613]},"properties":{"OBJECTID":144,"sb79_type":"Existing TOD Stop","GlobalID_1":"{A4654488-D315-4EA8-ADFB-E32AC512D330}","created_user":null,"created_date":null,"last_edited_user":null,"last_edited_date":null}},{"type":"Feature","id":145,"geometry":{"type":"Point","coordinates":[-121.49959168997323,38.575838784348043]},"properties":{"OBJECTID":145,"sb79_type":"Existing TOD Stop","GlobalID_1":"{D9368389-48D2-4552-85C2-68CD0D903A07}","created_user":null,"created_date":null,"last_edited_user":null,"last_edited_date":null}},{"type":"Feature","id":146,"geometry":{"type":"Point","coordinates":[-121.48833337016748,38.551929090527821]},"properties":{"OBJECTID":146,"sb79_type":"Existing TOD Stop","GlobalID_1":"{0BF7CE6B-EA84-4086-A62F-C63123A0AD85}","created_user":null,"created_date":null,"last_edited_user":null,"last_edited_date":null}},{"type":"Feature","id":147,"geometry":{"type":"Point","coordinates":[-121.48754147364168,38.560205017131189]},"properties":{"OBJECTID":147,"sb79_type":"Existing TOD Stop","GlobalID_1":"{DFD88C27-AC86-4808-B3FB-F04B87979127}","created_user":null,"created_date":null,"last_edited_user":null,"last_edited_date":null}},{"type":"Feature","id":148,"geometry":{"type":"Point","coordinates":[-121.41850600456046,38.453505896653638]},"properties":{"OBJECTID":148,"sb79_type":"Existing TOD Stop","GlobalID_1":"{82C59129-EBE1-4D2B-8FFD-7B857E131510}","created_user":null,"created_date":null,"last_edited_user":null,"last_edited_date":null}},{"type":"Feature","id":149,"geometry":{"type":"Point","coordinates":[-121.49271993056961,38.578944675951711]},"properties":{"OBJECTID":149,"sb79_type":"Existing TOD Stop","GlobalID_1":"{01BD865E-FB56-4215-9B95-39A1F6446EF1}","created_user":null,"created_date":null,"last_edited_user":null,"last_edited_date":null}},{"type":"Feature","id":150,"geometry":{"type":"Point","coordinates":[-121.46672000328597,38.481637130812814]},"properties":{"OBJECTID":150,"sb79_type":"Existing TOD Stop","GlobalID_1":"{B64D30EA-5D2A-420B-8060-9F18B1B8E985}","created_user":null,"created_date":null,"last_edited_user":null,"last_edited_date":null}},{"type":"Feature","id":151,"geometry":{"type":"Point","coordinates":[-121.44773395256861,38.462554146610294]},"properties":{"OBJECTID":151,"sb79_type":"Existing TOD Stop","GlobalID_1":"{764E1A46-D1C6-40C0-A665-42F873A7A6CF}","created_user":null,"created_date":null,"last_edited_user":null,"last_edited_date":null}},{"type":"Feature","id":152,"geometry":{"type":"Point","coordinates":[-121.40883823704999,38.547397338167677]},"properties":{"OBJECTID":152,"sb79_type":"Existing TOD Stop","GlobalID_1":"{90558EA3-075F-48AA-B352-9104580A8095}","created_user":null,"created_date":null,"last_edited_user":null,"last_edited_date":null}},{"type":"Feature","id":153,"geometry":{"type":"Point","coordinates":[-121.42692571529336,38.55255234173616]},"properties":{"OBJECTID":153,"sb79_type":"Existing TOD Stop","GlobalID_1":"{C2281530-17E0-4836-BF14-757025A0D833}","created_user":null,"created_date":null,"last_edited_user":null,"last_edited_date":null}},{"type":"Feature","id":154,"geometry":{"type":"Point","coordinates":[-121.41848580303774,38.453092081418347]},"properties":{"OBJECTID":154,"sb79_type":"Existing TOD Stop","GlobalID_1":"{1627DE96-4BAF-45AF-B9D1-D2E757525EB9}","created_user":null,"created_date":null,"last_edited_user":null,"last_edited_date":null}},{"type":"Feature","id":155,"geometry":{"type":"Point","coordinates":[-121.45675590211032,38.560704148482372]},"properties":{"OBJECTID":155,"sb79_type":"Existing TOD Stop","GlobalID_1":"{60CE068E-C450-4196-8E1B-F16A449755BC}","created_user":null,"created_date":null,"last_edited_user":null,"last_edited_date":null}},{"type":"Feature","id":156,"geometry":{"type":"Point","coordinates":[-121.37345518842189,38.553503320170734]},"properties":{"OBJECTID":156,"sb79_type":"Existing TOD Stop","GlobalID_1":"{7264E2FC-4F8A-4648-B2E3-11C2FC1672EB}","created_user":null,"created_date":null,"last_edited_user":null,"last_edited_date":null}},{"type":"Feature","id":157,"geometry":{"type":"Point","coordinates":[-121.21213173757198,38.630257092922847]},"properties":{"OBJECTID":157,"sb79_type":"Existing TOD Stop","GlobalID_1":"{7CF2CBFD-10AB-4CB4-9EA8-7CDD918B0626}","created_user":null,"created_date":null,"last_edited_user":null,"last_edited_date":null}},{"type":"Feature","id":158,"geometry":{"type":"Point","coordinates":[-121.45838173520384,38.606145816599522]},"properties":{"OBJECTID":158,"sb79_type":"Existing TOD Stop","GlobalID_1":"{AB4B8799-1142-4316-B17F-DE2089ADB24A}","created_user":null,"created_date":null,"last_edited_user":null,"last_edited_date":null}},{"type":"Feature","id":159,"geometry":{"type":"Point","coordinates":[-121.49245975621443,38.578755962327591]},"properties":{"OBJECTID":159,"sb79_type":"Existing TOD Stop","GlobalID_1":"{A2B1B147-5A64-4230-9F5F-340CF87D0065}","created_user":null,"created_date":null,"last_edited_user":null,"last_edited_date":null}},{"type":"Feature","id":160,"geometry":{"type":"Point","coordinates":[-121.47620520887581,38.512124082517815]},"properties":{"OBJECTID":160,"sb79_type":"Existing TOD Stop","GlobalID_1":"{877AFB5F-CABC-43A9-899A-18723B087BB4}","created_user":null,"created_date":null,"last_edited_user":null,"last_edited_date":null}},{"type":"Feature","id":161,"geometry":{"type":"Point","coordinates":[-121.3940887703246,38.547060649964763]},"properties":{"OBJECTID":161,"sb79_type":"Existing TOD Stop","GlobalID_1":"{1693D44B-5615-4068-AF0F-B3E7A94649FE}","created_user":null,"created_date":null,"last_edited_user":null,"last_edited_date":null}},{"type":"Feature","id":162,"geometry":{"type":"Point","coordinates":[-121.44890071296172,38.463047694281379]},"properties":{"OBJECTID":162,"sb79_type":"Existing TOD Stop","GlobalID_1":"{BE02A2C8-A8F7-4BDD-BD7C-01234B5BB433}","created_user":null,"created_date":null,"last_edited_user":null,"last_edited_date":null}},{"type":"Feature","id":163,"geometry":{"type":"Point","coordinates":[-121.47194317819405,38.497977014829672]},"properties":{"OBJECTID":163,"sb79_type":"Existing TOD Stop","GlobalID_1":"{E44BD544-EBF6-4D22-9D94-CE0BEF37841E}","created_user":null,"created_date":null,"last_edited_user":null,"last_edited_date":null}},{"type":"Feature","id":164,"geometry":{"type":"Point","coordinates":[-121.47185198247927,38.497452219369436]},"properties":{"OBJECTID":164,"sb79_type":"Existing TOD Stop","GlobalID_1":"{0F9E590F-106E-4A3A-9E41-94C0C61CF17B}","created_user":null,"created_date":null,"last_edited_user":null,"last_edited_date":null}},{"type":"Feature","id":165,"geometry":{"type":"Point","coordinates":[-121.41837189446609,38.453008082760682]},"properties":{"OBJECTID":165,"sb79_type":"Existing TOD Stop","GlobalID_1":"{CE572321-888F-494A-BA69-1D9FE1C2C495}","created_user":null,"created_date":null,"last_edited_user":null,"last_edited_date":null}},{"type":"Feature","id":166,"geometry":{"type":"Point","coordinates":[-121.28271049175234,38.598654491439028]},"properties":{"OBJECTID":166,"sb79_type":"Existing TOD Stop","GlobalID_1":"{29FB0661-B34F-4B3C-8B2C-A1F3063BA0AA}","created_user":null,"created_date":null,"last_edited_user":null,"last_edited_date":null}},{"type":"Feature","id":167,"geometry":{"type":"Point","coordinates":[-121.47972221690003,38.593325086257011]},"properties":{"OBJECTID":167,"sb79_type":"Planned (TIP)","GlobalID_1":"{9775B595-61C1-4265-9451-13582785F193}","created_user":null,"created_date":null,"last_edited_user":null,"last_edited_date":null}},{"type":"Feature","id":168,"geometry":{"type":"Point","coordinates":[-121.4712270299717,38.495949180917336]},"properties":{"OBJECTID":168,"sb79_type":"Existing TOD Stop","GlobalID_1":"{D19ECB5E-98E1-42D3-A761-ADD18D83082E}","created_user":null,"created_date":null,"last_edited_user":null,"last_edited_date":null}},{"type":"Feature","id":169,"geometry":{"type":"Point","coordinates":[-121.49726621384276,38.575247454018225]},"properties":{"OBJECTID":169,"sb79_type":"Existing TOD Stop","GlobalID_1":"{EC8D5FF8-3379-41D5-8FBD-DB74CE628923}","created_user":null,"created_date":null,"last_edited_user":null,"last_edited_date":null}},{"type":"Feature","id":170,"geometry":{"type":"Point","coordinates":[-121.34696549018517,38.566765689204729]},"properties":{"OBJECTID":170,"sb79_type":"Existing TOD Stop","GlobalID_1":"{2CCE8F05-6180-437B-AAA6-C8CBB73C2BA6}","created_user":null,"created_date":null,"last_edited_user":null,"last_edited_date":null}},{"type":"Feature","id":171,"geometry":{"type":"Point","coordinates":[-121.46347826753522,38.466773889488692]},"properties":{"OBJECTID":171,"sb79_type":"Existing TOD Stop","GlobalID_1":"{05CC9007-FA00-4603-99C9-D618B404321C}","created_user":null,"created_date":null,"last_edited_user":null,"last_edited_date":null}},{"type":"Feature","id":172,"geometry":{"type":"Point","coordinates":[-121.41850055561707,38.454194828395039]},"properties":{"OBJECTID":172,"sb79_type":"Existing TOD Stop","GlobalID_1":"{0201427C-00D7-459C-A471-0AD5A27C9E21}","created_user":null,"created_date":null,"last_edited_user":null,"last_edited_date":null}},{"type":"Feature","id":173,"geometry":{"type":"Point","coordinates":[-121.34610986664858,38.567192463019289]},"properties":{"OBJECTID":173,"sb79_type":"Existing TOD Stop","GlobalID_1":"{83D6D566-38F7-41E8-A44B-6A96619EB2AF}","created_user":null,"created_date":null,"last_edited_user":null,"last_edited_date":null}},{"type":"Feature","id":174,"geometry":{"type":"Point","coordinates":[-121.47196463580508,38.498417841794961]},"properties":{"OBJECTID":174,"sb79_type":"Existing TOD Stop","GlobalID_1":"{1F3E6F57-5FAB-4A7F-BD1F-04FE0AD901A6}","created_user":null,"created_date":null,"last_edited_user":null,"last_edited_date":null}},{"type":"Feature","id":175,"geometry":{"type":"Point","coordinates":[-121.38502528716297,38.644905951232275]},"properties":{"OBJECTID":175,"sb79_type":"Existing TOD Stop","GlobalID_1":"{52F90CEE-6A9B-41B8-A846-6FB590F37D0E}","created_user":null,"created_date":null,"last_edited_user":null,"last_edited_date":null}},{"type":"Feature","id":176,"geometry":{"type":"Point","coordinates":[-121.49544445267051,38.579518069694998]},"properties":{"OBJECTID":176,"sb79_type":"Existing TOD Stop","GlobalID_1":"{3ACFF476-D6DB-47A2-9ADF-7858C8957BB5}","created_user":null,"created_date":null,"last_edited_user":null,"last_edited_date":null}},{"type":"Feature","id":177,"geometry":{"type":"Point","coordinates":[-121.48804663146258,38.585575917355662]},"properties":{"OBJECTID":177,"sb79_type":"Existing TOD Stop","GlobalID_1":"{AFE5E111-6167-425F-86D8-0008D73128D1}","created_user":null,"created_date":null,"last_edited_user":null,"last_edited_date":null}},{"type":"Feature","id":178,"geometry":{"type":"Point","coordinates":[-121.42919318312079,38.458486976574832]},"properties":{"OBJECTID":178,"sb79_type":"Existing TOD Stop","GlobalID_1":"{3AAE737B-11F5-4B35-8CEC-8C314E8A97D4}","created_user":null,"created_date":null,"last_edited_user":null,"last_edited_date":null}},{"type":"Feature","id":179,"geometry":{"type":"Point","coordinates":[-121.43653204467937,38.55509457131491]},"properties":{"OBJECTID":179,"sb79_type":"Existing TOD Stop","GlobalID_1":"{36444AC6-CE1C-4B86-8E0E-BB0901159E91}","created_user":null,"created_date":null,"last_edited_user":null,"last_edited_date":null}},{"type":"Feature","id":180,"geometry":{"type":"Point","coordinates":[-121.42679428561442,38.552509341404644]},"properties":{"OBJECTID":180,"sb79_type":"Existing TOD Stop","GlobalID_1":"{35D041AB-1800-48FB-84E6-B89773842DD7}","created_user":null,"created_date":null,"last_edited_user":null,"last_edited_date":null}},{"type":"Feature","id":181,"geometry":{"type":"Point","coordinates":[-121.56746068988615,38.678049516542998]},"properties":{"OBJECTID":181,"sb79_type":"Planned (Selected Alternative)","GlobalID_1":"{64A858BC-FAE4-4B63-B25A-4B7E49777378}","created_user":null,"created_date":null,"last_edited_user":null,"last_edited_date":null}},{"type":"Feature","id":182,"geometry":{"type":"Point","coordinates":[-121.31134441493069,38.584458396095286]},"properties":{"OBJECTID":182,"sb79_type":"Existing TOD Stop","GlobalID_1":"{FD71FE06-8686-4012-A610-C06DF4EB035D}","created_user":null,"created_date":null,"last_edited_user":null,"last_edited_date":null}},{"type":"Feature","id":183,"geometry":{"type":"Point","coordinates":[-121.45673351878814,38.606153151464937]},"properties":{"OBJECTID":183,"sb79_type":"Existing TOD Stop","GlobalID_1":"{255BE8E1-8E8A-46F2-BA71-444CDDEFAE04}","created_user":null,"created_date":null,"last_edited_user":null,"last_edited_date":null}},{"type":"Feature","id":184,"geometry":{"type":"Point","coordinates":[-121.37283157590454,38.553809563208851]},"properties":{"OBJECTID":184,"sb79_type":"Existing TOD Stop","GlobalID_1":"{6D9EB38E-6E6A-49C5-B6D3-EE3D731908FD}","created_user":null,"created_date":null,"last_edited_user":null,"last_edited_date":null}},{"type":"Feature","id":185,"geometry":{"type":"Point","coordinates":[-121.18009543114206,38.675756429786212]},"properties":{"OBJECTID":185,"sb79_type":"Existing TOD Stop","GlobalID_1":"{AE0778C7-4B8A-4727-854C-3311FBFE043B}","created_user":null,"created_date":null,"last_edited_user":null,"last_edited_date":null}},{"type":"Feature","id":186,"geometry":{"type":"Point","coordinates":[-121.49864218803879,38.575578766811873]},"properties":{"OBJECTID":186,"sb79_type":"Existing TOD Stop","GlobalID_1":"{B4EBF70D-D499-469F-9912-A4E0261C97F5}","created_user":null,"created_date":null,"last_edited_user":null,"last_edited_date":null}},{"type":"Feature","id":187,"geometry":{"type":"Point","coordinates":[-121.46606279711565,38.602846498265464]},"properties":{"OBJECTID":187,"sb79_type":"Existing TOD Stop","GlobalID_1":"{5AA46BAC-5D4F-4666-8F24-7B384FA52594}","created_user":null,"created_date":null,"last_edited_user":null,"last_edited_date":null}},{"type":"Feature","id":188,"geometry":{"type":"Point","coordinates":[-121.28985053150282,38.595396860654205]},"properties":{"OBJECTID":188,"sb79_type":"Existing TOD Stop","GlobalID_1":"{76158478-3A55-4F53-A68B-5908C4A3B363}","created_user":null,"created_date":null,"last_edited_user":null,"last_edited_date":null}},{"type":"Feature","id":189,"geometry":{"type":"Point","coordinates":[-121.49126159406207,38.596288597333306]},"properties":{"OBJECTID":189,"sb79_type":"Existing TOD Stop","GlobalID_1":"{C84D19DC-F577-4CC4-ADCE-3DFD00CEA7C5}","created_user":null,"created_date":null,"last_edited_user":null,"last_edited_date":null}},{"type":"Feature","id":190,"geometry":{"type":"Point","coordinates":[-121.48898191252003,38.56973240323088]},"properties":{"OBJECTID":190,"sb79_type":"Existing TOD Stop","GlobalID_1":"{136B8D11-765C-4968-B4EE-D1495BECE2CC}","created_user":null,"created_date":null,"last_edited_user":null,"last_edited_date":null}},{"type":"Feature","id":191,"geometry":{"type":"Point","coordinates":[-121.45596159730643,38.606316537894713]},"properties":{"OBJECTID":191,"sb79_type":"Existing TOD Stop","GlobalID_1":"{98F3DB67-2281-40FA-95E7-FB0797BFDF7D}","created_user":null,"created_date":null,"last_edited_user":null,"last_edited_date":null}},{"type":"Feature","id":192,"geometry":{"type":"Point","coordinates":[-121.53587862476905,38.670115057003699]},"properties":{"OBJECTID":192,"sb79_type":"Planned (Selected Alternative)","GlobalID_1":"{4A3BFF98-421A-4A6B-A733-0DBA46C2E02C}","created_user":null,"created_date":null,"last_edited_user":null,"last_edited_date":null}},{"type":"Feature","id":193,"geometry":{"type":"Point","coordinates":[-121.46737446007995,38.483440712553552]},"properties":{"OBJECTID":193,"sb79_type":"Existing TOD Stop","GlobalID_1":"{2592AA02-71B0-404F-A04E-9688EF4BF54E}","created_user":null,"created_date":null,"last_edited_user":null,"last_edited_date":null}},{"type":"Feature","id":194,"geometry":{"type":"Point","coordinates":[-121.45783549097263,38.560772312442971]},"properties":{"OBJECTID":194,"sb79_type":"Existing TOD Stop","GlobalID_1":"{260940A2-14CB-488E-8100-D76909F2260E}","created_user":null,"created_date":null,"last_edited_user":null,"last_edited_date":null}},{"type":"Feature","id":195,"geometry":{"type":"Point","coordinates":[-121.4633605369673,38.466672396934115]},"properties":{"OBJECTID":195,"sb79_type":"Existing TOD Stop","GlobalID_1":"{1706C659-6AF7-4A50-961D-35E43E0B3C32}","created_user":null,"created_date":null,"last_edited_user":null,"last_edited_date":null}},{"type":"Feature","id":196,"geometry":{"type":"Point","coordinates":[-121.48542200896448,38.541781092654226]},"properties":{"OBJECTID":196,"sb79_type":"Existing TOD Stop","GlobalID_1":"{CD1C56B2-F608-4BDD-B30A-48762BA5087D}","created_user":null,"created_date":null,"last_edited_user":null,"last_edited_date":null}},{"type":"Feature","id":197,"geometry":{"type":"Point","coordinates":[-121.48556684840268,38.542483885670762]},"properties":{"OBJECTID":197,"sb79_type":"Existing TOD Stop","GlobalID_1":"{6179B12A-13D8-4A9D-917A-09B896553A6A}","created_user":null,"created_date":null,"last_edited_user":null,"last_edited_date":null}},{"type":"Feature","id":198,"geometry":{"type":"Point","coordinates":[-121.34600928397658,38.567557367507085]},"properties":{"OBJECTID":198,"sb79_type":"Existing TOD Stop","GlobalID_1":"{1A86C1B6-8E1E-4554-9A3E-0A79493BE384}","created_user":null,"created_date":null,"last_edited_user":null,"last_edited_date":null}},{"type":"Feature","id":199,"geometry":{"type":"Point","coordinates":[-121.46698017771303,38.482592466996529]},"properties":{"OBJECTID":199,"sb79_type":"Existing TOD Stop","GlobalID_1":"{F30EB7C7-F3C1-4A67-B3D4-8B82510463D8}","created_user":null,"created_date":null,"last_edited_user":null,"last_edited_date":null}},{"type":"Feature","id":200,"geometry":{"type":"Point","coordinates":[-121.31073689381132,38.585069568449349]},"properties":{"OBJECTID":200,"sb79_type":"Existing TOD Stop","GlobalID_1":"{81ED7E6E-4919-42DA-A5B7-39468E22AFBC}","created_user":null,"created_date":null,"last_edited_user":null,"last_edited_date":null}}]}