{"type":"FeatureCollection","crs":{"type":"name","properties":{"name":"EPSG:4326"}},"features":[{"type":"Feature","id":1,"geometry":{"type":"Point","coordinates":[-117.13771844042,32.7551642001567]},"properties":{"OBJECTID":1,"stop_uid":"MTS_10139","stop_name":"El Cajon Bl & Arizona St","Tier":2,"service_type":"Bus Service"}},{"type":"Feature","id":2,"geometry":{"type":"Point","coordinates":[-117.134781259746,32.7551633103783]},"properties":{"OBJECTID":2,"stop_uid":"MTS_10533","stop_name":"El Cajon Bl & Oregon St","Tier":2,"service_type":"Bus Service"}},{"type":"Feature","id":3,"geometry":{"type":"Point","coordinates":[-117.132839550091,32.755177210309]},"properties":{"OBJECTID":3,"stop_uid":"MTS_10150","stop_name":"El Cajon Bl & Utah St","Tier":2,"service_type":"Bus Service"}},{"type":"Feature","id":4,"geometry":{"type":"Point","coordinates":[-117.129775859596,32.7552100903368]},"properties":{"OBJECTID":4,"stop_uid":"MTS_10543","stop_name":"El Cajon Bl & 30th St","Tier":2,"service_type":"Bus Service"}},{"type":"Feature","id":5,"geometry":{"type":"Point","coordinates":[-117.108586080308,32.7550212900375]},"properties":{"OBJECTID":5,"stop_uid":"MTS_13485","stop_name":"El Cajon Bl & I-15 Transit Plaza","Tier":2,"service_type":"Bus Service"}},{"type":"Feature","id":6,"geometry":{"type":"Point","coordinates":[-117.101514699932,32.7550125695986]},"properties":{"OBJECTID":6,"stop_uid":"MTS_10609","stop_name":"El Cajon Bl & 43rd St","Tier":2,"service_type":"Bus Service"}},{"type":"Feature","id":7,"geometry":{"type":"Point","coordinates":[-117.101702770483,32.7552888797993]},"properties":{"OBJECTID":7,"stop_uid":"MTS_10986","stop_name":"El Cajon Bl & 43rd St","Tier":2,"service_type":"Bus Service"}},{"type":"Feature","id":8,"geometry":{"type":"Point","coordinates":[-117.108901799824,32.7553764004056]},"properties":{"OBJECTID":8,"stop_uid":"MTS_13484","stop_name":"El Cajon Bl & I-15 Transit Plaza","Tier":2,"service_type":"Bus Service"}},{"type":"Feature","id":9,"geometry":{"type":"Point","coordinates":[-117.1305268,32.7554933303565]},"properties":{"OBJECTID":9,"stop_uid":"MTS_11296","stop_name":"El Cajon Bl & 30th St","Tier":2,"service_type":"Bus Service"}},{"type":"Feature","id":10,"geometry":{"type":"Point","coordinates":[-117.132826320394,32.7554796396063]},"properties":{"OBJECTID":10,"stop_uid":"MTS_11290","stop_name":"El Cajon Bl & Utah St","Tier":2,"service_type":"Bus Service"}},{"type":"Feature","id":11,"geometry":{"type":"Point","coordinates":[-117.134937300031,32.7554782703919]},"properties":{"OBJECTID":11,"stop_uid":"MTS_13430","stop_name":"El Cajon Bl & Oregon St","Tier":2,"service_type":"Bus Service"}},{"type":"Feature","id":12,"geometry":{"type":"Point","coordinates":[-117.138557340387,32.7554577499526]},"properties":{"OBJECTID":12,"stop_uid":"MTS_10894","stop_name":"El Cajon Bl & Texas St","Tier":2,"service_type":"Bus Service"}},{"type":"Feature","id":13,"geometry":{"type":"Point","coordinates":[-117.162107440496,32.7156138303059]},"properties":{"OBJECTID":13,"stop_uid":"MTS_10094","stop_name":"Broadway & 3rd Av","Tier":2,"service_type":"Bus Service"}},{"type":"Feature","id":14,"geometry":{"type":"Point","coordinates":[-117.161185849583,32.7148400703761]},"properties":{"OBJECTID":14,"stop_uid":"MTS_13457","stop_name":"4th Av & E St","Tier":2,"service_type":"Bus Service"}},{"type":"Feature","id":15,"geometry":{"type":"Point","coordinates":[-117.154565660099,32.716351009766]},"properties":{"OBJECTID":15,"stop_uid":"MTS_12782","stop_name":"11th Av & Broadway","Tier":2,"service_type":"Bus Service"}},{"type":"Feature","id":16,"geometry":{"type":"Point","coordinates":[-117.154586999506,32.7165295098576]},"properties":{"OBJECTID":16,"stop_uid":"MTS_99343","stop_name":"11th Av & C St","Tier":2,"service_type":"Bus Service"}},{"type":"Feature","id":17,"geometry":{"type":"Point","coordinates":[-117.147028860216,32.7278123796952]},"properties":{"OBJECTID":17,"stop_uid":"MTS_12798","stop_name":"Park Bl & Naval Hospital","Tier":2,"service_type":"Bus Service"}},{"type":"Feature","id":18,"geometry":{"type":"Point","coordinates":[-117.145606710406,32.7350567901377]},"properties":{"OBJECTID":18,"stop_uid":"MTS_12458","stop_name":"Park Bl & Zoo Pl","Tier":2,"service_type":"Bus Service"}},{"type":"Feature","id":19,"geometry":{"type":"Point","coordinates":[-117.130240610361,32.748335499919]},"properties":{"OBJECTID":19,"stop_uid":"MTS_10161","stop_name":"University Av & 30th St","Tier":2,"service_type":"Bus Service"}},{"type":"Feature","id":20,"geometry":{"type":"Point","coordinates":[-117.125645829785,32.7484259202463]},"properties":{"OBJECTID":20,"stop_uid":"MTS_10550","stop_name":"University Av & Herman Av","Tier":2,"service_type":"Bus Service"}},{"type":"Feature","id":21,"geometry":{"type":"Point","coordinates":[-117.108548959818,32.7495437798957]},"properties":{"OBJECTID":21,"stop_uid":"MTS_13523","stop_name":"University Av & I-15 Transit Plaza","Tier":2,"service_type":"Bus Service"}},{"type":"Feature","id":22,"geometry":{"type":"Point","coordinates":[-117.108971339707,32.7498321800857]},"properties":{"OBJECTID":22,"stop_uid":"MTS_13524","stop_name":"University Av & I-15 Transit Plaza","Tier":2,"service_type":"Bus Service"}},{"type":"Feature","id":23,"geometry":{"type":"Point","coordinates":[-117.126190529955,32.7485814600938]},"properties":{"OBJECTID":23,"stop_uid":"MTS_10934","stop_name":"University Av & Iowa St","Tier":2,"service_type":"Bus Service"}},{"type":"Feature","id":24,"geometry":{"type":"Point","coordinates":[-117.130519350258,32.7485643898154]},"properties":{"OBJECTID":24,"stop_uid":"MTS_11298","stop_name":"University Av & 30th St","Tier":2,"service_type":"Bus Service"}},{"type":"Feature","id":25,"geometry":{"type":"Point","coordinates":[-117.139863340369,32.7485385797045]},"properties":{"OBJECTID":25,"stop_uid":"MTS_10892","stop_name":"University Av & Louisiana St","Tier":2,"service_type":"Bus Service"}},{"type":"Feature","id":26,"geometry":{"type":"Point","coordinates":[-117.145945710528,32.7348152102217]},"properties":{"OBJECTID":26,"stop_uid":"MTS_12068","stop_name":"Park Bl & Zoo Pl","Tier":2,"service_type":"Bus Service"}},{"type":"Feature","id":27,"geometry":{"type":"Point","coordinates":[-117.148613710447,32.7273006096211]},"properties":{"OBJECTID":27,"stop_uid":"MTS_12064","stop_name":"Park Bl & Inspiration Point Way","Tier":2,"service_type":"Bus Service"}},{"type":"Feature","id":28,"geometry":{"type":"Point","coordinates":[-117.238191240252,32.8771071503019]},"properties":{"OBJECTID":28,"stop_uid":"MTS_89022","stop_name":"Gilman Dr & Mandeville Ln","Tier":2,"service_type":"Bus Service"}},{"type":"Feature","id":29,"geometry":{"type":"Point","coordinates":[-117.146283420269,32.7488356702209]},"properties":{"OBJECTID":29,"stop_uid":"MTS_13550","stop_name":"Park Bl & University Av","Tier":2,"service_type":"Bus Service"}},{"type":"Feature","id":30,"geometry":{"type":"Point","coordinates":[-117.146326409901,32.7543406298754]},"properties":{"OBJECTID":30,"stop_uid":"MTS_13552","stop_name":"Park Bl & Howard Av","Tier":2,"service_type":"Bus Service"}},{"type":"Feature","id":31,"geometry":{"type":"Point","coordinates":[-117.138222739887,32.7551770601977]},"properties":{"OBJECTID":31,"stop_uid":"MTS_13554","stop_name":"El Cajon Bl & Texas St","Tier":2,"service_type":"Bus Service"}},{"type":"Feature","id":32,"geometry":{"type":"Point","coordinates":[-117.146401100416,32.7536886899981]},"properties":{"OBJECTID":32,"stop_uid":"MTS_13553","stop_name":"Park Bl & Howard Av","Tier":2,"service_type":"Bus Service"}},{"type":"Feature","id":33,"geometry":{"type":"Point","coordinates":[-117.146366299984,32.7486701603659]},"properties":{"OBJECTID":33,"stop_uid":"MTS_13551","stop_name":"Park Bl & University Av","Tier":2,"service_type":"Bus Service"}},{"type":"Feature","id":34,"geometry":{"type":"Point","coordinates":[-117.108654730365,32.7499833501997]},"properties":{"OBJECTID":34,"stop_uid":"MTS_88916","stop_name":"I-15 Centerline Sta & University Av","Tier":2,"service_type":"Bus Service"}},{"type":"Feature","id":35,"geometry":{"type":"Point","coordinates":[-117.108672839556,32.7555134901215]},"properties":{"OBJECTID":35,"stop_uid":"MTS_88918","stop_name":"I-15 Centerline Sta & El Cajon Bl","Tier":2,"service_type":"Bus Service"}},{"type":"Feature","id":36,"geometry":{"type":"Point","coordinates":[-117.108895240486,32.7548701702638]},"properties":{"OBJECTID":36,"stop_uid":"MTS_88919","stop_name":"I-15 Centerline Sta & El Cajon Bl","Tier":2,"service_type":"Bus Service"}},{"type":"Feature","id":37,"geometry":{"type":"Point","coordinates":[-117.108931219565,32.7494196299087]},"properties":{"OBJECTID":37,"stop_uid":"MTS_88917","stop_name":"I-15 Centerline Sta & University Av","Tier":2,"service_type":"Bus Service"}},{"type":"Feature","id":38,"geometry":{"type":"Point","coordinates":[-117.161189339885,32.7151462301173]},"properties":{"OBJECTID":38,"stop_uid":"MTS_12031","stop_name":"4th Av & Broadway","Tier":2,"service_type":"Bus Service"}},{"type":"Feature","id":39,"geometry":{"type":"Point","coordinates":[-117.029539040481,32.5445659799491]},"properties":{"OBJECTID":39,"stop_uid":"MTS_75000","stop_name":"San Ysidro Station","Tier":2,"service_type":"Light Rail"}},{"type":"Feature","id":40,"geometry":{"type":"Point","coordinates":[-117.047061840398,32.557656019924]},"properties":{"OBJECTID":40,"stop_uid":"MTS_75002","stop_name":"Beyer Blvd Station","Tier":2,"service_type":"Light Rail"}},{"type":"Feature","id":41,"geometry":{"type":"Point","coordinates":[-117.067176159557,32.5697619998194]},"properties":{"OBJECTID":41,"stop_uid":"MTS_75004","stop_name":"Iris Avenue Station","Tier":2,"service_type":"Light Rail"}},{"type":"Feature","id":42,"geometry":{"type":"Point","coordinates":[-117.083752930082,32.5847798698646]},"properties":{"OBJECTID":42,"stop_uid":"MTS_75006","stop_name":"Palm Avenue Station","Tier":2,"service_type":"Light Rail"}},{"type":"Feature","id":43,"geometry":{"type":"Point","coordinates":[-117.085081850482,32.60329398958]},"properties":{"OBJECTID":43,"stop_uid":"MTS_75008","stop_name":"Palomar Street Station","Tier":2,"service_type":"Light Rail"}},{"type":"Feature","id":44,"geometry":{"type":"Point","coordinates":[-117.095577119829,32.6301779100039]},"properties":{"OBJECTID":44,"stop_uid":"MTS_75010","stop_name":"H Street Station","Tier":2,"service_type":"Light Rail"}},{"type":"Feature","id":45,"geometry":{"type":"Point","coordinates":[-117.099056930151,32.6391049900814]},"properties":{"OBJECTID":45,"stop_uid":"MTS_75012","stop_name":"E Street Station","Tier":2,"service_type":"Light Rail"}},{"type":"Feature","id":46,"geometry":{"type":"Point","coordinates":[-117.108006070506,32.6619649102501]},"properties":{"OBJECTID":46,"stop_uid":"MTS_75014","stop_name":"24th Street Station","Tier":2,"service_type":"Light Rail"}},{"type":"Feature","id":47,"geometry":{"type":"Point","coordinates":[-117.113095079776,32.6750191096243]},"properties":{"OBJECTID":47,"stop_uid":"MTS_75016","stop_name":"8th Street Station","Tier":2,"service_type":"Light Rail"}},{"type":"Feature","id":48,"geometry":{"type":"Point","coordinates":[-117.124790889495,32.6860988896294]},"properties":{"OBJECTID":48,"stop_uid":"MTS_75106","stop_name":"Pacific Fleet Station","Tier":2,"service_type":"Light Rail"}},{"type":"Feature","id":49,"geometry":{"type":"Point","coordinates":[-117.13286389988,32.6913259000226]},"properties":{"OBJECTID":49,"stop_uid":"MTS_75104","stop_name":"Harborside Station","Tier":2,"service_type":"Light Rail"}},{"type":"Feature","id":50,"geometry":{"type":"Point","coordinates":[-117.146665040404,32.6981269803868]},"properties":{"OBJECTID":50,"stop_uid":"MTS_75018","stop_name":"Barrio Logan Station","Tier":2,"service_type":"Light Rail"}},{"type":"Feature","id":51,"geometry":{"type":"Point","coordinates":[-117.153217900344,32.7058700897737]},"properties":{"OBJECTID":51,"stop_uid":"MTS_75102","stop_name":"12th & Imperial Station","Tier":2,"service_type":"Light Rail"}},{"type":"Feature","id":52,"geometry":{"type":"Point","coordinates":[-117.153721029487,32.7110599895805]},"properties":{"OBJECTID":52,"stop_uid":"MTS_75092","stop_name":"Park & Market Station","Tier":2,"service_type":"Light Rail"}},{"type":"Feature","id":53,"geometry":{"type":"Point","coordinates":[-117.154172920495,32.7162890201157]},"properties":{"OBJECTID":53,"stop_uid":"MTS_75090","stop_name":"City College Station","Tier":2,"service_type":"Light Rail"}},{"type":"Feature","id":54,"geometry":{"type":"Point","coordinates":[-117.159677910337,32.7167899997394]},"properties":{"OBJECTID":54,"stop_uid":"MTS_75088","stop_name":"Fifth Avenue Station","Tier":2,"service_type":"Light Rail"}},{"type":"Feature","id":55,"geometry":{"type":"Point","coordinates":[-117.162428959651,32.7167729795744]},"properties":{"OBJECTID":55,"stop_uid":"MTS_75087","stop_name":"Civic Center Station","Tier":2,"service_type":"Light Rail"}},{"type":"Feature","id":56,"geometry":{"type":"Point","coordinates":[-117.168813900143,32.7166269002314]},"properties":{"OBJECTID":56,"stop_uid":"MTS_75085","stop_name":"America Plaza Station","Tier":2,"service_type":"Light Rail"}},{"type":"Feature","id":57,"geometry":{"type":"Point","coordinates":[-117.169779000209,32.7173238801419]},"properties":{"OBJECTID":57,"stop_uid":"MTS_75083","stop_name":"Santa Fe Depot","Tier":2,"service_type":"Light Rail"}},{"type":"Feature","id":58,"geometry":{"type":"Point","coordinates":[-117.169897950511,32.7214938698153]},"properties":{"OBJECTID":58,"stop_uid":"MTS_75080","stop_name":"County Center/Little Italy Station","Tier":2,"service_type":"Light Rail"}},{"type":"Feature","id":59,"geometry":{"type":"Point","coordinates":[-117.174922979885,32.7337858700921]},"properties":{"OBJECTID":59,"stop_uid":"MTS_75078","stop_name":"Middletown Station","Tier":2,"service_type":"Light Rail"}},{"type":"Feature","id":60,"geometry":{"type":"Point","coordinates":[-117.184467909799,32.7417239397053]},"properties":{"OBJECTID":60,"stop_uid":"MTS_75076","stop_name":"Washington Street Station","Tier":2,"service_type":"Light Rail"}},{"type":"Feature","id":61,"geometry":{"type":"Point","coordinates":[-117.199487160389,32.7549079995629]},"properties":{"OBJECTID":61,"stop_uid":"MTS_75042","stop_name":"Old Town Station","Tier":2,"service_type":"Light Rail"}},{"type":"Feature","id":62,"geometry":{"type":"Point","coordinates":[-117.205061659709,32.7699139899027]},"properties":{"OBJECTID":62,"stop_uid":"MTS_77771","stop_name":"Tecolote Road Station","Tier":2,"service_type":"Light Rail"}},{"type":"Feature","id":63,"geometry":{"type":"Point","coordinates":[-117.206129150068,32.7900645303542]},"properties":{"OBJECTID":63,"stop_uid":"MTS_77773","stop_name":"Clairemont Drive Station","Tier":2,"service_type":"Light Rail"}},{"type":"Feature","id":64,"geometry":{"type":"Point","coordinates":[-117.214066380262,32.8058576900858]},"properties":{"OBJECTID":64,"stop_uid":"MTS_77775","stop_name":"Balboa Avenue Station","Tier":2,"service_type":"Light Rail"}},{"type":"Feature","id":65,"geometry":{"type":"Point","coordinates":[-117.230387619963,32.8669656597904]},"properties":{"OBJECTID":65,"stop_uid":"MTS_77778","stop_name":"Nobel Drive Station","Tier":2,"service_type":"Light Rail"}},{"type":"Feature","id":66,"geometry":{"type":"Point","coordinates":[-117.22981837995,32.8742532401223]},"properties":{"OBJECTID":66,"stop_uid":"MTS_77780","stop_name":"VA Medical Center Station","Tier":2,"service_type":"Light Rail"}},{"type":"Feature","id":67,"geometry":{"type":"Point","coordinates":[-117.23177897961,32.8784407301142]},"properties":{"OBJECTID":67,"stop_uid":"MTS_77782","stop_name":"UCSD Central Campus Station","Tier":2,"service_type":"Light Rail"}},{"type":"Feature","id":68,"geometry":{"type":"Point","coordinates":[-117.223492069751,32.8818163598462]},"properties":{"OBJECTID":68,"stop_uid":"MTS_77784","stop_name":"UCSD Health La Jolla Station","Tier":2,"service_type":"Light Rail"}},{"type":"Feature","id":69,"geometry":{"type":"Point","coordinates":[-117.214049760453,32.8741356895706]},"properties":{"OBJECTID":69,"stop_uid":"MTS_77786","stop_name":"Executive Drive Station","Tier":2,"service_type":"Light Rail"}},{"type":"Feature","id":70,"geometry":{"type":"Point","coordinates":[-117.214010710363,32.8692043098094]},"properties":{"OBJECTID":70,"stop_uid":"MTS_77787","stop_name":"UTC Station","Tier":2,"service_type":"Light Rail"}},{"type":"Feature","id":71,"geometry":{"type":"Point","coordinates":[-117.168811069798,32.7163858801577]},"properties":{"OBJECTID":71,"stop_uid":"MTS_75084","stop_name":"America Plaza Station","Tier":2,"service_type":"Light Rail"}},{"type":"Feature","id":72,"geometry":{"type":"Point","coordinates":[-117.146455859638,32.6978860900794]},"properties":{"OBJECTID":72,"stop_uid":"MTS_75019","stop_name":"Barrio Logan Station","Tier":2,"service_type":"Light Rail"}},{"type":"Feature","id":73,"geometry":{"type":"Point","coordinates":[-117.132638860517,32.6911518803566]},"properties":{"OBJECTID":73,"stop_uid":"MTS_75105","stop_name":"Harborside Station","Tier":2,"service_type":"Light Rail"}},{"type":"Feature","id":74,"geometry":{"type":"Point","coordinates":[-117.124637070437,32.6858930202596]},"properties":{"OBJECTID":74,"stop_uid":"MTS_75107","stop_name":"Pacific Fleet Station","Tier":2,"service_type":"Light Rail"}},{"type":"Feature","id":75,"geometry":{"type":"Point","coordinates":[-117.113081879716,32.6747330799706]},"properties":{"OBJECTID":75,"stop_uid":"MTS_75017","stop_name":"8th Street Station","Tier":2,"service_type":"Light Rail"}},{"type":"Feature","id":76,"geometry":{"type":"Point","coordinates":[-117.108005159891,32.6617040902928]},"properties":{"OBJECTID":76,"stop_uid":"MTS_75015","stop_name":"24th Street Station","Tier":2,"service_type":"Light Rail"}},{"type":"Feature","id":77,"geometry":{"type":"Point","coordinates":[-117.099066120421,32.6388449197003]},"properties":{"OBJECTID":77,"stop_uid":"MTS_75013","stop_name":"E Street Station","Tier":2,"service_type":"Light Rail"}},{"type":"Feature","id":78,"geometry":{"type":"Point","coordinates":[-117.095572110254,32.6298929297276]},"properties":{"OBJECTID":78,"stop_uid":"MTS_75011","stop_name":"H Street Station","Tier":2,"service_type":"Light Rail"}},{"type":"Feature","id":79,"geometry":{"type":"Point","coordinates":[-117.085088090178,32.603027069824]},"properties":{"OBJECTID":79,"stop_uid":"MTS_75009","stop_name":"Palomar Street Station","Tier":2,"service_type":"Light Rail"}},{"type":"Feature","id":80,"geometry":{"type":"Point","coordinates":[-117.083859910315,32.5844540004071]},"properties":{"OBJECTID":80,"stop_uid":"MTS_75007","stop_name":"Palm Avenue Station","Tier":2,"service_type":"Light Rail"}},{"type":"Feature","id":81,"geometry":{"type":"Point","coordinates":[-117.066964840319,32.569514939787]},"properties":{"OBJECTID":81,"stop_uid":"MTS_75005","stop_name":"Iris Avenue Station","Tier":2,"service_type":"Light Rail"}},{"type":"Feature","id":82,"geometry":{"type":"Point","coordinates":[-117.046838999854,32.5574529697998]},"properties":{"OBJECTID":82,"stop_uid":"MTS_75003","stop_name":"Beyer Blvd Station","Tier":2,"service_type":"Light Rail"}},{"type":"Feature","id":83,"geometry":{"type":"Point","coordinates":[-117.162470900498,32.7167100000294]},"properties":{"OBJECTID":83,"stop_uid":"MTS_75086","stop_name":"Civic Center Station","Tier":2,"service_type":"Light Rail"}},{"type":"Feature","id":84,"geometry":{"type":"Point","coordinates":[-117.159720139849,32.7167239999839]},"properties":{"OBJECTID":84,"stop_uid":"MTS_75089","stop_name":"Fifth Avenue Station","Tier":2,"service_type":"Light Rail"}},{"type":"Feature","id":85,"geometry":{"type":"Point","coordinates":[-117.154222059854,32.7162301197189]},"properties":{"OBJECTID":85,"stop_uid":"MTS_75091","stop_name":"City College Station","Tier":2,"service_type":"Light Rail"}},{"type":"Feature","id":86,"geometry":{"type":"Point","coordinates":[-117.153800869944,32.7109200602425]},"properties":{"OBJECTID":86,"stop_uid":"MTS_75093","stop_name":"Park & Market Station","Tier":2,"service_type":"Light Rail"}},{"type":"Feature","id":87,"geometry":{"type":"Point","coordinates":[-117.153325930296,32.7057849198887]},"properties":{"OBJECTID":87,"stop_uid":"MTS_75103","stop_name":"12th & Imperial Station","Tier":2,"service_type":"Light Rail"}},{"type":"Feature","id":88,"geometry":{"type":"Point","coordinates":[-117.214024710017,32.8741680403992]},"properties":{"OBJECTID":88,"stop_uid":"MTS_77785","stop_name":"Executive Drive Station","Tier":2,"service_type":"Light Rail"}},{"type":"Feature","id":89,"geometry":{"type":"Point","coordinates":[-117.223597579889,32.8819018302544]},"properties":{"OBJECTID":89,"stop_uid":"MTS_77783","stop_name":"UCSD Health La Jolla Station","Tier":2,"service_type":"Light Rail"}},{"type":"Feature","id":90,"geometry":{"type":"Point","coordinates":[-117.231847020452,32.8782912198407]},"properties":{"OBJECTID":90,"stop_uid":"MTS_77781","stop_name":"UCSD Central Campus Station","Tier":2,"service_type":"Light Rail"}},{"type":"Feature","id":91,"geometry":{"type":"Point","coordinates":[-117.229929639952,32.8741539599588]},"properties":{"OBJECTID":91,"stop_uid":"MTS_77779","stop_name":"VA Medical Center Station","Tier":2,"service_type":"Light Rail"}},{"type":"Feature","id":92,"geometry":{"type":"Point","coordinates":[-117.230462019769,32.866861729974]},"properties":{"OBJECTID":92,"stop_uid":"MTS_77776","stop_name":"Nobel Drive Station","Tier":2,"service_type":"Light Rail"}},{"type":"Feature","id":93,"geometry":{"type":"Point","coordinates":[-117.214059860112,32.8057378997227]},"properties":{"OBJECTID":93,"stop_uid":"MTS_77774","stop_name":"Balboa Avenue Station","Tier":2,"service_type":"Light Rail"}},{"type":"Feature","id":94,"geometry":{"type":"Point","coordinates":[-117.206187119912,32.7899797003986]},"properties":{"OBJECTID":94,"stop_uid":"MTS_77772","stop_name":"Clairemont Drive Station","Tier":2,"service_type":"Light Rail"}},{"type":"Feature","id":95,"geometry":{"type":"Point","coordinates":[-117.205088529716,32.7698120902379]},"properties":{"OBJECTID":95,"stop_uid":"MTS_77770","stop_name":"Tecolote Road Station","Tier":2,"service_type":"Light Rail"}},{"type":"Feature","id":96,"geometry":{"type":"Point","coordinates":[-117.199547990232,32.7546970000258]},"properties":{"OBJECTID":96,"stop_uid":"MTS_75043","stop_name":"Old Town Station","Tier":2,"service_type":"Light Rail"}},{"type":"Feature","id":97,"geometry":{"type":"Point","coordinates":[-117.184290039861,32.7415419703891]},"properties":{"OBJECTID":97,"stop_uid":"MTS_75077","stop_name":"Washington Street Station","Tier":2,"service_type":"Light Rail"}},{"type":"Feature","id":98,"geometry":{"type":"Point","coordinates":[-117.174792970159,32.7335139096738]},"properties":{"OBJECTID":98,"stop_uid":"MTS_75079","stop_name":"Middletown Station","Tier":2,"service_type":"Light Rail"}},{"type":"Feature","id":99,"geometry":{"type":"Point","coordinates":[-117.169985020237,32.7213629402412]},"properties":{"OBJECTID":99,"stop_uid":"MTS_75081","stop_name":"County Center/Little Italy Station","Tier":2,"service_type":"Light Rail"}},{"type":"Feature","id":100,"geometry":{"type":"Point","coordinates":[-117.169860939636,32.7173249201418]},"properties":{"OBJECTID":100,"stop_uid":"MTS_75082","stop_name":"Santa Fe Depot","Tier":2,"service_type":"Light Rail"}},{"type":"Feature","id":101,"geometry":{"type":"Point","coordinates":[-117.168452159793,32.7117399896415]},"properties":{"OBJECTID":101,"stop_uid":"MTS_75094","stop_name":"Seaport Village Station","Tier":2,"service_type":"Light Rail"}},{"type":"Feature","id":102,"geometry":{"type":"Point","coordinates":[-117.163319979666,32.7088198796422]},"properties":{"OBJECTID":102,"stop_uid":"MTS_75097","stop_name":"Convention Center Station","Tier":2,"service_type":"Light Rail"}},{"type":"Feature","id":103,"geometry":{"type":"Point","coordinates":[-117.159599159581,32.7067651003825]},"properties":{"OBJECTID":103,"stop_uid":"MTS_75099","stop_name":"Gaslamp Quarter Station","Tier":2,"service_type":"Light Rail"}},{"type":"Feature","id":104,"geometry":{"type":"Point","coordinates":[-117.153899909848,32.70523403003]},"properties":{"OBJECTID":104,"stop_uid":"MTS_75100","stop_name":"12th & Imperial Station (Bayside)","Tier":2,"service_type":"Light Rail"}},{"type":"Feature","id":105,"geometry":{"type":"Point","coordinates":[-116.976103370003,32.7928363201085]},"properties":{"OBJECTID":105,"stop_uid":"MTS_77790","stop_name":"El Cajon Station","Tier":2,"service_type":"Light Rail"}},{"type":"Feature","id":106,"geometry":{"type":"Point","coordinates":[-116.975685050133,32.8046610901507]},"properties":{"OBJECTID":106,"stop_uid":"MTS_75024","stop_name":"Arnele Avenue Station","Tier":2,"service_type":"Light Rail"}},{"type":"Feature","id":107,"geometry":{"type":"Point","coordinates":[-116.982079950414,32.8269959602489]},"properties":{"OBJECTID":107,"stop_uid":"MTS_75022","stop_name":"Gillespie Field Station","Tier":2,"service_type":"Light Rail"}},{"type":"Feature","id":108,"geometry":{"type":"Point","coordinates":[-116.981131850003,32.8415580804328]},"properties":{"OBJECTID":108,"stop_uid":"MTS_75020","stop_name":"Santee Town Center Station","Tier":2,"service_type":"Light Rail"}},{"type":"Feature","id":109,"geometry":{"type":"Point","coordinates":[-116.982041879599,32.8267639397997]},"properties":{"OBJECTID":109,"stop_uid":"MTS_75023","stop_name":"Gillespie Field Station","Tier":2,"service_type":"Light Rail"}},{"type":"Feature","id":110,"geometry":{"type":"Point","coordinates":[-116.975773129937,32.80448905968]},"properties":{"OBJECTID":110,"stop_uid":"MTS_75025","stop_name":"Arnele Avenue Station","Tier":2,"service_type":"Light Rail"}},{"type":"Feature","id":111,"geometry":{"type":"Point","coordinates":[-116.976216849685,32.7918789103699]},"properties":{"OBJECTID":111,"stop_uid":"MTS_75027","stop_name":"El Cajon Station","Tier":2,"service_type":"Light Rail"}},{"type":"Feature","id":112,"geometry":{"type":"Point","coordinates":[-117.159762880442,32.7069420001645]},"properties":{"OBJECTID":112,"stop_uid":"MTS_75098","stop_name":"Gaslamp Quarter Station","Tier":2,"service_type":"Light Rail"}},{"type":"Feature","id":113,"geometry":{"type":"Point","coordinates":[-117.16346305994,32.7089809801609]},"properties":{"OBJECTID":113,"stop_uid":"MTS_75096","stop_name":"Convention Center Station","Tier":2,"service_type":"Light Rail"}},{"type":"Feature","id":114,"geometry":{"type":"Point","coordinates":[-117.168620040245,32.712000949712]},"properties":{"OBJECTID":114,"stop_uid":"MTS_75095","stop_name":"Seaport Village Station","Tier":2,"service_type":"Light Rail"}},{"type":"Feature","id":115,"geometry":{"type":"Point","coordinates":[-117.196558020198,32.763527069592]},"properties":{"OBJECTID":115,"stop_uid":"MTS_75044","stop_name":"Morena/Linda Vista Station","Tier":2,"service_type":"Light Rail"}},{"type":"Feature","id":116,"geometry":{"type":"Point","coordinates":[-117.168905149492,32.765453090339]},"properties":{"OBJECTID":116,"stop_uid":"MTS_75047","stop_name":"Fashion Valley Station","Tier":2,"service_type":"Light Rail"}},{"type":"Feature","id":117,"geometry":{"type":"Point","coordinates":[-117.158151890358,32.7702571198436]},"properties":{"OBJECTID":117,"stop_uid":"MTS_75048","stop_name":"Hazard Center Station","Tier":2,"service_type":"Light Rail"}},{"type":"Feature","id":118,"geometry":{"type":"Point","coordinates":[-117.149856109715,32.7710830701588]},"properties":{"OBJECTID":118,"stop_uid":"MTS_75050","stop_name":"Mission Valley Center Station","Tier":2,"service_type":"Light Rail"}},{"type":"Feature","id":119,"geometry":{"type":"Point","coordinates":[-117.141698849549,32.7736208902533]},"properties":{"OBJECTID":119,"stop_uid":"MTS_75053","stop_name":"Rio Vista Station","Tier":2,"service_type":"Light Rail"}},{"type":"Feature","id":120,"geometry":{"type":"Point","coordinates":[-117.12700808017,32.7783700399116]},"properties":{"OBJECTID":120,"stop_uid":"MTS_75055","stop_name":"Fenton Parkway Station","Tier":2,"service_type":"Light Rail"}},{"type":"Feature","id":121,"geometry":{"type":"Point","coordinates":[-117.119491979666,32.7809290399258]},"properties":{"OBJECTID":121,"stop_uid":"MTS_75056","stop_name":"Stadium Station","Tier":2,"service_type":"Light Rail"}},{"type":"Feature","id":122,"geometry":{"type":"Point","coordinates":[-117.110979039564,32.7808139096799]},"properties":{"OBJECTID":122,"stop_uid":"MTS_75059","stop_name":"Mission San Diego Station","Tier":2,"service_type":"Light Rail"}},{"type":"Feature","id":123,"geometry":{"type":"Point","coordinates":[-117.09738401971,32.7803978698657]},"properties":{"OBJECTID":123,"stop_uid":"MTS_75060","stop_name":"Union Grantville Station","Tier":2,"service_type":"Light Rail"}},{"type":"Feature","id":124,"geometry":{"type":"Point","coordinates":[-117.070371979667,32.7731649299357]},"properties":{"OBJECTID":124,"stop_uid":"MTS_75063","stop_name":"SDSU Station","Tier":2,"service_type":"Light Rail"}},{"type":"Feature","id":125,"geometry":{"type":"Point","coordinates":[-117.056706930256,32.7773090402772]},"properties":{"OBJECTID":125,"stop_uid":"MTS_75064","stop_name":"UCSD Health East Station","Tier":2,"service_type":"Light Rail"}},{"type":"Feature","id":126,"geometry":{"type":"Point","coordinates":[-117.042295099577,32.772146999662]},"properties":{"OBJECTID":126,"stop_uid":"MTS_75032","stop_name":"70th Street Station","Tier":2,"service_type":"Light Rail"}},{"type":"Feature","id":127,"geometry":{"type":"Point","coordinates":[-117.011267020144,32.7816420702816]},"properties":{"OBJECTID":127,"stop_uid":"MTS_75030","stop_name":"Grossmont Station","Tier":2,"service_type":"Light Rail"}},{"type":"Feature","id":128,"geometry":{"type":"Point","coordinates":[-117.001605999597,32.78541311008]},"properties":{"OBJECTID":128,"stop_uid":"MTS_75029","stop_name":"Amaya Drive Station","Tier":2,"service_type":"Light Rail"}},{"type":"Feature","id":129,"geometry":{"type":"Point","coordinates":[-116.976138990252,32.7920648903943]},"properties":{"OBJECTID":129,"stop_uid":"MTS_75026","stop_name":"El Cajon Station","Tier":2,"service_type":"Light Rail"}},{"type":"Feature","id":130,"geometry":{"type":"Point","coordinates":[-117.119710920497,32.7810250701157]},"properties":{"OBJECTID":130,"stop_uid":"MTS_75057","stop_name":"Stadium Station","Tier":2,"service_type":"Light Rail"}},{"type":"Feature","id":131,"geometry":{"type":"Point","coordinates":[-117.127237109944,32.7782700197729]},"properties":{"OBJECTID":131,"stop_uid":"MTS_75054","stop_name":"Fenton Parkway Station","Tier":2,"service_type":"Light Rail"}},{"type":"Feature","id":132,"geometry":{"type":"Point","coordinates":[-117.141967039704,32.7736329698016]},"properties":{"OBJECTID":132,"stop_uid":"MTS_75052","stop_name":"Rio Vista Station","Tier":2,"service_type":"Light Rail"}},{"type":"Feature","id":133,"geometry":{"type":"Point","coordinates":[-117.150135010291,32.7710931303981]},"properties":{"OBJECTID":133,"stop_uid":"MTS_75051","stop_name":"Mission Valley Center Station","Tier":2,"service_type":"Light Rail"}},{"type":"Feature","id":134,"geometry":{"type":"Point","coordinates":[-117.158410000014,32.7702379004249]},"properties":{"OBJECTID":134,"stop_uid":"MTS_75049","stop_name":"Hazard Center Station","Tier":2,"service_type":"Light Rail"}},{"type":"Feature","id":135,"geometry":{"type":"Point","coordinates":[-117.169151919549,32.7654710404098]},"properties":{"OBJECTID":135,"stop_uid":"MTS_75046","stop_name":"Fashion Valley Station","Tier":2,"service_type":"Light Rail"}},{"type":"Feature","id":136,"geometry":{"type":"Point","coordinates":[-117.196849149508,32.7635861304475]},"properties":{"OBJECTID":136,"stop_uid":"MTS_75045","stop_name":"Morena/Linda Vista Station","Tier":2,"service_type":"Light Rail"}},{"type":"Feature","id":137,"geometry":{"type":"Point","coordinates":[-117.001863020124,32.7854099000025]},"properties":{"OBJECTID":137,"stop_uid":"MTS_75028","stop_name":"Amaya Drive Station","Tier":2,"service_type":"Light Rail"}},{"type":"Feature","id":138,"geometry":{"type":"Point","coordinates":[-117.011470079965,32.7816081100544]},"properties":{"OBJECTID":138,"stop_uid":"MTS_75031","stop_name":"Grossmont Station","Tier":2,"service_type":"Light Rail"}},{"type":"Feature","id":139,"geometry":{"type":"Point","coordinates":[-117.042484100363,32.7722900898142]},"properties":{"OBJECTID":139,"stop_uid":"MTS_75033","stop_name":"70th Street Station","Tier":2,"service_type":"Light Rail"}},{"type":"Feature","id":140,"geometry":{"type":"Point","coordinates":[-117.056918140519,32.7774219897036]},"properties":{"OBJECTID":140,"stop_uid":"MTS_75065","stop_name":"UCSD Health East Station","Tier":2,"service_type":"Light Rail"}},{"type":"Feature","id":141,"geometry":{"type":"Point","coordinates":[-117.070638149947,32.7732750198254]},"properties":{"OBJECTID":141,"stop_uid":"MTS_75062","stop_name":"SDSU Station","Tier":2,"service_type":"Light Rail"}},{"type":"Feature","id":142,"geometry":{"type":"Point","coordinates":[-117.097559130071,32.7805398698419]},"properties":{"OBJECTID":142,"stop_uid":"MTS_75061","stop_name":"Union Grantville Station","Tier":2,"service_type":"Light Rail"}},{"type":"Feature","id":143,"geometry":{"type":"Point","coordinates":[-117.111104980124,32.7809828898909]},"properties":{"OBJECTID":143,"stop_uid":"MTS_75058","stop_name":"Mission San Diego Station","Tier":2,"service_type":"Light Rail"}},{"type":"Feature","id":144,"geometry":{"type":"Point","coordinates":[-117.138730949652,32.7052769496544]},"properties":{"OBJECTID":144,"stop_uid":"MTS_75074","stop_name":"25th & Commercial St Station","Tier":2,"service_type":"Light Rail"}},{"type":"Feature","id":145,"geometry":{"type":"Point","coordinates":[-117.124523899865,32.7057770501266]},"properties":{"OBJECTID":145,"stop_uid":"MTS_75073","stop_name":"32nd/Commercial St Station","Tier":2,"service_type":"Light Rail"}},{"type":"Feature","id":146,"geometry":{"type":"Point","coordinates":[-117.094819079872,32.7084390800666]},"properties":{"OBJECTID":146,"stop_uid":"MTS_75070","stop_name":"47th Street Station","Tier":2,"service_type":"Light Rail"}},{"type":"Feature","id":147,"geometry":{"type":"Point","coordinates":[-117.085761030437,32.7095070297199]},"properties":{"OBJECTID":147,"stop_uid":"MTS_75069","stop_name":"Euclid Ave Station","Tier":2,"service_type":"Light Rail"}},{"type":"Feature","id":148,"geometry":{"type":"Point","coordinates":[-117.063109950307,32.7100839196901]},"properties":{"OBJECTID":148,"stop_uid":"MTS_75067","stop_name":"Encanto/62nd St Station","Tier":2,"service_type":"Light Rail"}},{"type":"Feature","id":149,"geometry":{"type":"Point","coordinates":[-117.039488950537,32.7235590401591]},"properties":{"OBJECTID":149,"stop_uid":"MTS_75040","stop_name":"Massachusetts Ave Station","Tier":2,"service_type":"Light Rail"}},{"type":"Feature","id":150,"geometry":{"type":"Point","coordinates":[-117.030653919974,32.7434818898055]},"properties":{"OBJECTID":150,"stop_uid":"MTS_75038","stop_name":"Lemon Grove Depot","Tier":2,"service_type":"Light Rail"}},{"type":"Feature","id":151,"geometry":{"type":"Point","coordinates":[-117.017385019575,32.7569071103137]},"properties":{"OBJECTID":151,"stop_uid":"MTS_75036","stop_name":"Spring Street Station","Tier":2,"service_type":"Light Rail"}},{"type":"Feature","id":152,"geometry":{"type":"Point","coordinates":[-117.020564969539,32.7651368797668]},"properties":{"OBJECTID":152,"stop_uid":"MTS_75034","stop_name":"La Mesa Blvd Station","Tier":2,"service_type":"Light Rail"}},{"type":"Feature","id":153,"geometry":{"type":"Point","coordinates":[-117.166023609492,32.7167155495642]},"properties":{"OBJECTID":153,"stop_uid":"MTS_75109","stop_name":"Courthouse Station","Tier":2,"service_type":"Light Rail"}},{"type":"Feature","id":154,"geometry":{"type":"Point","coordinates":[-117.020531060088,32.7649051198156]},"properties":{"OBJECTID":154,"stop_uid":"MTS_75035","stop_name":"La Mesa Blvd Station","Tier":2,"service_type":"Light Rail"}},{"type":"Feature","id":155,"geometry":{"type":"Point","coordinates":[-117.017531039915,32.7567539400616]},"properties":{"OBJECTID":155,"stop_uid":"MTS_75037","stop_name":"Spring Street Station","Tier":2,"service_type":"Light Rail"}},{"type":"Feature","id":156,"geometry":{"type":"Point","coordinates":[-117.030783010013,32.7432961003734]},"properties":{"OBJECTID":156,"stop_uid":"MTS_75039","stop_name":"Lemon Grove Depot","Tier":2,"service_type":"Light Rail"}},{"type":"Feature","id":157,"geometry":{"type":"Point","coordinates":[-117.039679919802,32.7234619003049]},"properties":{"OBJECTID":157,"stop_uid":"MTS_75041","stop_name":"Massachusetts Ave Station","Tier":2,"service_type":"Light Rail"}},{"type":"Feature","id":158,"geometry":{"type":"Point","coordinates":[-117.063361030132,32.7101300902356]},"properties":{"OBJECTID":158,"stop_uid":"MTS_75066","stop_name":"Encanto/62nd St Station","Tier":2,"service_type":"Light Rail"}},{"type":"Feature","id":159,"geometry":{"type":"Point","coordinates":[-117.086129120432,32.7095839596049]},"properties":{"OBJECTID":159,"stop_uid":"MTS_75068","stop_name":"Euclid Ave Station","Tier":2,"service_type":"Light Rail"}},{"type":"Feature","id":160,"geometry":{"type":"Point","coordinates":[-117.095072089736,32.7084480700452]},"properties":{"OBJECTID":160,"stop_uid":"MTS_75071","stop_name":"47th Street Station","Tier":2,"service_type":"Light Rail"}},{"type":"Feature","id":161,"geometry":{"type":"Point","coordinates":[-117.124753009747,32.7057699299882]},"properties":{"OBJECTID":161,"stop_uid":"MTS_75072","stop_name":"32nd/Commercial St Station","Tier":2,"service_type":"Light Rail"}},{"type":"Feature","id":162,"geometry":{"type":"Point","coordinates":[-117.141153930535,32.7052899699338]},"properties":{"OBJECTID":162,"stop_uid":"MTS_75075","stop_name":"25th & Commercial St Station","Tier":2,"service_type":"Light Rail"}},{"type":"Feature","id":163,"geometry":{"type":"Point","coordinates":[-117.378349999661,33.1908749999855]},"properties":{"OBJECTID":163,"stop_uid":"NCTD_27000","stop_name":"Oceanside Transit Center","Tier":2,"service_type":"Commuter Rail"}},{"type":"Feature","id":164,"geometry":{"type":"Point","coordinates":[-117.368851000134,33.1817880002429]},"properties":{"OBJECTID":164,"stop_uid":"NCTD_27001","stop_name":"Coast Hwy Station","Tier":2,"service_type":"Commuter Rail"}},{"type":"Feature","id":165,"geometry":{"type":"Point","coordinates":[-117.353513999824,33.1946120003593]},"properties":{"OBJECTID":165,"stop_uid":"NCTD_27002","stop_name":"Crouch St Station","Tier":2,"service_type":"Commuter Rail"}},{"type":"Feature","id":166,"geometry":{"type":"Point","coordinates":[-117.332477999807,33.1996559995629]},"properties":{"OBJECTID":166,"stop_uid":"NCTD_27003","stop_name":"El Camino Real Station","Tier":2,"service_type":"Commuter Rail"}},{"type":"Feature","id":167,"geometry":{"type":"Point","coordinates":[-117.311469999791,33.2014599997532]},"properties":{"OBJECTID":167,"stop_uid":"NCTD_27004","stop_name":"Rancho Del Oro Station","Tier":2,"service_type":"Commuter Rail"}},{"type":"Feature","id":168,"geometry":{"type":"Point","coordinates":[-117.28814299959,33.2045460004461]},"properties":{"OBJECTID":168,"stop_uid":"NCTD_27005","stop_name":"College Blvd Station","Tier":2,"service_type":"Commuter Rail"}},{"type":"Feature","id":169,"geometry":{"type":"Point","coordinates":[-117.259087000305,33.219553000377]},"properties":{"OBJECTID":169,"stop_uid":"NCTD_27006","stop_name":"Melrose Dr Station","Tier":2,"service_type":"Commuter Rail"}},{"type":"Feature","id":170,"geometry":{"type":"Point","coordinates":[-117.244950000133,33.2029499997041]},"properties":{"OBJECTID":170,"stop_uid":"NCTD_27007","stop_name":"Vista Transit Center","Tier":2,"service_type":"Commuter Rail"}},{"type":"Feature","id":171,"geometry":{"type":"Point","coordinates":[-117.237476000449,33.1905350001365]},"properties":{"OBJECTID":171,"stop_uid":"NCTD_27008","stop_name":"Civic Center - Vista Station","Tier":2,"service_type":"Commuter Rail"}},{"type":"Feature","id":172,"geometry":{"type":"Point","coordinates":[-117.207393000391,33.1734999997099]},"properties":{"OBJECTID":172,"stop_uid":"NCTD_27009","stop_name":"Buena Creek Station","Tier":2,"service_type":"Commuter Rail"}},{"type":"Feature","id":173,"geometry":{"type":"Point","coordinates":[-117.185313999467,33.1469530000501]},"properties":{"OBJECTID":173,"stop_uid":"NCTD_27010","stop_name":"Palomar College Station","Tier":2,"service_type":"Commuter Rail"}},{"type":"Feature","id":174,"geometry":{"type":"Point","coordinates":[-117.161995000385,33.1422670001861]},"properties":{"OBJECTID":174,"stop_uid":"NCTD_27011","stop_name":"San Marcos Civic Center Station","Tier":2,"service_type":"Commuter Rail"}},{"type":"Feature","id":175,"geometry":{"type":"Point","coordinates":[-117.153584999649,33.1347710000091]},"properties":{"OBJECTID":175,"stop_uid":"NCTD_27012","stop_name":"Cal State San Marcos Station","Tier":2,"service_type":"Commuter Rail"}},{"type":"Feature","id":176,"geometry":{"type":"Point","coordinates":[-117.124153999485,33.1311120004104]},"properties":{"OBJECTID":176,"stop_uid":"NCTD_27013","stop_name":"Nordahl Rd Station","Tier":2,"service_type":"Commuter Rail"}},{"type":"Feature","id":177,"geometry":{"type":"Point","coordinates":[-117.092159999516,33.1184190002997]},"properties":{"OBJECTID":177,"stop_uid":"NCTD_27014","stop_name":"Escondido Transit Center","Tier":2,"service_type":"Commuter Rail"}},{"type":"Feature","id":178,"geometry":{"type":"Point","coordinates":[-117.236970000535,33.1902199996857]},"properties":{"OBJECTID":178,"stop_uid":"NCTD_27026","stop_name":"Civic Center - Vista Station","Tier":2,"service_type":"Commuter Rail"}},{"type":"Feature","id":179,"geometry":{"type":"Point","coordinates":[-117.244950000335,33.2031699996364]},"properties":{"OBJECTID":179,"stop_uid":"NCTD_27027","stop_name":"Vista Transit Center","Tier":2,"service_type":"Commuter Rail"}},{"type":"Feature","id":180,"geometry":{"type":"Point","coordinates":[-117.288250000535,33.2045500002439]},"properties":{"OBJECTID":180,"stop_uid":"NCTD_27028","stop_name":"College Blvd Station","Tier":2,"service_type":"Commuter Rail"}},{"type":"Feature","id":181,"geometry":{"type":"Point","coordinates":[-117.311299999748,33.2015800001616]},"properties":{"OBJECTID":181,"stop_uid":"NCTD_27029","stop_name":"Rancho Del Oro Station","Tier":2,"service_type":"Commuter Rail"}},{"type":"Feature","id":182,"geometry":{"type":"Point","coordinates":[-117.332299999474,33.1997200001135]},"properties":{"OBJECTID":182,"stop_uid":"NCTD_27030","stop_name":"El Camino Real Station","Tier":2,"service_type":"Commuter Rail"}}]}