{
 "type": "FeatureCollection",
 "name": "va_ca_facilities",
 "metadata": {
  "description": "California VA medical centers and community-based outpatient clinics (CBOCs), from the VHA's authorized public facility dataset.",
  "source_service": "https://services1.arcgis.com/smmmD7AGkh7eJR2a/arcgis/rest/services/Veterans_Health_Administration_(VHA)_Facilities/FeatureServer/0",
  "source_vintage": "MAR2025",
  "generated": "2026-09-09",
  "generator": "data/va/build_facilities.py",
  "counts": {
   "Medical Center": 12,
   "CBOC": 61,
   "total": 73
  }
 },
 "features": [
  {
   "type": "Feature",
   "geometry": {
    "type": "Point",
    "coordinates": [
     -119.779025,
     36.773487
    ]
   },
   "properties": {
    "name": "Fresno VA Medical Center",
    "type": "Medical Center",
    "sta_no": "570",
    "sta_class": "VAMC",
    "address": "2615 East Clinton Avenue, Fresno, CA 93703",
    "city": "Fresno",
    "county": "Fresno",
    "source": "VHA Facilities (vhacontentmanager, ArcGIS Online)",
    "source_vintage": "MAR2025",
    "retrieved": "2026-09-09"
   }
  },
  {
   "type": "Feature",
   "geometry": {
    "type": "Point",
    "coordinates": [
     -117.232286,
     32.875551
    ]
   },
   "properties": {
    "name": "Jennifer Moreno Department of Veterans Affairs Medical Center",
    "type": "Medical Center",
    "sta_no": "664",
    "sta_class": "VAMC",
    "address": "3350 La Jolla Village Drive, San Diego, CA 92161",
    "city": "San Diego",
    "county": "San Diego",
    "source": "VHA Facilities (vhacontentmanager, ArcGIS Online)",
    "source_vintage": "MAR2025",
    "retrieved": "2026-09-09"
   }
  },
  {
   "type": "Feature",
   "geometry": {
    "type": "Point",
    "coordinates": [
     -117.252343,
     34.050183
    ]
   },
   "properties": {
    "name": "Jerry L. Pettis Memorial Veterans' Hospital",
    "type": "Medical Center",
    "sta_no": "605",
    "sta_class": "VAMC",
    "address": "11201 Benton Street, Loma Linda, CA 92357",
    "city": "Loma Linda",
    "county": "San Bernardino",
    "source": "VHA Facilities (vhacontentmanager, ArcGIS Online)",
    "source_vintage": "MAR2025",
    "retrieved": "2026-09-09"
   }
  },
  {
   "type": "Feature",
   "geometry": {
    "type": "Point",
    "coordinates": [
     -122.115285,
     37.995239
    ]
   },
   "properties": {
    "name": "Martinez VA Medical Center",
    "type": "Medical Center",
    "sta_no": "612GF",
    "sta_class": "VAMC",
    "address": "150 Muir Road, Martinez, CA 94553",
    "city": "Martinez",
    "county": "Contra Costa",
    "source": "VHA Facilities (vhacontentmanager, ArcGIS Online)",
    "source_vintage": "MAR2025",
    "retrieved": "2026-09-09"
   }
  },
  {
   "type": "Feature",
   "geometry": {
    "type": "Point",
    "coordinates": [
     -122.139106,
     37.401323
    ]
   },
   "properties": {
    "name": "Palo Alto VA Medical Center",
    "type": "Medical Center",
    "sta_no": "640",
    "sta_class": "VAMC",
    "address": "3801 Miranda Avenue, Palo Alto, CA 94304",
    "city": "Palo Alto",
    "county": "Santa Clara",
    "source": "VHA Facilities (vhacontentmanager, ArcGIS Online)",
    "source_vintage": "MAR2025",
    "retrieved": "2026-09-09"
   }
  },
  {
   "type": "Feature",
   "geometry": {
    "type": "Point",
    "coordinates": [
     -121.756688,
     37.625088
    ]
   },
   "properties": {
    "name": "Palo Alto VA Medical Center-Livermore",
    "type": "Medical Center",
    "sta_no": "640A4",
    "sta_class": "VAMC",
    "address": "4951 Arroyo Road, Livermore, CA 94550",
    "city": "Livermore",
    "county": "Alameda",
    "source": "VHA Facilities (vhacontentmanager, ArcGIS Online)",
    "source_vintage": "MAR2025",
    "retrieved": "2026-09-09"
   }
  },
  {
   "type": "Feature",
   "geometry": {
    "type": "Point",
    "coordinates": [
     -122.15871,
     37.468341
    ]
   },
   "properties": {
    "name": "Palo Alto VA Medical Center-Menlo Park",
    "type": "Medical Center",
    "sta_no": "640A0",
    "sta_class": "VAMC",
    "address": "795 Willow Road, Menlo Park, CA 94025",
    "city": "Menlo Park",
    "county": "San Mateo",
    "source": "VHA Facilities (vhacontentmanager, ArcGIS Online)",
    "source_vintage": "MAR2025",
    "retrieved": "2026-09-09"
   }
  },
  {
   "type": "Feature",
   "geometry": {
    "type": "Point",
    "coordinates": [
     -121.296501,
     38.572461
    ]
   },
   "properties": {
    "name": "Sacramento VA Medical Center",
    "type": "Medical Center",
    "sta_no": "612A4",
    "sta_class": "VAMC",
    "address": "10535 Hospital Way, Mather, CA 95655",
    "city": "Mather",
    "county": "Sacramento",
    "source": "VHA Facilities (vhacontentmanager, ArcGIS Online)",
    "source_vintage": "MAR2025",
    "retrieved": "2026-09-09"
   }
  },
  {
   "type": "Feature",
   "geometry": {
    "type": "Point",
    "coordinates": [
     -122.50512,
     37.781766
    ]
   },
   "properties": {
    "name": "San Francisco VA Medical Center",
    "type": "Medical Center",
    "sta_no": "662",
    "sta_class": "VAMC",
    "address": "4150 Clement Street, San Francisco, CA 94121",
    "city": "San Francisco",
    "county": "San Francisco",
    "source": "VHA Facilities (vhacontentmanager, ArcGIS Online)",
    "source_vintage": "MAR2025",
    "retrieved": "2026-09-09"
   }
  },
  {
   "type": "Feature",
   "geometry": {
    "type": "Point",
    "coordinates": [
     -118.48325,
     34.242923
    ]
   },
   "properties": {
    "name": "Sepulveda VA Medical Center",
    "type": "Medical Center",
    "sta_no": "691A4",
    "sta_class": "VAMC",
    "address": "16111 Plummer Street, Sepulveda, CA 91343",
    "city": "Sepulveda",
    "county": "Los Angeles",
    "source": "VHA Facilities (vhacontentmanager, ArcGIS Online)",
    "source_vintage": "MAR2025",
    "retrieved": "2026-09-09"
   }
  },
  {
   "type": "Feature",
   "geometry": {
    "type": "Point",
    "coordinates": [
     -118.119954,
     33.775368
    ]
   },
   "properties": {
    "name": "Tibor Rubin VA Medical Center",
    "type": "Medical Center",
    "sta_no": "600",
    "sta_class": "VAMC",
    "address": "5901 East Seventh Street, Long Beach, CA 90822",
    "city": "Long Beach",
    "county": "Los Angeles",
    "source": "VHA Facilities (vhacontentmanager, ArcGIS Online)",
    "source_vintage": "MAR2025",
    "retrieved": "2026-09-09"
   }
  },
  {
   "type": "Feature",
   "geometry": {
    "type": "Point",
    "coordinates": [
     -118.458463,
     34.052432
    ]
   },
   "properties": {
    "name": "West Los Angeles VA Medical Center",
    "type": "Medical Center",
    "sta_no": "691",
    "sta_class": "VAMC",
    "address": "11301 Wilshire Boulevard, Los Angeles, CA 90073",
    "city": "Los Angeles",
    "county": "Los Angeles",
    "source": "VHA Facilities (vhacontentmanager, ArcGIS Online)",
    "source_vintage": "MAR2025",
    "retrieved": "2026-09-09"
   }
  },
  {
   "type": "Feature",
   "geometry": {
    "type": "Point",
    "coordinates": [
     -118.161295,
     34.690449
    ]
   },
   "properties": {
    "name": "Antelope Valley VA Clinic",
    "type": "CBOC",
    "sta_no": "691GG",
    "sta_class": "MSCBOC",
    "address": "44439 Veterans Way, Lancaster, CA 93534-2831",
    "city": "Lancaster",
    "county": "Los Angeles",
    "source": "VHA Facilities (vhacontentmanager, ArcGIS Online)",
    "source_vintage": "MAR2025",
    "retrieved": "2026-09-09",
    "override_reason": "Clinic moved to the new 44439 Veterans Way building (opened Aug 27 2025); the VHA MAR2025 layer still lists the closed 340 E Avenue I site.",
    "override_source": "https://www.va.gov/greater-los-angeles-health-care/locations/antelope-valley-va-clinic/"
   }
  },
  {
   "type": "Feature",
   "geometry": {
    "type": "Point",
    "coordinates": [
     -119.042542,
     35.375819
    ]
   },
   "properties": {
    "name": "Bakersfield VA Clinic",
    "type": "CBOC",
    "sta_no": "691GD",
    "sta_class": "MSCBOC",
    "address": "1801 Westwind Drive, Bakersfield, CA 93301",
    "city": "Bakersfield",
    "county": "Kern",
    "source": "VHA Facilities (vhacontentmanager, ArcGIS Online)",
    "source_vintage": "MAR2025",
    "retrieved": "2026-09-09"
   }
  },
  {
   "type": "Feature",
   "geometry": {
    "type": "Point",
    "coordinates": [
     -114.610996,
     33.610221
    ]
   },
   "properties": {
    "name": "Blythe VA Clinic",
    "type": "CBOC",
    "sta_no": "605QA",
    "sta_class": "OOS",
    "address": "1273 West Hobson Way, Blythe, CA 92225",
    "city": "Blythe",
    "county": "Riverside",
    "source": "VHA Facilities (vhacontentmanager, ArcGIS Online)",
    "source_vintage": "MAR2025",
    "retrieved": "2026-09-09"
   }
  },
  {
   "type": "Feature",
   "geometry": {
    "type": "Point",
    "coordinates": [
     -118.222161,
     33.792214
    ]
   },
   "properties": {
    "name": "Cabrillo VA Clinic",
    "type": "CBOC",
    "sta_no": "600GC",
    "sta_class": "PCCBOC",
    "address": "2001 River Avenue, Long Beach, CA 90806",
    "city": "Long Beach",
    "county": "Los Angeles",
    "source": "VHA Facilities (vhacontentmanager, ArcGIS Online)",
    "source_vintage": "MAR2025",
    "retrieved": "2026-09-09"
   }
  },
  {
   "type": "Feature",
   "geometry": {
    "type": "Point",
    "coordinates": [
     -121.96418,
     36.970596
    ]
   },
   "properties": {
    "name": "Capitola VA Clinic",
    "type": "CBOC",
    "sta_no": "640GA",
    "sta_class": "PCCBOC",
    "address": "1350 41st Avenue, Capitola, CA 95010",
    "city": "Capitola",
    "county": "Santa Cruz",
    "source": "VHA Facilities (vhacontentmanager, ArcGIS Online)",
    "source_vintage": "MAR2025",
    "retrieved": "2026-09-09"
   }
  },
  {
   "type": "Feature",
   "geometry": {
    "type": "Point",
    "coordinates": [
     -119.220075,
     34.259556
    ]
   },
   "properties": {
    "name": "Captain Rosemary Bryant Mariner Outpatient Clinic",
    "type": "CBOC",
    "sta_no": "691GQ",
    "sta_class": "MSCBOC",
    "address": "5250 Ralston Street, Ventura, CA 93003",
    "city": "Ventura",
    "county": "Ventura",
    "source": "VHA Facilities (vhacontentmanager, ArcGIS Online)",
    "source_vintage": "MAR2025",
    "retrieved": "2026-09-09"
   }
  },
  {
   "type": "Feature",
   "geometry": {
    "type": "Point",
    "coordinates": [
     -121.787959,
     39.731985
    ]
   },
   "properties": {
    "name": "Chico VA Clinic",
    "type": "CBOC",
    "sta_no": "612GG",
    "sta_class": "MSCBOC",
    "address": "1601 Concord Avenue, Chico, CA 95928",
    "city": "Chico",
    "county": "Butte",
    "source": "VHA Facilities (vhacontentmanager, ArcGIS Online)",
    "source_vintage": "MAR2025",
    "retrieved": "2026-09-09"
   }
  },
  {
   "type": "Feature",
   "geometry": {
    "type": "Point",
    "coordinates": [
     -117.079235,
     32.633868
    ]
   },
   "properties": {
    "name": "Chula Vista VA Clinic",
    "type": "CBOC",
    "sta_no": "664GC",
    "sta_class": "MSCBOC",
    "address": "353 H Street, Chula Vista, CA 91910",
    "city": "Chula Vista",
    "county": "San Diego",
    "source": "VHA Facilities (vhacontentmanager, ArcGIS Online)",
    "source_vintage": "MAR2025",
    "retrieved": "2026-09-09"
   }
  },
  {
   "type": "Feature",
   "geometry": {
    "type": "Point",
    "coordinates": [
     -122.628544,
     38.949847
    ]
   },
   "properties": {
    "name": "Clearlake VA Clinic",
    "type": "CBOC",
    "sta_no": "662GG",
    "sta_class": "MSCBOC",
    "address": "15145 Lakeshore Drive, Clearlake, CA 95422",
    "city": "Clearlake",
    "county": "Lake",
    "source": "VHA Facilities (vhacontentmanager, ArcGIS Online)",
    "source_vintage": "MAR2025",
    "retrieved": "2026-09-09"
   }
  },
  {
   "type": "Feature",
   "geometry": {
    "type": "Point",
    "coordinates": [
     -117.522896,
     33.883358
    ]
   },
   "properties": {
    "name": "Corona VA Clinic",
    "type": "CBOC",
    "sta_no": "605GD",
    "sta_class": "PCCBOC",
    "address": "280 Teller Street, Corona, CA 92879",
    "city": "Corona",
    "county": "Riverside",
    "source": "VHA Facilities (vhacontentmanager, ArcGIS Online)",
    "source_vintage": "MAR2025",
    "retrieved": "2026-09-09"
   }
  },
  {
   "type": "Feature",
   "geometry": {
    "type": "Point",
    "coordinates": [
     -122.380471,
     40.574384
    ]
   },
   "properties": {
    "name": "Cypress Avenue VA Clinic",
    "type": "CBOC",
    "sta_no": "612QC",
    "sta_class": "OOS",
    "address": "760 Cypress Avenue, Redding, CA 96001",
    "city": "Redding",
    "county": "Shasta",
    "source": "VHA Facilities (vhacontentmanager, ArcGIS Online)",
    "source_vintage": "MAR2025",
    "retrieved": "2026-09-09"
   }
  },
  {
   "type": "Feature",
   "geometry": {
    "type": "Point",
    "coordinates": [
     -120.625569,
     40.40585
    ]
   },
   "properties": {
    "name": "Diamond View VA Clinic",
    "type": "CBOC",
    "sta_no": "654GD",
    "sta_class": "OOS",
    "address": "110 Bella Way, Susanville, CA 96130",
    "city": "Susanville",
    "county": "Lassen",
    "source": "VHA Facilities (vhacontentmanager, ArcGIS Online)",
    "source_vintage": "MAR2025",
    "retrieved": "2026-09-09"
   }
  },
  {
   "type": "Feature",
   "geometry": {
    "type": "Point",
    "coordinates": [
     -118.155222,
     34.015536
    ]
   },
   "properties": {
    "name": "East Los Angeles VA Clinic",
    "type": "CBOC",
    "sta_no": "691GF",
    "sta_class": "PCCBOC",
    "address": "5426 East Olympic Boulevard, Commerce, CA 90022",
    "city": "Commerce",
    "county": "Los Angeles",
    "source": "VHA Facilities (vhacontentmanager, ArcGIS Online)",
    "source_vintage": "MAR2025",
    "retrieved": "2026-09-09"
   }
  },
  {
   "type": "Feature",
   "geometry": {
    "type": "Point",
    "coordinates": [
     -117.072005,
     33.127363
    ]
   },
   "properties": {
    "name": "Escondido VA Clinic",
    "type": "CBOC",
    "sta_no": "664GD",
    "sta_class": "PCCBOC",
    "address": "815 East Pennsylvania Avenue, Escondido, CA 92025-2664",
    "city": "Escondido",
    "county": "San Diego",
    "source": "VHA Facilities (vhacontentmanager, ArcGIS Online)",
    "source_vintage": "MAR2025",
    "retrieved": "2026-09-09",
    "override_reason": "Coordinate tightened to the 815 E Pennsylvania Ave building (matches VHA address; old map still had the former 2010 E Valley Pkwy site).",
    "override_source": "https://www.va.gov/san-diego-health-care/locations/escondido-va-clinic/ ; coordinate from U.S. Census Bureau geocoder"
   }
  },
  {
   "type": "Feature",
   "geometry": {
    "type": "Point",
    "coordinates": [
     -124.18115,
     40.780584
    ]
   },
   "properties": {
    "name": "Eureka VA Clinic",
    "type": "CBOC",
    "sta_no": "662GC",
    "sta_class": "MSCBOC",
    "address": "930 West Harris Street, Eureka, CA 95503",
    "city": "Eureka",
    "county": "Humboldt",
    "source": "VHA Facilities (vhacontentmanager, ArcGIS Online)",
    "source_vintage": "MAR2025",
    "retrieved": "2026-09-09"
   }
  },
  {
   "type": "Feature",
   "geometry": {
    "type": "Point",
    "coordinates": [
     -121.965109,
     38.267585
    ]
   },
   "properties": {
    "name": "Fairfield VA Clinic",
    "type": "CBOC",
    "sta_no": "612GD",
    "sta_class": "MSCBOC",
    "address": "103 Bodin Circle, Travis AFB, CA 94535",
    "city": "Travis AFB",
    "county": "Solano",
    "source": "VHA Facilities (vhacontentmanager, ArcGIS Online)",
    "source_vintage": "MAR2025",
    "retrieved": "2026-09-09"
   }
  },
  {
   "type": "Feature",
   "geometry": {
    "type": "Point",
    "coordinates": [
     -121.981672,
     37.550621
    ]
   },
   "properties": {
    "name": "Fremont VA Clinic",
    "type": "CBOC",
    "sta_no": "640GC",
    "sta_class": "PCCBOC",
    "address": "39199 Liberty Street, Fremont, CA 94538",
    "city": "Fremont",
    "county": "Alameda",
    "source": "VHA Facilities (vhacontentmanager, ArcGIS Online)",
    "source_vintage": "MAR2025",
    "retrieved": "2026-09-09"
   }
  },
  {
   "type": "Feature",
   "geometry": {
    "type": "Point",
    "coordinates": [
     -118.296516,
     33.858346
    ]
   },
   "properties": {
    "name": "Gardena VA Clinic",
    "type": "CBOC",
    "sta_no": "600GF",
    "sta_class": "PCCBOC",
    "address": "1149 West 190th Street, Gardena, CA 90248",
    "city": "Gardena",
    "county": "Los Angeles",
    "source": "VHA Facilities (vhacontentmanager, ArcGIS Online)",
    "source_vintage": "MAR2025",
    "retrieved": "2026-09-09"
   }
  },
  {
   "type": "Feature",
   "geometry": {
    "type": "Point",
    "coordinates": [
     -116.964842,
     33.749409
    ]
   },
   "properties": {
    "name": "Hemet VA Clinic",
    "type": "CBOC",
    "sta_no": "605GG",
    "sta_class": "OOS",
    "address": "720 East Latham Avenue, Hemet, CA 92543",
    "city": "Hemet",
    "county": "Riverside",
    "source": "VHA Facilities (vhacontentmanager, ArcGIS Online)",
    "source_vintage": "MAR2025",
    "retrieved": "2026-09-09"
   }
  },
  {
   "type": "Feature",
   "geometry": {
    "type": "Point",
    "coordinates": [
     -115.57123,
     32.792786
    ]
   },
   "properties": {
    "name": "Imperial Valley VA Clinic",
    "type": "CBOC",
    "sta_no": "664GA",
    "sta_class": "OOS",
    "address": "1501 West Main Street, El Centro, CA 92243-2211",
    "city": "El Centro",
    "county": "Imperial",
    "source": "VHA Facilities (vhacontentmanager, ArcGIS Online)",
    "source_vintage": "MAR2025",
    "retrieved": "2026-09-09",
    "override_reason": "Current va.gov address is 1501 W Main St; the VHA MAR2025 layer lists 1115 S 4th St.",
    "override_source": "https://www.va.gov/san-diego-health-care/locations/imperial-valley-va-clinic/ ; coordinate from U.S. Census Bureau geocoder"
   }
  },
  {
   "type": "Feature",
   "geometry": {
    "type": "Point",
    "coordinates": [
     -117.137068,
     32.809743
    ]
   },
   "properties": {
    "name": "Kearny Mesa VA Clinic",
    "type": "CBOC",
    "sta_no": "664BY",
    "sta_class": "MSCBOC",
    "address": "8875 Aero Drive, San Diego, CA 92123",
    "city": "San Diego",
    "county": "San Diego",
    "source": "VHA Facilities (vhacontentmanager, ArcGIS Online)",
    "source_vintage": "MAR2025",
    "retrieved": "2026-09-09"
   }
  },
  {
   "type": "Feature",
   "geometry": {
    "type": "Point",
    "coordinates": [
     -117.73148,
     33.618222
    ]
   },
   "properties": {
    "name": "Laguna Hills VA Clinic",
    "type": "CBOC",
    "sta_no": "600GE",
    "sta_class": "PCCBOC",
    "address": "23719 Moulton Parkway, Laguna Hills, CA 92653",
    "city": "Laguna Hills",
    "county": "Orange",
    "source": "VHA Facilities (vhacontentmanager, ArcGIS Online)",
    "source_vintage": "MAR2025",
    "retrieved": "2026-09-09"
   }
  },
  {
   "type": "Feature",
   "geometry": {
    "type": "Point",
    "coordinates": [
     -117.235278,
     34.061049
    ]
   },
   "properties": {
    "name": "Loma Linda VA Clinic",
    "type": "CBOC",
    "sta_no": "605BZ",
    "sta_class": "MSCBOC",
    "address": "26001 Redlands Boulevard, Redlands, CA 92373",
    "city": "Redlands",
    "county": "San Bernardino",
    "source": "VHA Facilities (vhacontentmanager, ArcGIS Online)",
    "source_vintage": "MAR2025",
    "retrieved": "2026-09-09"
   }
  },
  {
   "type": "Feature",
   "geometry": {
    "type": "Point",
    "coordinates": [
     -118.238479,
     34.051491
    ]
   },
   "properties": {
    "name": "Los Angeles VA Clinic",
    "type": "CBOC",
    "sta_no": "691GE",
    "sta_class": "MSCBOC",
    "address": "351 East Temple Street, Los Angeles, CA 90012",
    "city": "Los Angeles",
    "county": "Los Angeles",
    "source": "VHA Facilities (vhacontentmanager, ArcGIS Online)",
    "source_vintage": "MAR2025",
    "retrieved": "2026-09-09"
   }
  },
  {
   "type": "Feature",
   "geometry": {
    "type": "Point",
    "coordinates": [
     -121.813482,
     36.662492
    ]
   },
   "properties": {
    "name": "Major General William H. Gourley VA-DoD Outpatient Clinic",
    "type": "CBOC",
    "sta_no": "640HC",
    "sta_class": "MSCBOC",
    "address": "201 9th Street, Marina, CA 93933",
    "city": "Marina",
    "county": "Monterey",
    "source": "VHA Facilities (vhacontentmanager, ArcGIS Online)",
    "source_vintage": "MAR2025",
    "retrieved": "2026-09-09"
   }
  },
  {
   "type": "Feature",
   "geometry": {
    "type": "Point",
    "coordinates": [
     -122.286855,
     38.114183
    ]
   },
   "properties": {
    "name": "Mare Island VA Clinic",
    "type": "CBOC",
    "sta_no": "612GE",
    "sta_class": "PCCBOC",
    "address": "201 Walnut Avenue, Mare Island, CA 94592",
    "city": "Mare Island",
    "county": "Solano",
    "source": "VHA Facilities (vhacontentmanager, ArcGIS Online)",
    "source_vintage": "MAR2025",
    "retrieved": "2026-09-09"
   }
  },
  {
   "type": "Feature",
   "geometry": {
    "type": "Point",
    "coordinates": [
     -121.38646,
     38.664378
    ]
   },
   "properties": {
    "name": "McClellan VA Clinic",
    "type": "CBOC",
    "sta_no": "612GH",
    "sta_class": "MSCBOC",
    "address": "5342 Dudley Boulevard, McClellan Park, CA 95652",
    "city": "McClellan Park",
    "county": "Sacramento",
    "source": "VHA Facilities (vhacontentmanager, ArcGIS Online)",
    "source_vintage": "MAR2025",
    "retrieved": "2026-09-09"
   }
  },
  {
   "type": "Feature",
   "geometry": {
    "type": "Point",
    "coordinates": [
     -120.46482,
     37.330848
    ]
   },
   "properties": {
    "name": "Merced VA Clinic",
    "type": "CBOC",
    "sta_no": "570GA",
    "sta_class": "PCCBOC",
    "address": "340 East Yosemite Avenue, Merced, CA 95340",
    "city": "Merced",
    "county": "Merced",
    "source": "VHA Facilities (vhacontentmanager, ArcGIS Online)",
    "source_vintage": "MAR2025",
    "retrieved": "2026-09-09"
   }
  },
  {
   "type": "Feature",
   "geometry": {
    "type": "Point",
    "coordinates": [
     -120.957552,
     37.660611
    ]
   },
   "properties": {
    "name": "Modesto VA Clinic",
    "type": "CBOC",
    "sta_no": "612GM",
    "sta_class": "PCCBOC",
    "address": "1225 Oakdale Road, Modesto, CA 95355",
    "city": "Modesto",
    "county": "Stanislaus",
    "source": "VHA Facilities (vhacontentmanager, ArcGIS Online)",
    "source_vintage": "MAR2025",
    "retrieved": "2026-09-09"
   }
  },
  {
   "type": "Feature",
   "geometry": {
    "type": "Point",
    "coordinates": [
     -117.199679,
     33.556583
    ]
   },
   "properties": {
    "name": "Murrieta VA Clinic",
    "type": "CBOC",
    "sta_no": "605GB",
    "sta_class": "MSCBOC",
    "address": "25125 Madison Avenue, Murrieta, CA 92562",
    "city": "Murrieta",
    "county": "Riverside",
    "source": "VHA Facilities (vhacontentmanager, ArcGIS Online)",
    "source_vintage": "MAR2025",
    "retrieved": "2026-09-09"
   }
  },
  {
   "type": "Feature",
   "geometry": {
    "type": "Point",
    "coordinates": [
     -117.240207,
     34.065011
    ]
   },
   "properties": {
    "name": "North Loma Linda VA Clinic",
    "type": "CBOC",
    "sta_no": "605GF",
    "sta_class": "PCCBOC",
    "address": "10391 Corporate Drive, Redlands, CA 92374",
    "city": "Redlands",
    "county": "San Bernardino",
    "source": "VHA Facilities (vhacontentmanager, ArcGIS Online)",
    "source_vintage": "MAR2025",
    "retrieved": "2026-09-09"
   }
  },
  {
   "type": "Feature",
   "geometry": {
    "type": "Point",
    "coordinates": [
     -122.793357,
     38.512205
    ]
   },
   "properties": {
    "name": "North Santa Rosa VA Clinic",
    "type": "CBOC",
    "sta_no": "662QB",
    "sta_class": "OOS",
    "address": "3841 Brickway Boulevard, Santa Rosa, CA 95403",
    "city": "Santa Rosa",
    "county": "Sonoma",
    "source": "VHA Facilities (vhacontentmanager, ArcGIS Online)",
    "source_vintage": "MAR2025",
    "retrieved": "2026-09-09"
   }
  },
  {
   "type": "Feature",
   "geometry": {
    "type": "Point",
    "coordinates": [
     -119.669289,
     37.3385
    ]
   },
   "properties": {
    "name": "Oakhurst VA Clinic",
    "type": "CBOC",
    "sta_no": "570GC",
    "sta_class": "PCCBOC",
    "address": "40597 Westlake Drive, Oakhurst, CA 93644",
    "city": "Oakhurst",
    "county": "Madera",
    "source": "VHA Facilities (vhacontentmanager, ArcGIS Online)",
    "source_vintage": "MAR2025",
    "retrieved": "2026-09-09"
   }
  },
  {
   "type": "Feature",
   "geometry": {
    "type": "Point",
    "coordinates": [
     -122.273019,
     37.811923
    ]
   },
   "properties": {
    "name": "Oakland VA Clinic",
    "type": "CBOC",
    "sta_no": "662GH",
    "sta_class": "MSCBOC",
    "address": "2221 Martin Luther King Jr. Way, Oakland, CA 94612",
    "city": "Oakland",
    "county": "Alameda",
    "source": "VHA Facilities (vhacontentmanager, ArcGIS Online)",
    "source_vintage": "MAR2025",
    "retrieved": "2026-09-09"
   }
  },
  {
   "type": "Feature",
   "geometry": {
    "type": "Point",
    "coordinates": [
     -117.310846,
     33.207399
    ]
   },
   "properties": {
    "name": "Oceanside VA Clinic",
    "type": "CBOC",
    "sta_no": "664GB",
    "sta_class": "MSCBOC",
    "address": "1300 Rancho del Oro Drive, Oceanside, CA 92056",
    "city": "Oceanside",
    "county": "San Diego",
    "source": "VHA Facilities (vhacontentmanager, ArcGIS Online)",
    "source_vintage": "MAR2025",
    "retrieved": "2026-09-09"
   }
  },
  {
   "type": "Feature",
   "geometry": {
    "type": "Point",
    "coordinates": [
     -117.882371,
     33.862285
    ]
   },
   "properties": {
    "name": "Placentia VA Clinic",
    "type": "CBOC",
    "sta_no": "600GA",
    "sta_class": "MSCBOC",
    "address": "770 South Placentia Avenue, Placentia, CA 92870",
    "city": "Placentia",
    "county": "Orange",
    "source": "VHA Facilities (vhacontentmanager, ArcGIS Online)",
    "source_vintage": "MAR2025",
    "retrieved": "2026-09-09"
   }
  },
  {
   "type": "Feature",
   "geometry": {
    "type": "Point",
    "coordinates": [
     -117.539505,
     34.105158
    ]
   },
   "properties": {
    "name": "Rancho Cucamonga VA Clinic",
    "type": "CBOC",
    "sta_no": "605GE",
    "sta_class": "PCCBOC",
    "address": "8160 Day Creek Boulevard, Rancho Cucamonga, CA 91739",
    "city": "Rancho Cucamonga",
    "county": "San Bernardino",
    "source": "VHA Facilities (vhacontentmanager, ArcGIS Online)",
    "source_vintage": "MAR2025",
    "retrieved": "2026-09-09"
   }
  },
  {
   "type": "Feature",
   "geometry": {
    "type": "Point",
    "coordinates": [
     -122.312566,
     40.50703
    ]
   },
   "properties": {
    "name": "Redding VA Clinic",
    "type": "CBOC",
    "sta_no": "612B4",
    "sta_class": "MSCBOC",
    "address": "3455 Knighton Road, Redding, CA 96002",
    "city": "Redding",
    "county": "Shasta",
    "source": "VHA Facilities (vhacontentmanager, ArcGIS Online)",
    "source_vintage": "MAR2025",
    "retrieved": "2026-09-09"
   }
  },
  {
   "type": "Feature",
   "geometry": {
    "type": "Point",
    "coordinates": [
     -121.284613,
     37.89177
    ]
   },
   "properties": {
    "name": "Richard A. Pittman VA Clinic",
    "type": "CBOC",
    "sta_no": "612QE",
    "sta_class": "MSCBOC",
    "address": "6505 South Manthey Road, French Camp, CA 95231",
    "city": "French Camp",
    "county": "San Joaquin",
    "source": "VHA Facilities (vhacontentmanager, ArcGIS Online)",
    "source_vintage": "MAR2025",
    "retrieved": "2026-09-09"
   }
  },
  {
   "type": "Feature",
   "geometry": {
    "type": "Point",
    "coordinates": [
     -117.13677,
     32.775797
    ]
   },
   "properties": {
    "name": "Rio VA Clinic",
    "type": "CBOC",
    "sta_no": "664QA",
    "sta_class": "OOS",
    "address": "8989 Rio San Diego Drive, San Diego, CA 92108",
    "city": "San Diego",
    "county": "San Diego",
    "source": "VHA Facilities (vhacontentmanager, ArcGIS Online)",
    "source_vintage": "MAR2025",
    "retrieved": "2026-09-09"
   }
  },
  {
   "type": "Feature",
   "geometry": {
    "type": "Point",
    "coordinates": [
     -122.425789,
     37.634692
    ]
   },
   "properties": {
    "name": "San Bruno VA Clinic",
    "type": "CBOC",
    "sta_no": "662GE",
    "sta_class": "MSCBOC",
    "address": "1001 Sneath Lane, San Bruno, CA 94066",
    "city": "San Bruno",
    "county": "San Mateo",
    "source": "VHA Facilities (vhacontentmanager, ArcGIS Online)",
    "source_vintage": "MAR2025",
    "retrieved": "2026-09-09"
   }
  },
  {
   "type": "Feature",
   "geometry": {
    "type": "Point",
    "coordinates": [
     -122.397133,
     37.782549
    ]
   },
   "properties": {
    "name": "San Francisco VA Clinic",
    "type": "CBOC",
    "sta_no": "662GF",
    "sta_class": "PCCBOC",
    "address": "401 3rd Street, San Francisco, CA 94107",
    "city": "San Francisco",
    "county": "San Francisco",
    "source": "VHA Facilities (vhacontentmanager, ArcGIS Online)",
    "source_vintage": "MAR2025",
    "retrieved": "2026-09-09"
   }
  },
  {
   "type": "Feature",
   "geometry": {
    "type": "Point",
    "coordinates": [
     -118.03227,
     34.151082
    ]
   },
   "properties": {
    "name": "San Gabriel Valley VA Clinic",
    "type": "CBOC",
    "sta_no": "691GP",
    "sta_class": "PCCBOC",
    "address": "7 West Foothill Boulevard, Arcadia, CA 91006",
    "city": "Arcadia",
    "county": "Los Angeles",
    "source": "VHA Facilities (vhacontentmanager, ArcGIS Online)",
    "source_vintage": "MAR2025",
    "retrieved": "2026-09-09"
   }
  },
  {
   "type": "Feature",
   "geometry": {
    "type": "Point",
    "coordinates": [
     -121.785934,
     37.268331
    ]
   },
   "properties": {
    "name": "San Jose VA Clinic",
    "type": "CBOC",
    "sta_no": "640BY",
    "sta_class": "MSCBOC",
    "address": "5855 Silver Creek Valley Place, San Jose, CA 95138",
    "city": "San Jose",
    "county": "Santa Clara",
    "source": "VHA Facilities (vhacontentmanager, ArcGIS Online)",
    "source_vintage": "MAR2025",
    "retrieved": "2026-09-09"
   }
  },
  {
   "type": "Feature",
   "geometry": {
    "type": "Point",
    "coordinates": [
     -120.660414,
     35.279243
    ]
   },
   "properties": {
    "name": "San Luis Obispo VA Clinic",
    "type": "CBOC",
    "sta_no": "691GK",
    "sta_class": "PCCBOC",
    "address": "1288 Morro Street, San Luis Obispo, CA 93401",
    "city": "San Luis Obispo",
    "county": "San Luis Obispo",
    "source": "VHA Facilities (vhacontentmanager, ArcGIS Online)",
    "source_vintage": "MAR2025",
    "retrieved": "2026-09-09"
   }
  },
  {
   "type": "Feature",
   "geometry": {
    "type": "Point",
    "coordinates": [
     -117.849711,
     33.714754
    ]
   },
   "properties": {
    "name": "Santa Ana VA Clinic",
    "type": "CBOC",
    "sta_no": "600GB",
    "sta_class": "MSCBOC",
    "address": "1506 Brookhollow Drive, Santa Ana, CA 92705",
    "city": "Santa Ana",
    "county": "Orange",
    "source": "VHA Facilities (vhacontentmanager, ArcGIS Online)",
    "source_vintage": "MAR2025",
    "retrieved": "2026-09-09"
   }
  },
  {
   "type": "Feature",
   "geometry": {
    "type": "Point",
    "coordinates": [
     -119.776461,
     34.442403
    ]
   },
   "properties": {
    "name": "Santa Barbara VA Clinic",
    "type": "CBOC",
    "sta_no": "691GB",
    "sta_class": "PCCBOC",
    "address": "4440 Calle Real, Santa Barbara, CA 93110",
    "city": "Santa Barbara",
    "county": "Santa Barbara",
    "source": "VHA Facilities (vhacontentmanager, ArcGIS Online)",
    "source_vintage": "MAR2025",
    "retrieved": "2026-09-09"
   }
  },
  {
   "type": "Feature",
   "geometry": {
    "type": "Point",
    "coordinates": [
     -118.081793,
     33.942348
    ]
   },
   "properties": {
    "name": "Santa Fe Springs VA Clinic",
    "type": "CBOC",
    "sta_no": "600GD",
    "sta_class": "PCCBOC",
    "address": "10330 Pioneer Boulevard, Santa Fe Springs, CA 90670",
    "city": "Santa Fe Springs",
    "county": "Los Angeles",
    "source": "VHA Facilities (vhacontentmanager, ArcGIS Online)",
    "source_vintage": "MAR2025",
    "retrieved": "2026-09-09"
   }
  },
  {
   "type": "Feature",
   "geometry": {
    "type": "Point",
    "coordinates": [
     -120.407485,
     34.952743
    ]
   },
   "properties": {
    "name": "Santa Maria VA Clinic",
    "type": "CBOC",
    "sta_no": "691GL",
    "sta_class": "MSCBOC",
    "address": "1550 East Main Street, Santa Maria, CA 93454",
    "city": "Santa Maria",
    "county": "Santa Barbara",
    "source": "VHA Facilities (vhacontentmanager, ArcGIS Online)",
    "source_vintage": "MAR2025",
    "retrieved": "2026-09-09"
   }
  },
  {
   "type": "Feature",
   "geometry": {
    "type": "Point",
    "coordinates": [
     -121.098887,
     38.941543
    ]
   },
   "properties": {
    "name": "Sierra Foothills VA Clinic",
    "type": "CBOC",
    "sta_no": "612GK",
    "sta_class": "PCCBOC",
    "address": "11985 Heritage Oaks Place, Auburn, CA 95603",
    "city": "Auburn",
    "county": "Placer",
    "source": "VHA Facilities (vhacontentmanager, ArcGIS Online)",
    "source_vintage": "MAR2025",
    "retrieved": "2026-09-09"
   }
  },
  {
   "type": "Feature",
   "geometry": {
    "type": "Point",
    "coordinates": [
     -120.344997,
     37.975063
    ]
   },
   "properties": {
    "name": "Sonora VA Clinic",
    "type": "CBOC",
    "sta_no": "612GL",
    "sta_class": "PCCBOC",
    "address": "13663 Mono Way, Sonora, CA 95370",
    "city": "Sonora",
    "county": "Tuolumne",
    "source": "VHA Facilities (vhacontentmanager, ArcGIS Online)",
    "source_vintage": "MAR2025",
    "retrieved": "2026-09-09"
   }
  },
  {
   "type": "Feature",
   "geometry": {
    "type": "Point",
    "coordinates": [
     -117.217149,
     32.895035
    ]
   },
   "properties": {
    "name": "Sorrento Valley VA Clinic",
    "type": "CBOC",
    "sta_no": "664GF",
    "sta_class": "PCCBOC",
    "address": "10455 Sorrento Valley Road, San Diego, CA 92121",
    "city": "San Diego",
    "county": "San Diego",
    "source": "VHA Facilities (vhacontentmanager, ArcGIS Online)",
    "source_vintage": "MAR2025",
    "retrieved": "2026-09-09"
   }
  },
  {
   "type": "Feature",
   "geometry": {
    "type": "Point",
    "coordinates": [
     -122.751086,
     38.423664
    ]
   },
   "properties": {
    "name": "South Santa Rosa VA Clinic",
    "type": "CBOC",
    "sta_no": "662GA",
    "sta_class": "MSCBOC",
    "address": "2285 Challenger Way, Santa Rosa, CA 95407",
    "city": "Santa Rosa",
    "county": "Sonoma",
    "source": "VHA Facilities (vhacontentmanager, ArcGIS Online)",
    "source_vintage": "MAR2025",
    "retrieved": "2026-09-09"
   }
  },
  {
   "type": "Feature",
   "geometry": {
    "type": "Point",
    "coordinates": [
     -116.391542,
     33.805836
    ]
   },
   "properties": {
    "name": "Sy Kaplan VA Clinic",
    "type": "CBOC",
    "sta_no": "605GC",
    "sta_class": "MSCBOC",
    "address": "72700 Dinah Shore Drive, Palm Desert, CA 92211",
    "city": "Palm Desert",
    "county": "Riverside",
    "source": "VHA Facilities (vhacontentmanager, ArcGIS Online)",
    "source_vintage": "MAR2025",
    "retrieved": "2026-09-09"
   }
  },
  {
   "type": "Feature",
   "geometry": {
    "type": "Point",
    "coordinates": [
     -122.270437,
     37.810451
    ]
   },
   "properties": {
    "name": "Twenty-First Street VA Clinic",
    "type": "CBOC",
    "sta_no": "662QA",
    "sta_class": "OOS",
    "address": "525 21st Street, Oakland, CA 94612",
    "city": "Oakland",
    "county": "Alameda",
    "source": "VHA Facilities (vhacontentmanager, ArcGIS Online)",
    "source_vintage": "MAR2025",
    "retrieved": "2026-09-09"
   }
  },
  {
   "type": "Feature",
   "geometry": {
    "type": "Point",
    "coordinates": [
     -123.197544,
     39.148119
    ]
   },
   "properties": {
    "name": "Ukiah VA Clinic",
    "type": "CBOC",
    "sta_no": "662GD",
    "sta_class": "MSCBOC",
    "address": "630 Kings Court, Ukiah, CA 95482",
    "city": "Ukiah",
    "county": "Mendocino",
    "source": "VHA Facilities (vhacontentmanager, ArcGIS Online)",
    "source_vintage": "MAR2025",
    "retrieved": "2026-09-09"
   }
  },
  {
   "type": "Feature",
   "geometry": {
    "type": "Point",
    "coordinates": [
     -117.313648,
     34.515876
    ]
   },
   "properties": {
    "name": "Victorville VA Clinic",
    "type": "CBOC",
    "sta_no": "605GA",
    "sta_class": "MSCBOC",
    "address": "14598 Seventh Street, Victorville, CA 92395",
    "city": "Victorville",
    "county": "San Bernardino",
    "source": "VHA Facilities (vhacontentmanager, ArcGIS Online)",
    "source_vintage": "MAR2025",
    "retrieved": "2026-09-09"
   }
  },
  {
   "type": "Feature",
   "geometry": {
    "type": "Point",
    "coordinates": [
     -119.287598,
     36.334053
    ]
   },
   "properties": {
    "name": "Visalia VA Clinic",
    "type": "CBOC",
    "sta_no": "570GB",
    "sta_class": "PCCBOC",
    "address": "500 North Santa Fe Street, Visalia, CA 93292",
    "city": "Visalia",
    "county": "Tulare",
    "source": "VHA Facilities (vhacontentmanager, ArcGIS Online)",
    "source_vintage": "MAR2025",
    "retrieved": "2026-09-09"
   }
  },
  {
   "type": "Feature",
   "geometry": {
    "type": "Point",
    "coordinates": [
     -117.876029,
     33.747642
    ]
   },
   "properties": {
    "name": "West Santa Ana VA Clinic",
    "type": "CBOC",
    "sta_no": "600QA",
    "sta_class": "OOS",
    "address": "888 West Santa Ana Boulevard, Santa Ana, CA 92701",
    "city": "Santa Ana",
    "county": "Orange",
    "source": "VHA Facilities (vhacontentmanager, ArcGIS Online)",
    "source_vintage": "MAR2025",
    "retrieved": "2026-09-09"
   }
  },
  {
   "type": "Feature",
   "geometry": {
    "type": "Point",
    "coordinates": [
     -122.638661,
     41.716005
    ]
   },
   "properties": {
    "name": "Yreka VA Clinic",
    "type": "CBOC",
    "sta_no": "612GJ",
    "sta_class": "PCCBOC",
    "address": "101 East Oberlin Road, Yreka, CA 96097",
    "city": "Yreka",
    "county": "Siskiyou",
    "source": "VHA Facilities (vhacontentmanager, ArcGIS Online)",
    "source_vintage": "MAR2025",
    "retrieved": "2026-09-09"
   }
  },
  {
   "type": "Feature",
   "geometry": {
    "type": "Point",
    "coordinates": [
     -121.613858,
     39.131082
    ]
   },
   "properties": {
    "name": "Yuba City VA Clinic",
    "type": "CBOC",
    "sta_no": "612GI",
    "sta_class": "MSCBOC",
    "address": "425 Plumas Boulevard, Yuba City, CA 95991",
    "city": "Yuba City",
    "county": "Sutter",
    "source": "VHA Facilities (vhacontentmanager, ArcGIS Online)",
    "source_vintage": "MAR2025",
    "retrieved": "2026-09-09"
   }
  }
 ]
}